{"type": "FeatureCollection", "features": [{"type": "Feature", "geometry": {"type": "Point", "coordinates": [20.568787406, 38.19293195]}, "properties": {"name": "Δήμος Αργοστολίου", "name_el": "Δήμος Αργοστολίου", "name_en": "Argostoli Municipality"}}, {"type": "Feature", "geometry": {"type": "Point", "coordinates": [20.393164002, 38.25314245]}, "properties": {"name": "Δήμος Ληξουρίου", "name_el": "Δήμος Ληξουρίου", "name_en": "Lixouri Municipality"}}, {"type": "Feature", "geometry": {"type": "Point", "coordinates": [20.55334777, 38.30247545]}, "properties": {"name": "Δήμος Σάμης", "name_el": "Δήμος Σάμης", "name_en": "Sami Municipality"}}]}
