{"type": "FeatureCollection", "features": [{"type": "Feature", "geometry": {"type": "Point", "coordinates": [20.4165234, 38.3175999]}, "properties": {"name": "Αθέρας", "place": "village", "osm_id": 1770625668, "name_el": "Αθέρας", "name_en": "Atheras"}}, {"type": "Feature", "geometry": {"type": "Point", "coordinates": [20.5511687, 38.4637652]}, "properties": {"name": "Αντιπάτα", "place": "village", "osm_id": 1583901093, "name_el": "Αντιπάτα", "name_en": "Antipata"}}, {"type": "Feature", "geometry": {"type": "Point", "coordinates": [20.5627446, 38.4638696]}, "properties": {"name": "Γερμενάτα", "place": "village", "osm_id": 1583901100, "name_el": "Γερμενάτα", "name_en": "Germenata"}}, {"type": "Feature", "geometry": {"type": "Point", "coordinates": [20.5813635, 38.434872]}, "properties": {"name": "Ευρετή", "place": "village", "osm_id": 1583907587, "name_el": "Ευρετή", "name_en": "Evreti"}}, {"type": "Feature", "geometry": {"type": "Point", "coordinates": [20.5725837, 38.4452368]}, "properties": {"name": "Ματσουκάτα", "place": "village", "osm_id": 1583901109, "name_el": "Ματσουκάτα", "name_en": "Matsoukata"}}, {"type": "Feature", "geometry": {"type": "Point", "coordinates": [20.5752739, 38.4489818]}, "properties": {"name": "Τσελεντάτα", "place": "village", "osm_id": 2919969310, "name_el": "Τσελεντάτα", "name_en": "Tselentata"}}, {"type": "Feature", "geometry": {"type": "Point", "coordinates": [20.5752362, 38.4609277]}, "properties": {"name": "Φισκάρδο", "place": "village", "osm_id": 1587388041, "name_el": "Φισκάρδο", "name_en": "Fiskardo"}}, {"type": "Feature", "geometry": {"type": "Point", "coordinates": [20.5595953, 38.4579521]}, "properties": {"name": "Ψιλιθριάς", "place": "village", "osm_id": 2917032804, "name_el": "Ψιλιθριάς", "name_en": "Psilithrias"}}, {"type": "Feature", "geometry": {"type": "Point", "coordinates": [20.5650969, 38.45541]}, "properties": {"name": "Spiliovouno", "place": "locality", "osm_id": 2919969309, "name_el": null, "name_en": null}}, {"type": "Feature", "geometry": {"type": "Point", "coordinates": [20.5669626, 38.449979]}, "properties": {"name": "Κατσαράτα", "place": "hamlet", "osm_id": 1583901102, "name_el": "Κατσαράτα", "name_en": "Katsarata"}}, {"type": "Feature", "geometry": {"type": "Point", "coordinates": [20.5536887, 38.4476556]}, "properties": {"name": "Μάγγανος", "place": "village", "osm_id": 1583901104, "name_el": "Μάγγανος", "name_en": "Maganos"}}, {"type": "Feature", "geometry": {"type": "Point", "coordinates": [20.5501405, 38.4593249]}, "properties": {"name": "Μαρκαντονάτα", "place": "locality", "osm_id": 2925337667, "name_el": "Μαρκαντονάτα", "name_en": "Markantonata"}}, {"type": "Feature", "geometry": {"type": "Point", "coordinates": [20.545968, 38.4583527]}, "properties": {"name": "Φραπατα", "place": "village", "osm_id": 2917303855, "name_el": "Φραπατα", "name_en": "Frapata"}}, {"type": "Feature", "geometry": {"type": "Point", "coordinates": [20.5489604, 38.4435399]}, "properties": {"name": "Αγριλιάς", "place": "village", "osm_id": 1583901090, "name_el": "Αγριλιάς", "name_en": "Agrilias"}}, {"type": "Feature", "geometry": {"type": "Point", "coordinates": [20.5429175, 38.4374747]}, "properties": {"name": "Τζαμαρελλάτα", "place": "village", "osm_id": 1583901110, "name_el": "Τζαμαρελλάτα", "name_en": "Tzamerelata"}}, {"type": "Feature", "geometry": {"type": "Point", "coordinates": [20.55869, 38.4356678]}, "properties": {"name": "Τουλιάτα", "place": "village", "osm_id": 1583901113, "name_el": "Τουλιάτα", "name_en": "Touliata"}}, {"type": "Feature", "geometry": {"type": "Point", "coordinates": [20.5668226, 38.4369457]}, "properties": {"name": "Βεντουράτα", "place": "village", "osm_id": 1583901096, "name_el": "Βεντουράτα", "name_en": "Ventourata"}}, {"type": "Feature", "geometry": {"type": "Point", "coordinates": [20.5513676, 38.4267569]}, "properties": {"name": "Βιγλί", "place": "hamlet", "osm_id": 1583907555, "name_el": "Βιγλί", "name_en": "Vigli"}}, {"type": "Feature", "geometry": {"type": "Point", "coordinates": [20.5585749, 38.4296319]}, "properties": {"name": "Μαρκουλάτα", "place": "village", "osm_id": 1583907639, "name_el": "Μαρκουλάτα", "name_en": "Markoulata"}}, {"type": "Feature", "geometry": {"type": "Point", "coordinates": [20.5442393, 38.4324452]}, "properties": {"name": "Χαλικερή", "place": "village", "osm_id": 1583907675, "name_el": "Χαλικερή", "name_en": "Chalikeri"}}, {"type": "Feature", "geometry": {"type": "Point", "coordinates": [20.5620776, 38.411647]}, "properties": {"name": "Βασιλικιάδες", "place": "village", "osm_id": 1583907542, "name_el": "Βασιλικιάδες", "name_en": "Vasilikiades"}}, {"type": "Feature", "geometry": {"type": "Point", "coordinates": [20.5698547, 38.407088]}, "properties": {"name": "Μεσοβούνια", "place": "village", "osm_id": 1583907652, "name_el": "Μεσοβούνια", "name_en": "Mesovounia"}}, {"type": "Feature", "geometry": {"type": "Point", "coordinates": [20.5709722, 38.427033]}, "properties": {"name": "Κονιδαράτα", "place": "village", "osm_id": 1583907632, "name_el": "Κονιδαράτα", "name_en": "Konodarata"}}, {"type": "Feature", "geometry": {"type": "Point", "coordinates": [20.5816764, 38.3919455]}, "properties": {"name": "Πλαγιά", "place": "village", "osm_id": 1583907661, "name_el": "Πλαγιά", "name_en": "Plagia"}}, {"type": "Feature", "geometry": {"type": "Point", "coordinates": [20.5821591, 38.3851197]}, "properties": {"name": "Βαρύ", "place": "village", "osm_id": 1583907534, "name_el": "Βαρύ", "name_en": "Vary"}}, {"type": "Feature", "geometry": {"type": "Point", "coordinates": [20.5983435, 38.355166]}, "properties": {"name": "Κομιτάτα", "place": "village", "osm_id": 1583907625, "name_el": "Κομιτάτα", "name_en": "Komitata"}}, {"type": "Feature", "geometry": {"type": "Point", "coordinates": [20.5703085, 38.3648557]}, "properties": {"name": "Πατρικάτα", "place": "village", "osm_id": 1583907660, "name_el": "Πατρικάτα", "name_en": "Patrikata"}}, {"type": "Feature", "geometry": {"type": "Point", "coordinates": [20.5772739, 38.3699452]}, "properties": {"name": "Καρυά", "place": "village", "osm_id": 1583907600, "name_el": "Καρυά", "name_en": "Karya"}}, {"type": "Feature", "geometry": {"type": "Point", "coordinates": [20.5400394, 38.3773361]}, "properties": {"name": "Άσος", "place": "village", "osm_id": 1583907523, "name_el": "Άσος", "name_en": "Assos"}}, {"type": "Feature", "geometry": {"type": "Point", "coordinates": [20.5634819, 38.3833166]}, "properties": {"name": "Δεφαρανάτα", "place": "village", "osm_id": 1583907559, "name_el": "Δεφαρανάτα", "name_en": "Defaranata"}}, {"type": "Feature", "geometry": {"type": "Point", "coordinates": [20.5624286, 38.3877737]}, "properties": {"name": "Κοκολάτα", "place": "village", "osm_id": 1583907617, "name_el": "Κοκολάτα", "name_en": "Kokolata"}}, {"type": "Feature", "geometry": {"type": "Point", "coordinates": [20.5639047, 38.3934314]}, "properties": {"name": "Κοθρέας", "place": "village", "osm_id": 1583907608, "name_el": "Κοθρέας", "name_en": "Kothreas"}}, {"type": "Feature", "geometry": {"type": "Point", "coordinates": [20.55163, 38.4011824]}, "properties": {"name": "Δραπανίτικα", "place": "village", "osm_id": 1583907571, "name_el": "Δραπανίτικα", "name_en": "Drapanitika"}}, {"type": "Feature", "geometry": {"type": "Point", "coordinates": [20.4695393, 38.3104538]}, "properties": {"name": "Ζόλα", "place": "village", "osm_id": 1770625677, "name_el": "Ζόλα", "name_en": "Zola"}}, {"type": "Feature", "geometry": {"type": "Point", "coordinates": [20.4821369, 38.2894823]}, "properties": {"name": "Νύφι", "place": "village", "osm_id": 1770625695, "name_el": "Νύφι", "name_en": "Nyfi"}}, {"type": "Feature", "geometry": {"type": "Point", "coordinates": [20.4892889, 38.3027452]}, "properties": {"name": "Αγκώνας", "place": "village", "osm_id": 1770625667, "name_el": "Αγκώνας", "name_en": "Agkonas"}}, {"type": "Feature", "geometry": {"type": "Point", "coordinates": [20.5564305, 38.3089811]}, "properties": {"name": "Μακριώτικα", "place": "village", "osm_id": 1770625688, "name_el": "Μακριώτικα", "name_en": "Makriotika"}}, {"type": "Feature", "geometry": {"type": "Point", "coordinates": [20.5497058, 38.322455]}, "properties": {"name": "Λουκάτα", "place": "hamlet", "osm_id": 1770625687, "name_el": "Λουκάτα", "name_en": "Loukata"}}, {"type": "Feature", "geometry": {"type": "Point", "coordinates": [20.5496275, 38.3308568]}, "properties": {"name": "Διβαράτα", "place": "village", "osm_id": 1770625672, "name_el": "Διβαράτα", "name_en": "Divarata"}}, {"type": "Feature", "geometry": {"type": "Point", "coordinates": [20.560881, 38.3248147]}, "properties": {"name": "Αντιπάτα", "place": "village", "osm_id": 1770625670, "name_el": "Αντιπάτα", "name_en": "Antipata"}}, {"type": "Feature", "geometry": {"type": "Point", "coordinates": [20.556824, 38.3223513]}, "properties": {"name": "Μπεκατωράτα", "place": "hamlet", "osm_id": 2937022579, "name_el": "Μπεκατωράτα", "name_en": "Bekatorata"}}, {"type": "Feature", "geometry": {"type": "Point", "coordinates": [20.569189, 38.318413]}, "properties": {"name": "Φερεντινάτα", "place": "hamlet", "osm_id": 1770625703, "name_el": "Φερεντινάτα", "name_en": "Ferentinata"}}, {"type": "Feature", "geometry": {"type": "Point", "coordinates": [20.5812491, 38.3155093]}, "properties": {"name": "Ξηροπόταμος", "place": "hamlet", "osm_id": 1770625696, "name_el": "Ξηροπόταμος", "name_en": "Xiropotamos"}}, {"type": "Feature", "geometry": {"type": "Point", "coordinates": [20.5781983, 38.3168969]}, "properties": {"name": "Δενδρινάτα", "place": "hamlet", "osm_id": 1523402365, "name_el": null, "name_en": null}}, {"type": "Feature", "geometry": {"type": "Point", "coordinates": [20.5783905, 38.2989343]}, "properties": {"name": "Δρακοπουλάτα", "place": "hamlet", "osm_id": 1770625676, "name_el": "Δρακοπουλάτα", "name_en": "Drakopoulata"}}, {"type": "Feature", "geometry": {"type": "Point", "coordinates": [20.5971295, 38.3022624]}, "properties": {"name": "Αγία Ευφημία", "place": "village", "osm_id": 1770625666, "name_el": "Αγία Ευφημία", "name_en": "Agia Efimia"}}, {"type": "Feature", "geometry": {"type": "Point", "coordinates": [20.6021819, 38.2558452]}, "properties": {"name": "Βλαχάτα", "place": "locality", "osm_id": 11256391419, "name_el": null, "name_en": null}}, {"type": "Feature", "geometry": {"type": "Point", "coordinates": [20.5929783, 38.1748316]}, "properties": {"name": "Άγιοι Απόστολοι Βαλσαμάτων", "place": "hamlet", "osm_id": 1770659118, "name_el": "Άγιοι Απόστολοι Βαλσαμάτων", "name_en": "Agii Apostoloi Valsamaton"}}, {"type": "Feature", "geometry": {"type": "Point", "coordinates": [20.5845078, 38.1753416]}, "properties": {"name": "Βαλσαμάτα", "place": "village", "osm_id": 1770659120, "name_el": "Βαλσαμάτα", "name_en": "Valsamata"}}, {"type": "Feature", "geometry": {"type": "Point", "coordinates": [20.5159312, 38.2250087]}, "properties": {"name": "Δειλινάτα", "place": "village", "osm_id": 1770625673, "name_el": "Δειλινάτα", "name_en": "Deilinata"}}, {"type": "Feature", "geometry": {"type": "Point", "coordinates": [20.5215314, 38.2022199]}, "properties": {"name": "Φαρακλάτα", "place": "village", "osm_id": 1770625702, "name_el": "Φαρακλάτα", "name_en": "Faraklata"}}, {"type": "Feature", "geometry": {"type": "Point", "coordinates": [20.5233112, 38.185865]}, "properties": {"name": "Ραζάτα", "place": "village", "osm_id": 1423435459, "name_el": "Ραζάτα", "name_en": "Razata"}}, {"type": "Feature", "geometry": {"type": "Point", "coordinates": [20.5074794, 38.1862638]}, "properties": {"name": "Προκοπάτα", "place": "hamlet", "osm_id": 1770625698, "name_el": "Προκοπάτα", "name_en": "Prokopata"}}, {"type": "Feature", "geometry": {"type": "Point", "coordinates": [20.4984319, 38.1812215]}, "properties": {"name": "Δράπανο", "place": "hamlet", "osm_id": 1249835454, "name_el": "Δράπανο", "name_en": "Drapano"}}, {"type": "Feature", "geometry": {"type": "Point", "coordinates": [20.4878796, 38.1756733]}, "properties": {"name": "Αργοστόλι", "place": "town", "osm_id": 1587385188, "name_el": "Αργοστόλι", "name_en": "Argostoli"}}, {"type": "Feature", "geometry": {"type": "Point", "coordinates": [20.4882176, 38.2032145]}, "properties": {"name": "Άγιος Κωνσταντίνος", "place": "hamlet", "osm_id": 1259862972, "name_el": "Άγιος Κωνσταντίνος", "name_en": "Agios Konstantinos"}}, {"type": "Feature", "geometry": {"type": "Point", "coordinates": [20.4929096, 38.2191488]}, "properties": {"name": "Δαυγάτα", "place": "village", "osm_id": 1770625671, "name_el": "Δαυγάτα", "name_en": "Davgata"}}, {"type": "Feature", "geometry": {"type": "Point", "coordinates": [20.4748428, 38.2307053]}, "properties": {"name": "Φάρσα", "place": "village", "osm_id": 1259863915, "name_el": "Φάρσα", "name_en": "Farsa"}}, {"type": "Feature", "geometry": {"type": "Point", "coordinates": [20.4756218, 38.2435281]}, "properties": {"name": "Κουρουκλάτα", "place": "village", "osm_id": 1259863700, "name_el": "Κουρουκλάτα", "name_en": "Kourouklata"}}, {"type": "Feature", "geometry": {"type": "Point", "coordinates": [20.4638519, 38.2781502]}, "properties": {"name": "Θηνιά", "place": "locality", "osm_id": 443046997, "name_el": null, "name_en": null}}, {"type": "Feature", "geometry": {"type": "Point", "coordinates": [20.4640371, 38.2773378]}, "properties": {"name": "Κατωχώρι", "place": "neighbourhood", "osm_id": 7881398604, "name_el": "Κατωχώρι", "name_en": null}}, {"type": "Feature", "geometry": {"type": "Point", "coordinates": [20.469718, 38.2800708]}, "properties": {"name": "Πετρικάτα", "place": "village", "osm_id": 11963660072, "name_el": "Πετρικάτα", "name_en": null}}, {"type": "Feature", "geometry": {"type": "Point", "coordinates": [20.4682584, 38.2782274]}, "properties": {"name": "Καρδακάτα", "place": "village", "osm_id": 1770625680, "name_el": "Καρδακάτα", "name_en": null}}, {"type": "Feature", "geometry": {"type": "Point", "coordinates": [20.4230376, 38.2574486]}, "properties": {"name": "Λιβάδι", "place": "village", "osm_id": 1770694089, "name_el": "Λιβάδι", "name_en": "Livadi"}}, {"type": "Feature", "geometry": {"type": "Point", "coordinates": [20.4186837, 38.2426172]}, "properties": {"name": "Κουβαλάτα", "place": "village", "osm_id": 1770694088, "name_el": "Κουβαλάτα", "name_en": "Kouvalata"}}, {"type": "Feature", "geometry": {"type": "Point", "coordinates": [20.4046689, 38.2369046]}, "properties": {"name": "Βλυχάτα", "place": "village", "osm_id": 1770694082, "name_el": "Βλυχάτα", "name_en": "Vlichata"}}, {"type": "Feature", "geometry": {"type": "Point", "coordinates": [20.3929004, 38.242123]}, "properties": {"name": "Σκινέας", "place": "village", "osm_id": 1770694105, "name_el": "Σκινέας", "name_en": "Skineas"}}, {"type": "Feature", "geometry": {"type": "Point", "coordinates": [20.3874818, 38.2417857]}, "properties": {"name": "Καλάτα", "place": "village", "osm_id": 1770694085, "name_el": "Καλάτα", "name_en": "Kalata"}}, {"type": "Feature", "geometry": {"type": "Point", "coordinates": [20.3956837, 38.2510585]}, "properties": {"name": "Κοντογενάδα", "place": "village", "osm_id": 1770694087, "name_el": "Κοντογενάδα", "name_en": "Kontogenada"}}, {"type": "Feature", "geometry": {"type": "Point", "coordinates": [20.3843819, 38.2457832]}, "properties": {"name": "Αγία Θέκλη", "place": "village", "osm_id": 1770694079, "name_el": "Αγία Θέκλη", "name_en": "Agia Thekli"}}, {"type": "Feature", "geometry": {"type": "Point", "coordinates": [20.3748239, 38.2383675]}, "properties": {"name": "Δαμουλιανάτα", "place": "village", "osm_id": 1770694083, "name_el": "Δαμουλιανάτα", "name_en": "Damoulianata"}}, {"type": "Feature", "geometry": {"type": "Point", "coordinates": [20.3761542, 38.2355747]}, "properties": {"name": "Ρίφι", "place": "village", "osm_id": 1770694101, "name_el": "Ρίφι", "name_en": "Rifi"}}, {"type": "Feature", "geometry": {"type": "Point", "coordinates": [20.377772, 38.2226688]}, "properties": {"name": "Καμιναράτα", "place": "village", "osm_id": 1770694086, "name_el": "Καμιναράτα", "name_en": "Kaminarata"}}, {"type": "Feature", "geometry": {"type": "Point", "coordinates": [20.3844183, 38.1837634]}, "properties": {"name": "Χαβριάτα", "place": "village", "osm_id": 1770694118, "name_el": "Χαβριάτα", "name_en": "Chavriata"}}, {"type": "Feature", "geometry": {"type": "Point", "coordinates": [20.4030419, 38.1777609]}, "properties": {"name": "Βουνί", "place": "village", "osm_id": 1770701975, "name_el": "Βουνί", "name_en": "Vouni"}}, {"type": "Feature", "geometry": {"type": "Point", "coordinates": [20.4083188, 38.1789763]}, "properties": {"name": "Μαντζαβινάτα", "place": "village", "osm_id": 1770701978, "name_el": "Μαντζαβινάτα", "name_en": "Mantzivanata"}}, {"type": "Feature", "geometry": {"type": "Point", "coordinates": [20.4150478, 38.1857166]}, "properties": {"name": "Σουλλάροι", "place": "village", "osm_id": 1770701980, "name_el": "Σουλλάροι", "name_en": "Soullari"}}, {"type": "Feature", "geometry": {"type": "Point", "coordinates": [20.3867187, 38.2044121]}, "properties": {"name": "Χαβδάτα", "place": "village", "osm_id": 1770694113, "name_el": "Χαβδάτα", "name_en": "Chavdata"}}, {"type": "Feature", "geometry": {"type": "Point", "coordinates": [20.3948232, 38.2104031]}, "properties": {"name": "Φαβατάτα", "place": "village", "osm_id": 1770694109, "name_el": "Φαβατάτα", "name_en": "Favatata"}}, {"type": "Feature", "geometry": {"type": "Point", "coordinates": [20.3851702, 38.2277959]}, "properties": {"name": "Παρισάτα", "place": "hamlet", "osm_id": 1770694098, "name_el": "Παρισάτα", "name_en": "Parisata"}}, {"type": "Feature", "geometry": {"type": "Point", "coordinates": [20.3901738, 38.2302335]}, "properties": {"name": "Μονοπολάτα", "place": "village", "osm_id": 1770694094, "name_el": "Μονοπολάτα", "name_en": "Monopolata"}}, {"type": "Feature", "geometry": {"type": "Point", "coordinates": [20.4037942, 38.2242395]}, "properties": {"name": "Δελλαπορτάτα", "place": "hamlet", "osm_id": 1770694084, "name_el": "Δελλαπορτάτα", "name_en": "Dellaportata"}}, {"type": "Feature", "geometry": {"type": "Point", "coordinates": [20.4133462, 38.2295496]}, "properties": {"name": "Λουκεράτα", "place": "village", "osm_id": 1770694090, "name_el": "Λουκεράτα", "name_en": "Loukerata"}}, {"type": "Feature", "geometry": {"type": "Point", "coordinates": [20.4206662, 38.2116184]}, "properties": {"name": "Άγιος Βασίλειος", "place": "hamlet", "osm_id": 1770694071, "name_el": "Άγιος Βασίλειος", "name_en": "Agios Vasileios"}}, {"type": "Feature", "geometry": {"type": "Point", "coordinates": [20.4304072, 38.2299038]}, "properties": {"name": "Άγιος Δημήτριος", "place": "village", "osm_id": 1770694075, "name_el": "Άγιος Δημήτριος", "name_en": "Agios Dimitrios"}}, {"type": "Feature", "geometry": {"type": "Point", "coordinates": [20.4387364, 38.2002618]}, "properties": {"name": "Ληξούρι", "place": "town", "osm_id": 288822128, "name_el": "Ληξούρι", "name_en": "Lixouri"}}, {"type": "Feature", "geometry": {"type": "Point", "coordinates": [20.4377485, 38.1869174]}, "properties": {"name": "Λογγός", "place": "hamlet", "osm_id": 1770701977, "name_el": "Λογγός", "name_en": "Logos"}}, {"type": "Feature", "geometry": {"type": "Point", "coordinates": [20.43328, 38.1821484]}, "properties": {"name": "Μιχαλιτσάτα", "place": "hamlet", "osm_id": 1770701979, "name_el": "Μιχαλιτσάτα", "name_en": "Michalitsata"}}, {"type": "Feature", "geometry": {"type": "Point", "coordinates": [20.4389234, 38.1784842]}, "properties": {"name": "Λέπεδα", "place": "hamlet", "osm_id": 1770701976, "name_el": "Λέπεδα", "name_en": "Lepeda"}}, {"type": "Feature", "geometry": {"type": "Point", "coordinates": [20.4838322, 38.1642449]}, "properties": {"name": "Λάσση", "place": "village", "osm_id": 1587385193, "name_el": "Λάσση", "name_en": "Lassi"}}, {"type": "Feature", "geometry": {"type": "Point", "coordinates": [20.4888089, 38.1662852]}, "properties": {"name": "Σπήλια", "place": "village", "osm_id": 1249928536, "name_el": "Σπήλια", "name_en": "Spilia"}}, {"type": "Feature", "geometry": {"type": "Point", "coordinates": [20.5010345, 38.1463587]}, "properties": {"name": "Κομποθεκράτα", "place": "village", "osm_id": 1770625683, "name_el": "Κομποθεκράτα", "name_en": "Kompothekrata"}}, {"type": "Feature", "geometry": {"type": "Point", "coordinates": [20.527445, 38.1409809]}, "properties": {"name": "Κοκολάτα", "place": "village", "osm_id": 1587374985, "name_el": "Κοκολάτα", "name_en": "Kokolata"}}, {"type": "Feature", "geometry": {"type": "Point", "coordinates": [20.5149775, 38.1357675]}, "properties": {"name": "Μενεγάτα", "place": "hamlet", "osm_id": 1770625689, "name_el": "Μενεγάτα", "name_en": "Menegata"}}, {"type": "Feature", "geometry": {"type": "Point", "coordinates": [20.503442, 38.1279686]}, "properties": {"name": "Μηνιά", "place": "village", "osm_id": 1770625692, "name_el": "Μηνιά", "name_en": "Minia"}}, {"type": "Feature", "geometry": {"type": "Point", "coordinates": [20.5187295, 38.1253335]}, "properties": {"name": "Λακήθρα", "place": "village", "osm_id": 1770625686, "name_el": "Λακήθρα", "name_en": "Lakithra"}}, {"type": "Feature", "geometry": {"type": "Point", "coordinates": [20.52518, 38.1157495]}, "properties": {"name": "Σβορωνάτα", "place": "village", "osm_id": 1770625699, "name_el": "Σβορωνάτα", "name_en": "Svoronata"}}, {"type": "Feature", "geometry": {"type": "Point", "coordinates": [20.5343196, 38.1182652]}, "properties": {"name": "Κουρκουμελάτα", "place": "village", "osm_id": 2892166313, "name_el": "Κουρκουμελάτα", "name_en": "Kourkoumelata"}}, {"type": "Feature", "geometry": {"type": "Point", "coordinates": [20.5358473, 38.11573]}, "properties": {"name": "Καλιγάτα", "place": "village", "osm_id": 2892166312, "name_el": "Καλιγάτα", "name_en": "Kaligata"}}, {"type": "Feature", "geometry": {"type": "Point", "coordinates": [20.5365096, 38.1189114]}, "properties": {"name": "Μεταξάτα", "place": "village", "osm_id": 1770625691, "name_el": "Μεταξάτα", "name_en": "Metaxata"}}, {"type": "Feature", "geometry": {"type": "Point", "coordinates": [20.5577231, 38.1194782]}, "properties": {"name": "Κεραμειές", "place": "village", "osm_id": 1770625681, "name_el": "Κεραμειές", "name_en": "Keramies"}}, {"type": "Feature", "geometry": {"type": "Point", "coordinates": [20.5580567, 38.1356131]}, "properties": {"name": "Περατάτα", "place": "village", "osm_id": 1423435456, "name_el": "Περατάτα", "name_en": "Peratata"}}, {"type": "Feature", "geometry": {"type": "Point", "coordinates": [20.5564656, 38.138365]}, "properties": {"name": "Κάστρο", "place": "village", "osm_id": 1587374974, "name_el": "Κάστρο", "name_en": "Kastro"}}, {"type": "Feature", "geometry": {"type": "Point", "coordinates": [20.5499534, 38.1358138]}, "properties": {"name": "Τραυλιάτα", "place": "village", "osm_id": 1423435465, "name_el": "Τραυλιάτα", "name_en": "Travliata"}}, {"type": "Feature", "geometry": {"type": "Point", "coordinates": [20.5454206, 38.1340165]}, "properties": {"name": "Μαζαρακάτα", "place": "village", "osm_id": 11902388355, "name_el": "Μαζαρακάτα", "name_en": "Mazarakata"}}, {"type": "Feature", "geometry": {"type": "Point", "coordinates": [20.5367183, 38.1442651]}, "properties": {"name": "Κοκκύλια", "place": "locality", "osm_id": 1587374979, "name_el": "Κοκκύλια", "name_en": "Kokkylia"}}, {"type": "Feature", "geometry": {"type": "Point", "coordinates": [20.5558023, 38.1596157]}, "properties": {"name": "Τρωιανάτα", "place": "village", "osm_id": 1770628523, "name_el": "Τρωιανάτα", "name_en": "Troinata"}}, {"type": "Feature", "geometry": {"type": "Point", "coordinates": [20.5528949, 38.1525556]}, "properties": {"name": "Δεμουτσαντάτα", "place": "hamlet", "osm_id": 1770628521, "name_el": "Δεμουτσαντάτα", "name_en": "Demoutsounata"}}, {"type": "Feature", "geometry": {"type": "Point", "coordinates": [20.5607761, 38.1484609]}, "properties": {"name": "Μιτακάτα", "place": "hamlet", "osm_id": 1770628522, "name_el": "Μιτακάτα", "name_en": "Mitakata"}}, {"type": "Feature", "geometry": {"type": "Point", "coordinates": [20.5951649, 38.1646399]}, "properties": {"name": "Μιχάτα", "place": "hamlet", "osm_id": 1770659124, "name_el": "Μιχάτα", "name_en": "Michata"}}, {"type": "Feature", "geometry": {"type": "Point", "coordinates": [20.598312, 38.1578678]}, "properties": {"name": "Επανωχώρι", "place": "hamlet", "osm_id": 1770659121, "name_el": "Επανωχώρι", "name_en": "Epanochori"}}, {"type": "Feature", "geometry": {"type": "Point", "coordinates": [20.582849, 38.1296655]}, "properties": {"name": "Καραβάδος", "place": "village", "osm_id": 1770625679, "name_el": "Καραβάδος", "name_en": "Karavados"}}, {"type": "Feature", "geometry": {"type": "Point", "coordinates": [20.571504, 38.1211595]}, "properties": {"name": "Δοριζάτα", "place": "hamlet", "osm_id": 1770625675, "name_el": "Δοριζάτα", "name_en": "Dorizata"}}, {"type": "Feature", "geometry": {"type": "Point", "coordinates": [20.6035137, 38.1277707]}, "properties": {"name": "Πορταράτα", "place": "hamlet", "osm_id": 1423435969, "name_el": "Πορταράτα", "name_en": "Portarata"}}, {"type": "Feature", "geometry": {"type": "Point", "coordinates": [20.5790113, 38.1135201]}, "properties": {"name": "Πεσάδα", "place": "village", "osm_id": 1770625697, "name_el": "Πεσάδα", "name_en": "Pesada"}}, {"type": "Feature", "geometry": {"type": "Point", "coordinates": [20.5731976, 38.1116475]}, "properties": {"name": "Κουντουράτα", "place": "hamlet", "osm_id": 1770625685, "name_el": "Κουντουράτα", "name_en": "Kountourata"}}, {"type": "Feature", "geometry": {"type": "Point", "coordinates": [20.5624279, 38.110355]}, "properties": {"name": "Σπαρτιά", "place": "village", "osm_id": 1770625701, "name_el": "Σπαρτιά", "name_en": "Spartia"}}, {"type": "Feature", "geometry": {"type": "Point", "coordinates": [20.5573528, 38.1044716]}, "properties": {"name": "Κλείσματα", "place": "hamlet", "osm_id": 1770625682, "name_el": "Κλείσματα", "name_en": "Klismata"}}, {"type": "Feature", "geometry": {"type": "Point", "coordinates": [20.5536777, 38.1119464]}, "properties": {"name": "Κοριάννα", "place": "hamlet", "osm_id": 1770625684, "name_el": "Κοριάννα", "name_en": "Korianna"}}, {"type": "Feature", "geometry": {"type": "Point", "coordinates": [20.5316643, 38.1142647]}, "properties": {"name": "Ντομάτα", "place": "village", "osm_id": 2892166314, "name_el": "Ντομάτα", "name_en": "Ntomata"}}, {"type": "Feature", "geometry": {"type": "Point", "coordinates": [20.7077581, 38.0769416]}, "properties": {"name": "Θηράμονα", "place": "village", "osm_id": 1770659122, "name_el": "Θηράμονα", "name_en": "Thiramonas"}}, {"type": "Feature", "geometry": {"type": "Point", "coordinates": [20.749785, 38.0661232]}, "properties": {"name": "Κάτω Κατελειός", "place": "village", "osm_id": 288830687, "name_el": "Κάτω Κατελειός", "name_en": "Kato Katelios"}}, {"type": "Feature", "geometry": {"type": "Point", "coordinates": [20.7319083, 38.0808039]}, "properties": {"name": "Μαρκόπουλο", "place": "village", "osm_id": 1420452061, "name_el": "Μαρκόπουλο", "name_en": "Markopoulo"}}, {"type": "Feature", "geometry": {"type": "Point", "coordinates": [20.7259078, 38.0727709]}, "properties": {"name": "Μαυράτα", "place": "village", "osm_id": 1415489318, "name_el": "Μαυράτα", "name_en": "Mavrata"}}, {"type": "Feature", "geometry": {"type": "Point", "coordinates": [20.7224415, 38.0808922]}, "properties": {"name": "Χιονάτα", "place": "village", "osm_id": 1415489317, "name_el": "Χιονάτα", "name_en": "Chionata"}}, {"type": "Feature", "geometry": {"type": "Point", "coordinates": [20.7188228, 38.0850097]}, "properties": {"name": "Βερτεουράτα", "place": "hamlet", "osm_id": 11902391176, "name_el": null, "name_en": null}}, {"type": "Feature", "geometry": {"type": "Point", "coordinates": [20.7158164, 38.0829207]}, "properties": {"name": "Βαλεριάνο", "place": "village", "osm_id": 1415489319, "name_el": "Βαλεριάνο", "name_en": "Valeriano"}}, {"type": "Feature", "geometry": {"type": "Point", "coordinates": [20.7207198, 38.0882965]}, "properties": {"name": "Κολαΐτη", "place": "hamlet", "osm_id": 1770659123, "name_el": "Κολαΐτη", "name_en": "Kolaiti"}}, {"type": "Feature", "geometry": {"type": "Point", "coordinates": [20.7221132, 38.0961391]}, "properties": {"name": "Αργίνια", "place": "hamlet", "osm_id": 781172331, "name_el": "Αργίνια", "name_en": "Arginia"}}, {"type": "Feature", "geometry": {"type": "Point", "coordinates": [20.7449859, 38.0876375]}, "properties": {"name": "Κρεμμύδι", "place": "village", "osm_id": 1420452059, "name_el": "Κρεμμύδι", "name_en": "Kremmidi"}}, {"type": "Feature", "geometry": {"type": "Point", "coordinates": [20.7508963, 38.0942914]}, "properties": {"name": "Πάστρα", "place": "village", "osm_id": 1420452068, "name_el": "Πάστρα", "name_en": "Pastra"}}, {"type": "Feature", "geometry": {"type": "Point", "coordinates": [20.7164383, 38.1073783]}, "properties": {"name": "Στους Λάκκους", "place": "locality", "osm_id": 12201483127, "name_el": null, "name_en": null}}, {"type": "Feature", "geometry": {"type": "Point", "coordinates": [20.7101029, 38.1106748]}, "properties": {"name": "Στο Κάμπο", "place": "locality", "osm_id": 12201483129, "name_el": null, "name_en": null}}, {"type": "Feature", "geometry": {"type": "Point", "coordinates": [20.7137722, 38.1062723]}, "properties": {"name": "Γιαννέλα", "place": "locality", "osm_id": 12201483128, "name_el": null, "name_en": null}}, {"type": "Feature", "geometry": {"type": "Point", "coordinates": [20.705831, 38.0895064]}, "properties": {"name": "Ατσουπάδες", "place": "hamlet", "osm_id": 1770659119, "name_el": "Ατσουπάδες", "name_en": "Atsoupades"}}, {"type": "Feature", "geometry": {"type": "Point", "coordinates": [20.6820351, 38.094223]}, "properties": {"name": "Πλατείες", "place": "hamlet", "osm_id": 1424561924, "name_el": "Πλατείες", "name_en": "Platies"}}, {"type": "Feature", "geometry": {"type": "Point", "coordinates": [20.7022548, 38.1284972]}, "properties": {"name": "Φτέρη", "place": "locality", "osm_id": 12201483130, "name_el": null, "name_en": null}}, {"type": "Feature", "geometry": {"type": "Point", "coordinates": [20.7263271, 38.1275679]}, "properties": {"name": "Καπανδρίτι", "place": "village", "osm_id": 1770678296, "name_el": "Καπανδρίτι", "name_en": null}}, {"type": "Feature", "geometry": {"type": "Point", "coordinates": [20.7518451, 38.1218851]}, "properties": {"name": "Αγια Ειρήνη", "place": "village", "osm_id": 1420452055, "name_el": "Αγια Ειρήνη", "name_en": null}}, {"type": "Feature", "geometry": {"type": "Point", "coordinates": [20.7354216, 38.1364443]}, "properties": {"name": "Καμπιτσάτα", "place": "hamlet", "osm_id": 1770678295, "name_el": "Καμπιτσάτα", "name_en": null}}, {"type": "Feature", "geometry": {"type": "Point", "coordinates": [20.7502749, 38.1414936]}, "properties": {"name": "Τζανάτα", "place": "village", "osm_id": 1422530527, "name_el": "Τζανάτα", "name_en": null}}, {"type": "Feature", "geometry": {"type": "Point", "coordinates": [20.7225389, 38.1365618]}, "properties": {"name": "Ξενόπουλο", "place": "village", "osm_id": 1770678299, "name_el": "Ξενόπουλο", "name_en": null}}, {"type": "Feature", "geometry": {"type": "Point", "coordinates": [20.7274187, 38.1476977]}, "properties": {"name": "Ανδριολάτα", "place": "hamlet", "osm_id": 1770678292, "name_el": "Ανδριολάτα", "name_en": null}}, {"type": "Feature", "geometry": {"type": "Point", "coordinates": [20.7139969, 38.1679547]}, "properties": {"name": "Άγιος Νικόλαος", "place": "hamlet", "osm_id": 1423435962, "name_el": "Άγιος Νικόλαος", "name_en": "Agios Nikolaos"}}, {"type": "Feature", "geometry": {"type": "Point", "coordinates": [20.6438412, 38.1179058]}, "properties": {"name": "Σιμωτάτα", "place": "village", "osm_id": 1770659126, "name_el": "Σιμωτάτα", "name_en": "Simotata"}}, {"type": "Feature", "geometry": {"type": "Point", "coordinates": [20.6339209, 38.1165058]}, "properties": {"name": "Λουρδάτα", "place": "village", "osm_id": 289195896, "name_el": "Λουρδάτα", "name_en": "Lourdata"}}, {"type": "Feature", "geometry": {"type": "Point", "coordinates": [20.6242561, 38.1233045]}, "properties": {"name": "Βλαχάτα", "place": "village", "osm_id": 11902388356, "name_el": "Βλαχάτα", "name_en": "Vlahata"}}, {"type": "Feature", "geometry": {"type": "Point", "coordinates": [20.6054404, 38.1324791]}, "properties": {"name": "Μουσάτα", "place": "village", "osm_id": 1423435447, "name_el": "Μουσάτα", "name_en": "Mousata"}}, {"type": "Feature", "geometry": {"type": "Point", "coordinates": [20.6624708, 38.2017804]}, "properties": {"name": "Κουλουράτα", "place": "hamlet", "osm_id": 1770678297, "name_el": "Κουλουράτα", "name_en": "Koulourata"}}, {"type": "Feature", "geometry": {"type": "Point", "coordinates": [20.6447113, 38.2236644]}, "properties": {"name": "Γριζάτα", "place": "village", "osm_id": 1770680923, "name_el": "Γριζάτα", "name_en": "Grizata"}}, {"type": "Feature", "geometry": {"type": "Point", "coordinates": [20.6173441, 38.221999]}, "properties": {"name": "Χαλιωτάτα", "place": "village", "osm_id": 1770680926, "name_el": "Χαλιωτάτα", "name_en": "Chaliotata"}}, {"type": "Feature", "geometry": {"type": "Point", "coordinates": [20.6055049, 38.2359912]}, "properties": {"name": "Πουλάτα", "place": "village", "osm_id": 1770680925, "name_el": "Πουλάτα", "name_en": "Poulata"}}, {"type": "Feature", "geometry": {"type": "Point", "coordinates": [20.6276416, 38.2549243]}, "properties": {"name": "Καραβόμυλος", "place": "village", "osm_id": 1770680924, "name_el": "Καραβόμυλος", "name_en": "Karavomylos"}}, {"type": "Feature", "geometry": {"type": "Point", "coordinates": [20.6467132, 38.2511063]}, "properties": {"name": "Σάμη", "place": "town", "osm_id": 506700079, "name_el": "Σάμη", "name_en": "Sami"}}, {"type": "Feature", "geometry": {"type": "Point", "coordinates": [20.6830057, 38.1751298]}, "properties": {"name": "Διγαλέτο", "place": "village", "osm_id": 1770678294, "name_el": "Διγαλέτο", "name_en": "Digaleto"}}, {"type": "Feature", "geometry": {"type": "Point", "coordinates": [20.7732692, 38.1524083]}, "properties": {"name": "Πόρος", "place": "village", "osm_id": 289186040, "name_el": "Πόρος", "name_en": "Poros"}}, {"type": "Feature", "geometry": {"type": "Point", "coordinates": [20.7684749, 38.1115794]}, "properties": {"name": "Ασπρογέρακας", "place": "hamlet", "osm_id": 1770678293, "name_el": "Ασπρογέρακας", "name_en": null}}, {"type": "Feature", "geometry": {"type": "Point", "coordinates": [20.7533388, 38.1018143]}, "properties": {"name": "Άγιος Γεώργιος", "place": "hamlet", "osm_id": 1420452056, "name_el": "Άγιος Γεώργιος", "name_en": null}}, {"type": "Feature", "geometry": {"type": "Point", "coordinates": [20.7721592, 38.0870087]}, "properties": {"name": "Φανιές", "place": "hamlet", "osm_id": 1770662133, "name_el": "Φανιές", "name_en": "Fanies"}}, {"type": "Feature", "geometry": {"type": "Point", "coordinates": [20.7718643, 38.0754336]}, "properties": {"name": "Ρατζακλί", "place": "village", "osm_id": 1313997423, "name_el": "Ρατζακλί", "name_en": "Ratzakli"}}, {"type": "Feature", "geometry": {"type": "Point", "coordinates": [20.7531517, 38.0780726]}, "properties": {"name": "Κατελειός", "place": "hamlet", "osm_id": 1420452057, "name_el": "Κατελειός", "name_en": "Katelios"}}, {"type": "Feature", "geometry": {"type": "Point", "coordinates": [20.7969252, 38.0738229]}, "properties": {"name": "Σκάλα", "place": "village", "osm_id": 288828754, "name_el": "Σκάλα", "name_en": "Skala"}}, {"type": "Feature", "geometry": {"type": "Point", "coordinates": [20.7169387, 38.3476685]}, "properties": {"name": "Περαχώρι", "place": "village", "osm_id": 1583877007, "name_el": "Περαχώρι", "name_en": "Perahori"}}, {"type": "Feature", "geometry": {"type": "Point", "coordinates": [20.7181604, 38.364528]}, "properties": {"name": "Βαθύ", "place": "town", "osm_id": 444576484, "name_el": "Βαθύ", "name_en": "Vathy"}}, {"type": "Feature", "geometry": {"type": "Point", "coordinates": [20.6097707, 38.3387889]}, "properties": {"name": "Νεοχώρι", "place": "village", "osm_id": 1583907656, "name_el": "Νεοχώρι", "name_en": "Neochori"}}, {"type": "Feature", "geometry": {"type": "Point", "coordinates": [20.6120997, 38.3720038]}, "properties": {"name": "Αγία Σοφία", "place": "village", "osm_id": 1583907526, "name_el": "Αγία Σοφία", "name_en": "Agia Sofia"}}, {"type": "Feature", "geometry": {"type": "Point", "coordinates": [20.6759418, 38.3636075]}, "properties": {"name": "Αετός", "place": "hamlet", "osm_id": 1583888262, "name_el": "Αετός", "name_en": "Aetos"}}, {"type": "Feature", "geometry": {"type": "Point", "coordinates": [20.6582693, 38.3928832]}, "properties": {"name": "Άγιος Ιωάννης", "place": "hamlet", "osm_id": 1583888258, "name_el": "Άγιος Ιωάννης", "name_en": "Agios Ioannis"}}, {"type": "Feature", "geometry": {"type": "Point", "coordinates": [20.6466479, 38.4472029]}, "properties": {"name": "Σταυρός", "place": "village", "osm_id": 1583888286, "name_el": "Σταυρός", "name_en": "Stavros"}}, {"type": "Feature", "geometry": {"type": "Point", "coordinates": [20.6435596, 38.4613958]}, "properties": {"name": "Πλατρειθιάς", "place": "village", "osm_id": 1583888285, "name_el": "Πλατρειθιάς", "name_en": null}}, {"type": "Feature", "geometry": {"type": "Point", "coordinates": [20.6508686, 38.4597014]}, "properties": {"name": "Λαχός", "place": "village", "osm_id": 8220035568, "name_el": "Λαχός", "name_en": "Lahos"}}, {"type": "Feature", "geometry": {"type": "Point", "coordinates": [20.663772, 38.4583153]}, "properties": {"name": "Φρίκες", "place": "village", "osm_id": 1583888290, "name_el": "Φρίκες", "name_en": "Frikes"}}, {"type": "Feature", "geometry": {"type": "Point", "coordinates": [20.6740235, 38.4197669]}, "properties": {"name": "Ανωγή", "place": "village", "osm_id": 1583888263, "name_el": "Ανωγή", "name_en": "Anogi"}}, {"type": "Feature", "geometry": {"type": "Point", "coordinates": [20.6499722, 38.4147583]}, "properties": {"name": "Λεύκη", "place": "village", "osm_id": 1583888275, "name_el": "Λεύκη", "name_en": "Lefki"}}, {"type": "Feature", "geometry": {"type": "Point", "coordinates": [20.6893938, 38.4491846]}, "properties": {"name": "Κιόνι", "place": "village", "osm_id": 1583888271, "name_el": "Κιόνι", "name_en": "Kioni"}}, {"type": "Feature", "geometry": {"type": "Point", "coordinates": [20.6312754, 38.4645206]}, "properties": {"name": "Πλατεία Εθνικής Αντιστάσεως", "place": "square", "osm_id": 11342658516, "name_el": null, "name_en": null}}, {"type": "Feature", "geometry": {"type": "Point", "coordinates": [20.6320479, 38.462785]}, "properties": {"name": "Πλατεία Ιερέως Κωνσταντίντου Βαρβαρίγου", "place": "square", "osm_id": 11342636615, "name_el": null, "name_en": null}}, {"type": "Feature", "geometry": {"type": "Point", "coordinates": [20.6324458, 38.4623338]}, "properties": {"name": "Εξωγή", "place": "village", "osm_id": 1583888268, "name_el": "Εξωγή", "name_en": "Exogi"}}]}
