{"type": "FeatureCollection", "features": [{"type": "Feature", "geometry": {"type": "Polygon", "coordinates": [[[20.7451565, 38.3273658], [20.7452303, 38.3273057], [20.7452623, 38.3272128], [20.7453125, 38.3271943], [20.7452999, 38.3271407], [20.7454002, 38.3271123], [20.7455423, 38.3271156], [20.7453682, 38.3272915], [20.7452039, 38.327534], [20.7451565, 38.3273658]]]}, "properties": {"beach": "Πέρα Πηγάδι", "acc_1km": 0}}, {"type": "Feature", "geometry": {"type": "Polygon", "coordinates": [[[20.6389698, 38.440725], [20.6391445, 38.4408084], [20.639337, 38.4408133], [20.6395731, 38.4407685], [20.6401114, 38.4406128], [20.6409665, 38.4403464], [20.6413874, 38.4402018], [20.6414439, 38.4402879], [20.6413321, 38.4404044], [20.6412837, 38.4404298], [20.6411497, 38.4405002], [20.6410145, 38.4404633], [20.6406033, 38.4406067], [20.6403635, 38.4406509], [20.6400596, 38.4407439], [20.6396876, 38.4408553], [20.6395087, 38.4408721], [20.6393692, 38.4408778], [20.6391263, 38.440843], [20.6389774, 38.4407818], [20.6389698, 38.440725]]]}, "properties": {"beach": "Πόλη", "acc_1km": 0}}, {"type": "Feature", "geometry": {"type": "Polygon", "coordinates": [[[20.6969254, 38.4444339], [20.696934, 38.4444128], [20.6969681, 38.4443297], [20.697402, 38.444436], [20.6974747, 38.4444538], [20.697459, 38.4444988], [20.6969254, 38.4444339]]]}, "properties": {"beach": "Φιλιατρό", "acc_1km": 0}}, {"type": "Feature", "geometry": {"type": "Polygon", "coordinates": [[[20.6663534, 38.4658947], [20.6663996, 38.4658499], [20.6664325, 38.4658797], [20.666467, 38.4659749], [20.6665049, 38.4660795], [20.6667681, 38.4662954], [20.6669355, 38.4664488], [20.6670491, 38.4665118], [20.6671828, 38.4665526], [20.6672577, 38.4665742], [20.6672391, 38.4665996], [20.6671265, 38.4665912], [20.6670219, 38.4665618], [20.6668717, 38.4664904], [20.6667859, 38.4664337], [20.6666839, 38.4663644], [20.6665605, 38.4662804], [20.6664935, 38.4661985], [20.6664667, 38.466146], [20.666413, 38.4660725], [20.6663534, 38.4658947]]]}, "properties": {"beach": "Λιμένια", "acc_1km": 1}}, {"type": "Feature", "geometry": {"type": "Polygon", "coordinates": [[[20.6701955, 38.4797462], [20.6703349, 38.4794986], [20.6709575, 38.4795085], [20.6708502, 38.479836], [20.6707251, 38.4802095], [20.6707211, 38.4806156], [20.6705816, 38.4806198], [20.6705226, 38.4803931], [20.6703349, 38.4801915], [20.6701955, 38.4797462]]]}, "properties": {"beach": "Παραλία Μάρμακα", "acc_1km": 0}}, {"type": "Feature", "geometry": {"type": "Polygon", "coordinates": [[[20.7368037, 38.3653502], [20.7369829, 38.3654639], [20.7372585, 38.3655399], [20.7375429, 38.3655593], [20.7374555, 38.3656084], [20.7373654, 38.3656591], [20.7371376, 38.3656058], [20.7369365, 38.3655511], [20.7368164, 38.3654265], [20.7368037, 38.3653502]]]}, "properties": {"beach": "Παραλία Σαρακήνικο", "acc_1km": 1}}, {"type": "Feature", "geometry": {"type": "Polygon", "coordinates": [[[20.7626649, 38.0691178], [20.7626679, 38.0690301], [20.7628044, 38.0690301], [20.7628514, 38.0690504], [20.7632415, 38.0690267], [20.7635755, 38.0690076], [20.763612, 38.0690011], [20.763655, 38.0689935], [20.7636846, 38.0689964], [20.763834, 38.0690112], [20.763987, 38.0689967], [20.7644081, 38.0691236], [20.7646185, 38.0691392], [20.7649217, 38.0691194], [20.765393, 38.069052], [20.7661111, 38.0689155], [20.7665723, 38.0689506], [20.7668605, 38.0689273], [20.7672876, 38.0688006], [20.7676935, 38.0686314], [20.768099, 38.0684488], [20.768266, 38.0683727], [20.7684185, 38.0683123], [20.7687729, 38.068146], [20.7698571, 38.0676741], [20.7702841, 38.0675083], [20.7705445, 38.0674506], [20.770851, 38.0673175], [20.77117, 38.0671974], [20.7715068, 38.0671], [20.771749, 38.0669875], [20.7721882, 38.0668788], [20.7723791, 38.0668316], [20.7727547, 38.0666618], [20.7744221, 38.0658624], [20.7745388, 38.0660092], [20.7732433, 38.0666254], [20.7724519, 38.0669652], [20.7716373, 38.0671458], [20.771042, 38.0673727], [20.7705472, 38.0676872], [20.7686681, 38.0685282], [20.7685025, 38.0686029], [20.7684751, 38.068614], [20.7682281, 38.0687142], [20.767905, 38.0688096], [20.767658, 38.0690212], [20.7675693, 38.0690494], [20.7675685, 38.0690807], [20.7673729, 38.0691417], [20.7673244, 38.0691846], [20.7672868, 38.0691729], [20.7672346, 38.0691363], [20.7671329, 38.0691128], [20.7669416, 38.0691131], [20.7661962, 38.0691807], [20.7656827, 38.0693186], [20.764833, 38.0693436], [20.7638421, 38.069233], [20.7630245, 38.0691915], [20.7628584, 38.0691885], [20.7626649, 38.0691178]]]}, "properties": {"beach": "Καμίνια", "acc_1km": 5}}, {"type": "Feature", "geometry": {"type": "Polygon", "coordinates": [[[20.4190322, 38.1607861], [20.4190374, 38.1606423], [20.4193433, 38.1606437], [20.4212846, 38.1608246], [20.4238649, 38.1609511], [20.4248117, 38.1609406], [20.4260107, 38.1610312], [20.4275959, 38.1611936], [20.4283138, 38.1612506], [20.4293205, 38.1614151], [20.4305999, 38.1615058], [20.4312625, 38.1614805], [20.4318874, 38.1615648], [20.4331239, 38.1615838], [20.433486, 38.1616745], [20.4343121, 38.161742], [20.434691, 38.1617963], [20.435096, 38.1617942], [20.4353395, 38.1616753], [20.43545, 38.161558], [20.4356459, 38.1615453], [20.4359337, 38.1617318], [20.4361058, 38.1618025], [20.436547, 38.1616324], [20.4365232, 38.1618054], [20.436245, 38.1619467], [20.4360327, 38.1619374], [20.4357783, 38.1618639], [20.4355396, 38.1617943], [20.4350968, 38.1618669], [20.4345847, 38.1619305], [20.4340494, 38.1618609], [20.4334949, 38.1617489], [20.4331908, 38.1617973], [20.4330444, 38.1617458], [20.4327595, 38.1617246], [20.4326209, 38.1617731], [20.4322089, 38.161661], [20.4319008, 38.1616701], [20.4318353, 38.1617852], [20.4315851, 38.1617579], [20.4312501, 38.1616126], [20.42986, 38.1615339], [20.4294826, 38.161546], [20.4288126, 38.1615036], [20.4286432, 38.1615036], [20.4285315, 38.1616429], [20.4283121, 38.1615763], [20.4278384, 38.1613371], [20.4270414, 38.1612281], [20.4258323, 38.1611342], [20.4256937, 38.1610737], [20.4255512, 38.161107], [20.4245693, 38.1610767], [20.4235759, 38.160995], [20.4233063, 38.1610222], [20.4220626, 38.1609889], [20.4211654, 38.1609526], [20.4197946, 38.1607982], [20.4190322, 38.1607861]]]}, "properties": {"beach": "Μεγας Λακος", "acc_1km": 3}}, {"type": "Feature", "geometry": {"type": "Polygon", "coordinates": [[[20.6726569, 38.2611472], [20.6727116, 38.2611203], [20.6739336, 38.2605183], [20.674686, 38.2601876], [20.6752235, 38.2600625], [20.6757354, 38.2600655], [20.6766292, 38.260258], [20.6773566, 38.2605422], [20.6754491, 38.2601909], [20.6753526, 38.2601731], [20.6745086, 38.2604042], [20.6741369, 38.2605653], [20.6727453, 38.2612664], [20.6726569, 38.2611472]]]}, "properties": {"beach": "Αντίσαμος", "acc_1km": 0}}, {"type": "Feature", "geometry": {"type": "Polygon", "coordinates": [[[20.7171842, 38.3804317], [20.7172808, 38.380356], [20.7175896, 38.3804711], [20.718067, 38.3807192], [20.718169, 38.3808112], [20.7171842, 38.3804317]]]}, "properties": {"beach": "Παραλία Μνήματα", "acc_1km": 0}}, {"type": "Feature", "geometry": {"type": "Polygon", "coordinates": [[[20.7382081, 38.3391167], [20.7384012, 38.3388517], [20.7387016, 38.3386581], [20.7388406, 38.3387085], [20.7385456, 38.3389587], [20.738315, 38.3392509], [20.738251, 38.3392051], [20.7382081, 38.3391167]]]}, "properties": {"beach": "Παραλία Καμίνια", "acc_1km": 0}}, {"type": "Feature", "geometry": {"type": "Polygon", "coordinates": [[[20.7290263, 38.3865067], [20.7290317, 38.3864478], [20.7291122, 38.3863006], [20.7292892, 38.3861408], [20.7294269, 38.3860219], [20.7295491, 38.3859164], [20.7296057, 38.3858675], [20.7299758, 38.3856447], [20.730405, 38.3853966], [20.7307322, 38.3852788], [20.7310916, 38.3851737], [20.7315208, 38.3850854], [20.7318265, 38.3850434], [20.7321538, 38.3850097], [20.7327492, 38.3849761], [20.7333286, 38.3849677], [20.7338865, 38.3850181], [20.7343586, 38.3851022], [20.7347233, 38.3852536], [20.7347424, 38.385416], [20.7341225, 38.38522], [20.733511, 38.3851527], [20.7328029, 38.3851443], [20.7323118, 38.3851444], [20.7317622, 38.38522], [20.731215, 38.3853041], [20.7306625, 38.3854891], [20.7302655, 38.3857246], [20.7299168, 38.3859264], [20.7294984, 38.3862166], [20.7290263, 38.3865067]]]}, "properties": {"beach": "Παραλία Γιδάκι", "acc_1km": 0}}, {"type": "Feature", "geometry": {"type": "Polygon", "coordinates": [[[20.7226322, 38.3839309], [20.7227016, 38.3839164], [20.7228009, 38.383908], [20.7229565, 38.3840321], [20.7232435, 38.3843874], [20.7234393, 38.3846207], [20.7235734, 38.3848583], [20.7237343, 38.385201], [20.723804, 38.3853776], [20.7236941, 38.3854038], [20.7234954, 38.3850397], [20.7233041, 38.3846893], [20.722806, 38.3840091], [20.7226322, 38.3839309]]]}, "properties": {"beach": "Παραλία Σκίνος", "acc_1km": 0}}, {"type": "Feature", "geometry": {"type": "Polygon", "coordinates": [[[20.7414547, 38.3720692], [20.7414808, 38.3719078], [20.7415987, 38.3717223], [20.7417154, 38.3715579], [20.741919, 38.3714115], [20.7420915, 38.3714139], [20.7418965, 38.3715815], [20.7417168, 38.371767], [20.7415856, 38.3719726], [20.7415003, 38.3721722], [20.7414547, 38.3720692]]]}, "properties": {"beach": "Παραλία Φιλιατρό", "acc_1km": 0}}, {"type": "Feature", "geometry": {"type": "Polygon", "coordinates": [[[20.7019108, 38.3701745], [20.7019987, 38.3701586], [20.7023098, 38.3703689], [20.7029804, 38.3708147], [20.7032969, 38.371025], [20.7035061, 38.371269], [20.7035222, 38.3714035], [20.7034555, 38.3714285], [20.7033941, 38.3713269], [20.70315, 38.371043], [20.7019108, 38.3701745]]]}, "properties": {"beach": "Παραλία Δεξά", "acc_1km": 2}}, {"type": "Feature", "geometry": {"type": "Polygon", "coordinates": [[[20.6306501, 38.1142518], [20.6315137, 38.1139752], [20.6320958, 38.1137534], [20.6324464, 38.1136368], [20.6328515, 38.1134886], [20.6332765, 38.1133327], [20.6344606, 38.1128485], [20.6351589, 38.1125592], [20.6357311, 38.1123341], [20.6362935, 38.1120994], [20.6365965, 38.1119767], [20.6394987, 38.1106598], [20.6413013, 38.1096417], [20.6422652, 38.1091385], [20.6425932, 38.1088415], [20.6426864, 38.1084656], [20.6427768, 38.1086245], [20.6427065, 38.1088592], [20.64255, 38.1090695], [20.6422611, 38.1093132], [20.6415709, 38.1097312], [20.6399496, 38.1105546], [20.6393273, 38.1109302], [20.6389696, 38.1110919], [20.6385372, 38.1112873], [20.6376322, 38.1116963], [20.6373662, 38.1118081], [20.6368101, 38.1120419], [20.6366585, 38.1121057], [20.6355669, 38.1125721], [20.6345342, 38.1129499], [20.6322769, 38.1137891], [20.63175, 38.113985], [20.6316144, 38.1140277], [20.630804, 38.1142825], [20.6306501, 38.1142518]]]}, "properties": {"beach": "Λουρδάτα", "acc_1km": 16}}, {"type": "Feature", "geometry": {"type": "Polygon", "coordinates": [[[20.7744221, 38.0658624], [20.7760279, 38.0650384], [20.7768743, 38.0648515], [20.7776026, 38.0646348], [20.778267, 38.0643327], [20.7806396, 38.0626799], [20.7809103, 38.0625144], [20.7811144, 38.0623837], [20.7814246, 38.0626832], [20.7795211, 38.0639658], [20.7792708, 38.0643786], [20.7790973, 38.0644769], [20.7788681, 38.0644462], [20.7787476, 38.0645078], [20.7786446, 38.0647459], [20.7782492, 38.0648776], [20.7774504, 38.0649523], [20.7759988, 38.0653064], [20.7745388, 38.0660092], [20.7744221, 38.0658624]]]}, "properties": {"beach": "Παραλία Καμίνια", "acc_1km": 1}}, {"type": "Feature", "geometry": {"type": "Polygon", "coordinates": [[[20.7506271, 38.0652426], [20.7507836, 38.0651811], [20.7510361, 38.0655148], [20.7513336, 38.0657659], [20.7514089, 38.0658295], [20.7521653, 38.066237], [20.75286, 38.066558], [20.7536405, 38.0668642], [20.7545784, 38.0671823], [20.755569, 38.0673752], [20.7565142, 38.0674584], [20.7565867, 38.0675154], [20.7565769, 38.0675895], [20.7565442, 38.067692], [20.7554122, 38.0675329], [20.7544904, 38.0673067], [20.7537409, 38.0669953], [20.7532655, 38.0668408], [20.753022, 38.0667309], [20.7525679, 38.0665764], [20.7522061, 38.0663902], [20.7520959, 38.0663178], [20.7519625, 38.0662301], [20.7515534, 38.0659658], [20.7512933, 38.0658038], [20.750999, 38.0655548], [20.7506271, 38.0652426]]]}, "properties": {"beach": "Παραλία Αγία Βαρβάρα", "acc_1km": 6}}, {"type": "Feature", "geometry": {"type": "Polygon", "coordinates": [[[20.7486217, 38.0634133], [20.7487839, 38.0626924], [20.7488985, 38.062679], [20.7488461, 38.0629228], [20.7488826, 38.0630917], [20.7488739, 38.0631485], [20.7488834, 38.0632812], [20.7489972, 38.0634925], [20.7491892, 38.0636211], [20.7492405, 38.0636485], [20.7492718, 38.0636512], [20.7494179, 38.0636044], [20.749441, 38.0636118], [20.7494449, 38.0636057], [20.7494509, 38.0636078], [20.7494585, 38.0636104], [20.7494714, 38.0636148], [20.7494561, 38.0636423], [20.7497564, 38.0637646], [20.7497927, 38.0638258], [20.7500878, 38.0645107], [20.7503416, 38.0647961], [20.7506419, 38.0649999], [20.7507836, 38.0651811], [20.7506271, 38.0652426], [20.7505866, 38.0650521], [20.7503149, 38.0648001], [20.7499296, 38.0645366], [20.7495439, 38.0640403], [20.7489155, 38.0636325], [20.7486217, 38.0634133]]]}, "properties": {"beach": "Κατελειός", "acc_1km": 6}}, {"type": "Feature", "geometry": {"type": "Polygon", "coordinates": [[[20.4093221, 38.3359925], [20.4094409, 38.3358997], [20.4096948, 38.3358047], [20.4099732, 38.3357539], [20.4102028, 38.3357213], [20.4103163, 38.3357195], [20.4103445, 38.335719], [20.4105512, 38.3356935], [20.4107815, 38.3356958], [20.4110089, 38.335719], [20.4113515, 38.3357862], [20.411632, 38.3358418], [20.4118269, 38.3359298], [20.411948, 38.3360132], [20.4119426, 38.336099], [20.4118153, 38.3359581], [20.4115751, 38.3358681], [20.4112661, 38.3358058], [20.4108902, 38.3357469], [20.4105436, 38.3357403], [20.4101886, 38.3357681], [20.4097606, 38.3358369], [20.4094599, 38.3359319], [20.4093221, 38.3359925]]]}, "properties": {"beach": "Αθέρας Port Atheras", "acc_1km": 0}}, {"type": "Feature", "geometry": {"type": "Polygon", "coordinates": [[[20.7430189, 38.3294733], [20.7430938, 38.3290283], [20.7431883, 38.3289665], [20.7432513, 38.3295258], [20.7433923, 38.3298407], [20.7432513, 38.329807], [20.7430189, 38.3294733]]]}, "properties": {"beach": "Παραλία Πέρα Πηγάδι", "acc_1km": 0}}, {"type": "Feature", "geometry": {"type": "Polygon", "coordinates": [[[20.5482272, 38.4715943], [20.5484234, 38.471454], [20.5486252, 38.4714658], [20.5484846, 38.4717738], [20.5482272, 38.4715943]]]}, "properties": {"beach": "Dafnoudi beach", "acc_1km": 0}}, {"type": "Feature", "geometry": {"type": "Polygon", "coordinates": [[[20.689266, 38.0812329], [20.6893841, 38.0812307], [20.6894656, 38.0811988], [20.6896144, 38.0811066], [20.6900412, 38.0808203], [20.6903041, 38.0806198], [20.6905643, 38.0803094], [20.6909652, 38.0798566], [20.6910943, 38.0796821], [20.691143, 38.0796022], [20.6911463, 38.0794947], [20.69115, 38.0793982], [20.6913045, 38.0793892], [20.6913802, 38.0794782], [20.6914052, 38.0796622], [20.6913085, 38.0798478], [20.6910859, 38.0801096], [20.6909571, 38.0803967], [20.6905353, 38.0808143], [20.690192, 38.0810739], [20.6900525, 38.0811573], [20.6899466, 38.0812692], [20.6897588, 38.0813452], [20.6895684, 38.0813811], [20.689266, 38.0812329]]]}, "properties": {"beach": "Κορώνι", "acc_1km": 0}}, {"type": "Feature", "geometry": {"type": "Polygon", "coordinates": [[[20.4853279, 38.3101104], [20.4860897, 38.3100851], [20.4870172, 38.3102122], [20.4877897, 38.3102964], [20.4891581, 38.3106071], [20.4899891, 38.3109446], [20.4906173, 38.3111711], [20.4909069, 38.3113984], [20.4908104, 38.3114994], [20.4905684, 38.3113235], [20.4895337, 38.3109859], [20.4876776, 38.3104976], [20.4853279, 38.3101104]]]}, "properties": {"beach": "Αγια Κυριακη", "acc_1km": 0}}, {"type": "Feature", "geometry": {"type": "Polygon", "coordinates": [[[20.47078, 38.3163979], [20.4708193, 38.3163104], [20.4709561, 38.3162228], [20.47102, 38.3161356], [20.4711596, 38.3161291], [20.4713093, 38.3161661], [20.4716213, 38.3160629], [20.4722521, 38.3155782], [20.4724014, 38.3154798], [20.4726079, 38.3155126], [20.4722629, 38.3156354], [20.4720308, 38.3158189], [20.4718799, 38.3159641], [20.4718108, 38.3161019], [20.4717477, 38.3161249], [20.4715754, 38.3161342], [20.471433, 38.3161691], [20.4712614, 38.3162314], [20.4710953, 38.3163468], [20.4709735, 38.3164517], [20.4708548, 38.3165737], [20.47078, 38.3163979]]]}, "properties": {"beach": "Βουτη", "acc_1km": 0}}, {"type": "Feature", "geometry": {"type": "Polygon", "coordinates": [[[20.5329052, 38.3409323], [20.5333672, 38.3407772], [20.5340379, 38.3410419], [20.5348821, 38.3413505], [20.5354517, 38.3417904], [20.5356792, 38.3419651], [20.535862, 38.342091], [20.5360347, 38.3422407], [20.5362344, 38.3425021], [20.5366527, 38.3430496], [20.5370372, 38.3438516], [20.5371652, 38.3441186], [20.5376316, 38.3446899], [20.5380972, 38.3460286], [20.5380883, 38.3462792], [20.5379369, 38.3464193], [20.5374446, 38.3454543], [20.5370422, 38.3448198], [20.5364047, 38.3440057], [20.5357903, 38.3431752], [20.5349804, 38.3423274], [20.5340302, 38.3415135], [20.5336653, 38.3412616], [20.5329052, 38.3409323]]]}, "properties": {"beach": "Μύρτος", "acc_1km": 0}}, {"type": "Feature", "geometry": {"type": "Polygon", "coordinates": [[[20.7975831, 38.0674732], [20.7979355, 38.0681794], [20.798538, 38.0689843], [20.7989462, 38.0695066], [20.7999403, 38.0712628], [20.8003743, 38.0721589], [20.8006813, 38.0727418], [20.8008845, 38.0732054], [20.8010132, 38.07381], [20.8005776, 38.0742966], [20.8000739, 38.0730373], [20.7990654, 38.0705879], [20.7980783, 38.0686959], [20.7979201, 38.0683488], [20.7975978, 38.0676415], [20.7975831, 38.0674732]]]}, "properties": {"beach": "Σκάλα", "acc_1km": 8}}, {"type": "Feature", "geometry": {"type": "Polygon", "coordinates": [[[20.6186752, 38.1171949], [20.6193169, 38.1171016], [20.6203253, 38.1168999], [20.6220941, 38.1164445], [20.6226522, 38.1162945], [20.6228925, 38.116248], [20.6232173, 38.1162197], [20.6240196, 38.1159987], [20.62479, 38.1157443], [20.6257254, 38.1154327], [20.6259751, 38.1154325], [20.6260782, 38.1154182], [20.6275244, 38.1149443], [20.6276673, 38.1148513], [20.6282224, 38.1146374], [20.62889, 38.1143224], [20.6289536, 38.1144115], [20.6287974, 38.114581], [20.6285743, 38.1147099], [20.6276516, 38.1150644], [20.6275726, 38.1151385], [20.62701, 38.1153139], [20.6268469, 38.1153204], [20.6267112, 38.1153781], [20.6260745, 38.1155582], [20.6258468, 38.1155514], [20.6257489, 38.115558], [20.6256457, 38.1156488], [20.6251948, 38.1157562], [20.6250611, 38.1158465], [20.6249634, 38.1158558], [20.6249173, 38.1159029], [20.6248302, 38.115916], [20.6248036, 38.1158714], [20.624659, 38.1159159], [20.6246832, 38.1159887], [20.6245461, 38.1159958], [20.6243627, 38.1160737], [20.6241268, 38.116108], [20.6238288, 38.1161879], [20.6237158, 38.1161955], [20.6236259, 38.1162293], [20.6232368, 38.1163324], [20.6229062, 38.1163274], [20.6226408, 38.1163629], [20.6225214, 38.116412], [20.622264, 38.1164872], [20.6221624, 38.1165736], [20.6217977, 38.1166876], [20.6213477, 38.1168438], [20.620796, 38.1169684], [20.6205217, 38.117038], [20.6202679, 38.1170793], [20.6198907, 38.1171226], [20.619703, 38.117166], [20.6192783, 38.1172314], [20.6188053, 38.1172389], [20.6186752, 38.1171949]]]}, "properties": {"beach": "Κανάλι", "acc_1km": 17}}, {"type": "Feature", "geometry": {"type": "Polygon", "coordinates": [[[20.7914465, 38.0612863], [20.7914595, 38.0611774], [20.7916388, 38.061531], [20.7918267, 38.0617617], [20.7921965, 38.0621295], [20.7925053, 38.0623014], [20.7929504, 38.062596], [20.7934542, 38.0631126], [20.7941284, 38.0636219], [20.7943924, 38.0638098], [20.7945518, 38.0638235], [20.7948129, 38.0639998], [20.7953914, 38.0643565], [20.7957918, 38.0646845], [20.7962846, 38.0650773], [20.7963899, 38.0651374], [20.796346, 38.0651904], [20.7961552, 38.0651504], [20.7958622, 38.0650348], [20.7955584, 38.0648262], [20.795374, 38.0645448], [20.7950823, 38.0643015], [20.794993, 38.0642637], [20.7949304, 38.0642079], [20.7947638, 38.0640519], [20.7946109, 38.0639593], [20.7944667, 38.0638851], [20.7943481, 38.0638753], [20.793819, 38.0635771], [20.7932968, 38.063186], [20.793099, 38.0628939], [20.7928041, 38.0626194], [20.7925131, 38.0624185], [20.7921198, 38.0621361], [20.7918311, 38.0619384], [20.7915352, 38.0615783], [20.7914465, 38.0612863]]]}, "properties": {"beach": "Σπίθι", "acc_1km": 4}}, {"type": "Feature", "geometry": {"type": "Polygon", "coordinates": [[[20.5623299, 38.4716228], [20.5624905, 38.4715496], [20.5625486, 38.4715381], [20.5626136, 38.4715629], [20.562653, 38.4716205], [20.5625201, 38.471658], [20.5624086, 38.4717039], [20.5623752, 38.4716651], [20.5623299, 38.4716228]]]}, "properties": {"beach": "Kimilia Beach", "acc_1km": 0}}, {"type": "Feature", "geometry": {"type": "Polygon", "coordinates": [[[20.572749, 38.4663279], [20.5729408, 38.4660773], [20.5731273, 38.4659886], [20.5732576, 38.4660068], [20.5733372, 38.4660741], [20.5731308, 38.4662263], [20.5728553, 38.4665468], [20.572749, 38.4663279]]]}, "properties": {"beach": "Emblisi Beach", "acc_1km": 4}}, {"type": "Feature", "geometry": {"type": "Polygon", "coordinates": [[[20.5765212, 38.4524542], [20.5765864, 38.4524302], [20.5766475, 38.4524235], [20.5766438, 38.4525905], [20.5766894, 38.4527576], [20.5765929, 38.4527671], [20.5765339, 38.45263], [20.5765212, 38.4524542]]]}, "properties": {"beach": "Beach", "acc_1km": 3}}, {"type": "Feature", "geometry": {"type": "Polygon", "coordinates": [[[20.4909497, 38.1249255], [20.4910509, 38.1248655], [20.4912648, 38.1249115], [20.4915833, 38.1250719], [20.4919708, 38.1252758], [20.4921642, 38.1255704], [20.4920952, 38.1272839], [20.4917906, 38.1279686], [20.4916838, 38.1280527], [20.4918555, 38.1263363], [20.4918183, 38.1258888], [20.4917131, 38.1254319], [20.4915392, 38.1252206], [20.4913286, 38.125031], [20.4909497, 38.1249255]]]}, "properties": {"beach": "Megali Ammos", "acc_1km": 3}}, {"type": "Feature", "geometry": {"type": "Polygon", "coordinates": [[[20.5091397, 38.1098904], [20.5098336, 38.1090913], [20.5105166, 38.1082707], [20.5106429, 38.1085368], [20.5103176, 38.1089558], [20.5098628, 38.1094722], [20.5095778, 38.109787], [20.5093994, 38.1099252], [20.5091397, 38.1098904]]]}, "properties": {"beach": "Άμμες", "acc_1km": 2}}, {"type": "Feature", "geometry": {"type": "Polygon", "coordinates": [[[20.5215282, 38.1031115], [20.5217109, 38.1031966], [20.5230069, 38.1035815], [20.5239015, 38.1038031], [20.5236144, 38.1041804], [20.5234931, 38.1042212], [20.5230101, 38.1039917], [20.5227089, 38.1038636], [20.522437, 38.1036113], [20.5220494, 38.1033959], [20.5215569, 38.1032197], [20.5215282, 38.1031115]]]}, "properties": {"beach": "Άγιος Χέλης", "acc_1km": 2}}, {"type": "Feature", "geometry": {"type": "Polygon", "coordinates": [[[20.819491, 38.4837807], [20.8195203, 38.4836954], [20.8195478, 38.4836152], [20.8195636, 38.4835692], [20.8196846, 38.4832566], [20.8198177, 38.4828524], [20.8199065, 38.4827103], [20.8200057, 38.4826591], [20.8199428, 38.4828429], [20.8199157, 38.4830275], [20.8197556, 38.4835275], [20.8197048, 38.4836765], [20.819691, 38.4838401], [20.8197215, 38.4841203], [20.8195918, 38.4840839], [20.8195192, 38.4840018], [20.819491, 38.4837807]]]}, "properties": {"beach": "Kontosouvli beach", "acc_1km": 0}}, {"type": "Feature", "geometry": {"type": "Polygon", "coordinates": [[[20.6354919, 38.2514597], [20.6360364, 38.2513439], [20.6369001, 38.2512196], [20.6374043, 38.2512175], [20.6381339, 38.251207], [20.6393114, 38.2512049], [20.6409556, 38.2511733], [20.6409663, 38.2512133], [20.6411192, 38.2512091], [20.6411192, 38.2511628], [20.6420258, 38.2512386], [20.6420928, 38.2513439], [20.6420585, 38.2513935], [20.6417616, 38.2512813], [20.6414164, 38.2512611], [20.6398787, 38.2512599], [20.6384018, 38.2513028], [20.6378549, 38.2513671], [20.6364709, 38.2514185], [20.6360262, 38.2515649], [20.6358296, 38.2516847], [20.635743, 38.251773], [20.6356341, 38.2516999], [20.6355563, 38.2516072], [20.6354919, 38.2514597]]]}, "properties": {"beach": "Καραβόμυλος", "acc_1km": 5}}, {"type": "Feature", "geometry": {"type": "Polygon", "coordinates": [[[20.3738097, 38.2593553], [20.3739689, 38.2591718], [20.3741578, 38.2592424], [20.3742337, 38.2593171], [20.374378, 38.2593368], [20.3745194, 38.2593543], [20.3746216, 38.2593814], [20.3747245, 38.2594711], [20.3748262, 38.259571], [20.3749194, 38.2595977], [20.3750472, 38.2596031], [20.3750984, 38.2596736], [20.3752052, 38.2597068], [20.3752156, 38.2597998], [20.3754465, 38.2598313], [20.3756214, 38.2599938], [20.3758718, 38.2600984], [20.376423, 38.2604445], [20.376681, 38.2607037], [20.3777935, 38.2614397], [20.3779993, 38.2616688], [20.3782023, 38.2619893], [20.3783, 38.2622478], [20.3783655, 38.2624617], [20.3783279, 38.2625987], [20.3782909, 38.2626851], [20.3781353, 38.2627859], [20.378159, 38.2626255], [20.3781054, 38.2624125], [20.3779298, 38.2621488], [20.3778366, 38.2619978], [20.3776845, 38.2618819], [20.3775675, 38.2617194], [20.3771827, 38.2613719], [20.3768793, 38.2611621], [20.3766138, 38.2609162], [20.3760758, 38.2605455], [20.3757091, 38.2603059], [20.3751722, 38.2599663], [20.3747394, 38.2597203], [20.3742064, 38.2594579], [20.3738097, 38.2593553]]]}, "properties": {"beach": "Πετανι", "acc_1km": 2}}, {"type": "Feature", "geometry": {"type": "Polygon", "coordinates": [[[20.5371419, 38.1023849], [20.5378557, 38.1022679], [20.5382715, 38.1021182], [20.5393723, 38.1013484], [20.5400445, 38.1010426], [20.5404802, 38.1007859], [20.5414778, 38.1001533], [20.542433, 38.0994138], [20.5424135, 38.0995034], [20.5417289, 38.1000847], [20.5410719, 38.1005397], [20.5402747, 38.1010702], [20.5400445, 38.1011774], [20.539306, 38.1016585], [20.5386928, 38.1020368], [20.5382637, 38.1022686], [20.5379359, 38.1023758], [20.5376505, 38.1024251], [20.5374221, 38.1024324], [20.5371419, 38.1023849]]]}, "properties": {"beach": "Παραλια Αβυθος Avithos Beach", "acc_1km": 0}}, {"type": "Feature", "geometry": {"type": "Polygon", "coordinates": [[[20.4101165, 38.1596744], [20.4101212, 38.1595878], [20.4113764, 38.1599234], [20.4123794, 38.1601293], [20.4134999, 38.1603041], [20.4146394, 38.1604036], [20.416369, 38.1605084], [20.4179087, 38.1606251], [20.4190086, 38.1606419], [20.4190374, 38.1606423], [20.4190322, 38.1607861], [20.4189783, 38.1608163], [20.4191361, 38.1609011], [20.4191284, 38.1609465], [20.4178729, 38.1608171], [20.4177721, 38.1607314], [20.4176251, 38.1606694], [20.4175242, 38.1607629], [20.417475, 38.1607666], [20.4174264, 38.16074], [20.4173447, 38.1606351], [20.417263, 38.1606265], [20.4171323, 38.1607272], [20.4158009, 38.1606651], [20.4156908, 38.160616], [20.415338, 38.1606565], [20.4150439, 38.1606372], [20.4148806, 38.1605538], [20.4139358, 38.1605131], [20.4130618, 38.1603932], [20.4118447, 38.160162], [20.4113268, 38.1600078], [20.4101165, 38.1596744]]]}, "properties": {"beach": "Xi Beach", "acc_1km": 3}}, {"type": "Feature", "geometry": {"type": "Polygon", "coordinates": [[[20.5441819, 38.4251733], [20.5445999, 38.4250692], [20.545096, 38.4249092], [20.5451925, 38.4249631], [20.5451915, 38.4250069], [20.5452014, 38.4250952], [20.5451747, 38.4252262], [20.545057, 38.4252968], [20.5449883, 38.425341], [20.5448859, 38.4253832], [20.5448104, 38.4253507], [20.5447178, 38.4253741], [20.5444412, 38.4253354], [20.5442986, 38.4252647], [20.5441819, 38.4251733]]]}, "properties": {"beach": "Παραλία Αγία Ιερουσαλήμ", "acc_1km": 0}}, {"type": "Feature", "geometry": {"type": "Polygon", "coordinates": [[[20.6152682, 38.2754826], [20.6152895, 38.2753131], [20.6153532, 38.2750686], [20.6154205, 38.2749339], [20.615431, 38.274913], [20.6154837, 38.2748601], [20.6155195, 38.2748241], [20.6156009, 38.2747797], [20.6156682, 38.2747824], [20.6153673, 38.2755382], [20.6152682, 38.2754826]]]}, "properties": {"beach": "Paralia Agia Paraskevi", "acc_1km": 0}}, {"type": "Feature", "geometry": {"type": "Polygon", "coordinates": [[[20.3771311, 38.1614469], [20.3773451, 38.1614606], [20.3776643, 38.1618246], [20.3777288, 38.1621645], [20.3778481, 38.16249], [20.3777802, 38.1628819], [20.3773618, 38.1630109], [20.3774095, 38.1628012], [20.3774471, 38.1624838], [20.3774216, 38.1619766], [20.3773572, 38.1618248], [20.3771311, 38.1614469]]]}, "properties": {"beach": "Βραχινάρι", "acc_1km": 2}}, {"type": "Feature", "geometry": {"type": "Polygon", "coordinates": [[[20.535896, 38.439747], [20.5359144, 38.4397036], [20.5359483, 38.4397118], [20.5360006, 38.4396929], [20.5360283, 38.439663], [20.5361086, 38.4397039], [20.5361206, 38.4398048], [20.536128, 38.4398668], [20.5361387, 38.4399166], [20.5361186, 38.4399408], [20.5360858, 38.439934], [20.536063, 38.4399061], [20.5360107, 38.4398379], [20.5359369, 38.4397995], [20.535896, 38.439747]]]}, "properties": {"beach": "Παραλία Αλατιές", "acc_1km": 0}}, {"type": "Feature", "geometry": {"type": "Polygon", "coordinates": [[[20.3754359, 38.1648274], [20.3754538, 38.1646677], [20.3758436, 38.1646673], [20.3761182, 38.1645665], [20.3764917, 38.1642976], [20.3768119, 38.1639237], [20.3769955, 38.1636074], [20.3770409, 38.1639845], [20.3768961, 38.1642681], [20.3765555, 38.1645686], [20.3762577, 38.1647542], [20.3759104, 38.1648765], [20.3754359, 38.1648274]]]}, "properties": {"beach": "Βάτσα", "acc_1km": 0}}, {"type": "Feature", "geometry": {"type": "Polygon", "coordinates": [[[20.4486811, 38.2788045], [20.4486903, 38.2787682], [20.4487103, 38.2787863], [20.4487935, 38.2787948], [20.4490277, 38.2787766], [20.4492141, 38.2787597], [20.4494729, 38.2787234], [20.4496747, 38.2786908], [20.4498442, 38.2786485], [20.4500152, 38.2786085], [20.4501461, 38.2785735], [20.450163, 38.2786182], [20.4501292, 38.2786424], [20.4498133, 38.2787186], [20.44961, 38.278767], [20.4494313, 38.2788069], [20.4492464, 38.2788347], [20.4491078, 38.2788577], [20.4490015, 38.278871], [20.4489029, 38.2788637], [20.4488213, 38.2788528], [20.4487673, 38.2788456], [20.4486811, 38.2788045]]]}, "properties": {"beach": "Κουμαριά", "acc_1km": 0}}, {"type": "Feature", "geometry": {"type": "Polygon", "coordinates": [[[20.3529361, 38.2151893], [20.3533312, 38.2149496], [20.3536873, 38.214922], [20.3538358, 38.2151849], [20.354147, 38.2154049], [20.3544218, 38.215595], [20.354695, 38.2158139], [20.3547865, 38.2159944], [20.3549641, 38.2161981], [20.3551336, 38.2164178], [20.3552477, 38.2166826], [20.355597, 38.2167721], [20.3553904, 38.2173703], [20.3555711, 38.2175317], [20.3556533, 38.2177414], [20.3557048, 38.2180512], [20.3557636, 38.2182528], [20.3559023, 38.218302], [20.3561205, 38.218816], [20.356172, 38.2192869], [20.3561535, 38.2196639], [20.3560123, 38.2197803], [20.355814, 38.2191212], [20.3555105, 38.2185149], [20.3552419, 38.2178282], [20.3552092, 38.2174955], [20.3545208, 38.2167094], [20.354029, 38.2161039], [20.3536117, 38.2157111], [20.353283, 38.2154166], [20.3529361, 38.2151893]]]}, "properties": {"beach": "Πλατιά Άμμος", "acc_1km": 0}}, {"type": "Feature", "geometry": {"type": "Polygon", "coordinates": [[[20.3508693, 38.1763594], [20.3509782, 38.1763586], [20.3512032, 38.1762851], [20.3512886, 38.1762255], [20.351341, 38.1761811], [20.3513973, 38.1761945], [20.3514479, 38.1762216], [20.3514824, 38.1762704], [20.3514824, 38.1763156], [20.351441, 38.1763626], [20.3513904, 38.1763897], [20.3513214, 38.1764367], [20.3512409, 38.1764855], [20.3511535, 38.1765253], [20.3509995, 38.1765253], [20.3509443, 38.1764946], [20.3509213, 38.176444], [20.3508693, 38.1763594]]]}, "properties": {"beach": "Λαγκαδάκια", "acc_1km": 0}}, {"type": "Feature", "geometry": {"type": "Polygon", "coordinates": [[[20.3871319, 38.1529329], [20.387151, 38.1528326], [20.3877955, 38.1535058], [20.3890805, 38.1543894], [20.390605, 38.1549888], [20.3918202, 38.1553987], [20.3931765, 38.1557062], [20.393642, 38.1557586], [20.3936097, 38.15581], [20.3933283, 38.1558057], [20.3928251, 38.1557547], [20.3917754, 38.1554994], [20.3914508, 38.1553888], [20.3911099, 38.1552696], [20.3907744, 38.1551548], [20.3903686, 38.1549761], [20.3900007, 38.1548569], [20.3895246, 38.1546314], [20.3891729, 38.1545038], [20.3888807, 38.1543208], [20.3885128, 38.1540953], [20.388134, 38.1538613], [20.3877066, 38.1535677], [20.3874306, 38.1532912], [20.3872791, 38.1531252], [20.3871319, 38.1529329]]]}, "properties": {"beach": "Κουνόπετρα", "acc_1km": 2}}, {"type": "Feature", "geometry": {"type": "Polygon", "coordinates": [[[20.3671402, 38.260568], [20.3671502, 38.2603244], [20.3672277, 38.2602098], [20.3672961, 38.2601561], [20.3673918, 38.2601024], [20.3674602, 38.260063], [20.3675469, 38.260038], [20.3676517, 38.2600666], [20.3677406, 38.2602626], [20.3674811, 38.2603198], [20.3671402, 38.260568]]]}, "properties": {"beach": "Αγία Ελένη", "acc_1km": 0}}, {"type": "Feature", "geometry": {"type": "Polygon", "coordinates": [[[20.4562797, 38.2597003], [20.4565229, 38.2596414], [20.4569152, 38.259496], [20.4572201, 38.2593335], [20.4575096, 38.2591463], [20.457637, 38.2589552], [20.4576785, 38.2590036], [20.4576621, 38.2590486], [20.4576157, 38.2591022], [20.4575529, 38.2591922], [20.4574574, 38.2592629], [20.457381, 38.2593036], [20.4573101, 38.2593614], [20.4572637, 38.2594107], [20.4571709, 38.2594621], [20.4570836, 38.2594943], [20.4570263, 38.2595307], [20.4569854, 38.2595778], [20.4569226, 38.259625], [20.4567643, 38.259685], [20.4565242, 38.2597343], [20.4563605, 38.25976], [20.4563005, 38.2597385], [20.4562797, 38.2597003]]]}, "properties": {"beach": "Αγία Σωτήρα", "acc_1km": 0}}, {"type": "Feature", "geometry": {"type": "Polygon", "coordinates": [[[20.4599117, 38.24778], [20.4600565, 38.2476585], [20.4601867, 38.2474979], [20.4601911, 38.2475322], [20.4601543, 38.2476224], [20.4600991, 38.2477037], [20.4600187, 38.247785], [20.4599589, 38.247785], [20.4599117, 38.24778]]]}, "properties": {"beach": "Λίθος", "acc_1km": 0}}, {"type": "Feature", "geometry": {"type": "Polygon", "coordinates": [[[20.4700111, 38.2315055], [20.4702356, 38.2314884], [20.4705741, 38.2313897], [20.4708475, 38.2312888], [20.4708348, 38.2313607], [20.4707894, 38.231404], [20.4706567, 38.2314574], [20.4703555, 38.231554], [20.4701742, 38.2315769], [20.4700868, 38.2315668], [20.4700111, 38.2315055]]]}, "properties": {"beach": "Λυγιά", "acc_1km": 0}}, {"type": "Feature", "geometry": {"type": "Polygon", "coordinates": [[[20.4845135, 38.1491025], [20.4846581, 38.1490631], [20.4847552, 38.1491242], [20.4848297, 38.1492108], [20.4848912, 38.149277], [20.4850207, 38.1495011], [20.4849851, 38.1496233], [20.4849654, 38.1496844], [20.484922, 38.1495133], [20.4848397, 38.149388], [20.4846669, 38.1492211], [20.4845135, 38.1491025]]]}, "properties": {"beach": "Άσπρος Βράχος", "acc_1km": 4}}, {"type": "Feature", "geometry": {"type": "Polygon", "coordinates": [[[20.4837866, 38.1521639], [20.4839335, 38.1521334], [20.4843488, 38.151679], [20.4847382, 38.151184], [20.484807, 38.1512912], [20.4848361, 38.1513396], [20.4848912, 38.1514491], [20.4849139, 38.1515891], [20.4849527, 38.1516935], [20.4849387, 38.1517326], [20.4849374, 38.1517362], [20.4849236, 38.151775], [20.4848815, 38.1518081], [20.4848264, 38.1518106], [20.4847487, 38.1518336], [20.4846678, 38.151915], [20.4846218, 38.1519633], [20.4845415, 38.1520475], [20.4845326, 38.1520554], [20.4844246, 38.1521509], [20.484412, 38.152162], [20.4842458, 38.1522307], [20.4841205, 38.1522359], [20.4839327, 38.1522181], [20.4837866, 38.1521639]]]}, "properties": {"beach": "Πλατύς Γιαλός", "acc_1km": 4}}, {"type": "Feature", "geometry": {"type": "Polygon", "coordinates": [[[20.4780794, 38.1600319], [20.4783297, 38.1600781], [20.478524, 38.1601087], [20.4787604, 38.1601545], [20.478864, 38.160236], [20.4790065, 38.1603073], [20.4791036, 38.1603709], [20.4791069, 38.1604651], [20.4791652, 38.1605288], [20.4792429, 38.1605695], [20.4792785, 38.1606281], [20.4792947, 38.1606917], [20.4792588, 38.1608484], [20.479061, 38.1606632], [20.478618, 38.1603683], [20.4781583, 38.160121], [20.4780794, 38.1600319]]]}, "properties": {"beach": "Παλιοσταφίδα", "acc_1km": 10}}, {"type": "Feature", "geometry": {"type": "Polygon", "coordinates": [[[20.4795789, 38.1648104], [20.4797378, 38.1645215], [20.4798313, 38.1642801], [20.4798237, 38.1641834], [20.4799019, 38.1642908], [20.4799373, 38.1643422], [20.4799564, 38.1644281], [20.4799455, 38.1645396], [20.4799101, 38.1646448], [20.4798828, 38.1647391], [20.4797982, 38.1647971], [20.479719, 38.1648228], [20.4795789, 38.1648104]]]}, "properties": {"beach": "Γραδάκια", "acc_1km": 9}}, {"type": "Feature", "geometry": {"type": "Polygon", "coordinates": [[[20.4806564, 38.1707229], [20.480842, 38.1706914], [20.4809989, 38.170734], [20.4811017, 38.1708105], [20.4811991, 38.1708999], [20.481421, 38.1711423], [20.4814859, 38.171338], [20.4815292, 38.1714911], [20.4815454, 38.1715932], [20.481513, 38.1716825], [20.4814051, 38.1717359], [20.4813535, 38.1713477], [20.4811925, 38.1710956], [20.4808886, 38.1708067], [20.4806564, 38.1707229]]]}, "properties": {"beach": "Καλάμια", "acc_1km": 13}}, {"type": "Feature", "geometry": {"type": "Polygon", "coordinates": [[[20.529339, 38.1038427], [20.5307976, 38.103935], [20.532828, 38.1036571], [20.5344777, 38.1032974], [20.5353111, 38.1030471], [20.5366484, 38.1025186], [20.536552, 38.102637], [20.536434, 38.1027257], [20.5362033, 38.1028143], [20.5360263, 38.1029114], [20.53586, 38.1030254], [20.5358121, 38.1030434], [20.5354898, 38.1031647], [20.5351411, 38.1032744], [20.5345242, 38.1034559], [20.5342667, 38.1034475], [20.5340844, 38.1034728], [20.5339878, 38.1035404], [20.5337196, 38.1036079], [20.5329739, 38.1037514], [20.5326574, 38.1037894], [20.5324643, 38.1037768], [20.5320673, 38.1038232], [20.5315094, 38.1039076], [20.5308281, 38.1040047], [20.5304741, 38.10403], [20.5300235, 38.1040258], [20.529589, 38.1039709], [20.529339, 38.1038427]]]}, "properties": {"beach": "Λυγιά", "acc_1km": 1}}, {"type": "Feature", "geometry": {"type": "Polygon", "coordinates": [[[20.5747155, 38.1027009], [20.5747571, 38.1026354], [20.5748138, 38.1025782], [20.5748496, 38.1026603], [20.575073, 38.1028342], [20.5752908, 38.1029907], [20.5753987, 38.1030611], [20.5753038, 38.1031021], [20.5752796, 38.1031125], [20.5752042, 38.1030961], [20.5751846, 38.1030919], [20.5751097, 38.1030373], [20.5749681, 38.1029652], [20.5747766, 38.102832], [20.5747211, 38.1027534], [20.5747155, 38.1027009]]]}, "properties": {"beach": "Σπαρτιάς", "acc_1km": 3}}, {"type": "Feature", "geometry": {"type": "Polygon", "coordinates": [[[20.5579684, 38.0918636], [20.5588911, 38.0916835], [20.5599338, 38.091282], [20.560036, 38.0912057], [20.5600635, 38.0913361], [20.5600273, 38.091425], [20.5599369, 38.0914997], [20.5597154, 38.0916207], [20.5593989, 38.0917452], [20.5589017, 38.0918591], [20.5585264, 38.091916], [20.5581377, 38.0919338], [20.5579684, 38.0918636]]]}, "properties": {"beach": "Νιψιάς", "acc_1km": 1}}, {"type": "Feature", "geometry": {"type": "Polygon", "coordinates": [[[20.6076819, 38.1180135], [20.6080563, 38.1180313], [20.6086009, 38.1179908], [20.6092656, 38.1178816], [20.6096369, 38.1178228], [20.6099972, 38.1176904], [20.6099909, 38.1177327], [20.6099498, 38.1177758], [20.6098564, 38.1178457], [20.6097538, 38.1178978], [20.6095281, 38.1179516], [20.6093639, 38.1180072], [20.6091496, 38.1180502], [20.6089855, 38.118104], [20.6088396, 38.1181363], [20.6086275, 38.1181758], [20.6084064, 38.1181865], [20.6081374, 38.1181901], [20.6080348, 38.118174], [20.6079367, 38.1181345], [20.6077566, 38.1180861], [20.6076819, 38.1180135]]]}, "properties": {"beach": "Τραπεζάκι", "acc_1km": 9}}, {"type": "Feature", "geometry": {"type": "Polygon", "coordinates": [[[20.5998424, 38.1158379], [20.6000659, 38.1158913], [20.6003031, 38.1159252], [20.6002447, 38.1159506], [20.6002005, 38.1159687], [20.6001256, 38.1159823], [20.6000795, 38.1159838], [20.6000257, 38.1159657], [20.5999565, 38.1159339], [20.5998796, 38.1158901], [20.5998635, 38.1158675], [20.5998424, 38.1158379]]]}, "properties": {"beach": "Άγιος Θωμάς", "acc_1km": 8}}, {"type": "Feature", "geometry": {"type": "Polygon", "coordinates": [[[20.4409054, 38.345527], [20.440952, 38.3451495], [20.441115, 38.344638], [20.4411927, 38.3443762], [20.4412626, 38.3442118], [20.4413712, 38.3441752], [20.4415032, 38.3442666], [20.4416042, 38.3443396], [20.4414256, 38.3447659], [20.4411073, 38.3456914], [20.4409675, 38.3456488], [20.4409054, 38.345527]]]}, "properties": {"beach": "Amidi Beach", "acc_1km": 0}}, {"type": "Feature", "geometry": {"type": "Polygon", "coordinates": [[[20.6024285, 38.3035109], [20.6024945, 38.3034852], [20.6025725, 38.3036753], [20.6026368, 38.3037438], [20.6025797, 38.3037464], [20.6025054, 38.3036769], [20.6024598, 38.3035982], [20.6024285, 38.3035109]]]}, "properties": {"beach": "Ελιές", "acc_1km": 7}}, {"type": "Feature", "geometry": {"type": "Polygon", "coordinates": [[[20.5861759, 38.1052662], [20.5861769, 38.10523], [20.5861889, 38.1052026], [20.5862365, 38.1051784], [20.5863075, 38.1051643], [20.5863581, 38.1051718], [20.5864142, 38.1053437], [20.5863839, 38.1053734], [20.5863432, 38.105371], [20.5862956, 38.1053643], [20.5862654, 38.1053561], [20.5862262, 38.1053345], [20.5861967, 38.1052993], [20.5861759, 38.1052662]]]}, "properties": {"beach": "Pessada Beach", "acc_1km": 0}}, {"type": "Feature", "geometry": {"type": "Polygon", "coordinates": [[[20.4700728, 38.1887107], [20.4701637, 38.1886677], [20.470299, 38.1885157], [20.470316, 38.1884871], [20.470355, 38.1884823], [20.4703832, 38.1884813], [20.4703966, 38.188496], [20.4703912, 38.1885213], [20.4703899, 38.1885572], [20.4703952, 38.188574], [20.470363, 38.1885761], [20.4703443, 38.1885898], [20.4703228, 38.1886183], [20.4703228, 38.188652], [20.4703134, 38.1886699], [20.4702826, 38.1886889], [20.4702263, 38.1887089], [20.470186, 38.1887205], [20.4701404, 38.1887205], [20.4700728, 38.1887107]]]}, "properties": {"beach": "Παραλία Κόλπος Κορμοράνων", "acc_1km": 1}}, {"type": "Feature", "geometry": {"type": "Polygon", "coordinates": [[[20.6124171, 38.3717223], [20.6125058, 38.3716655], [20.6126669, 38.3715356], [20.6127673, 38.3714202], [20.6128093, 38.3713195], [20.6129635, 38.3710724], [20.6130288, 38.3710871], [20.6128272, 38.3713751], [20.6126646, 38.371585], [20.6125035, 38.3717662], [20.6124171, 38.3717223]]]}, "properties": {"beach": "Αγιά Σοφία", "acc_1km": 0}}, {"type": "Feature", "geometry": {"type": "Polygon", "coordinates": [[[20.800976, 38.1266008], [20.8010779, 38.1264974], [20.8011369, 38.1265079], [20.8011705, 38.126522], [20.8010916, 38.1265688], [20.8010414, 38.1266517], [20.800976, 38.1266008]]]}, "properties": {"beach": "Κάκό Λαγκάδι", "acc_1km": 0}}, {"type": "Feature", "geometry": {"type": "Polygon", "coordinates": [[[20.6707299, 38.4568627], [20.6707675, 38.4568207], [20.6707997, 38.4567934], [20.670848, 38.4567555], [20.6709096, 38.456745], [20.6709687, 38.4567619], [20.6707901, 38.4569302], [20.6707729, 38.4569299], [20.6707326, 38.4569131], [20.6707299, 38.4568627]]]}, "properties": {"beach": "Δεύτερα Κουρβούλια", "acc_1km": 3}}, {"type": "Feature", "geometry": {"type": "Polygon", "coordinates": [[[20.6737333, 38.4559605], [20.6737394, 38.4559406], [20.6737474, 38.4559154], [20.6737796, 38.4558902], [20.6738118, 38.4558734], [20.6739137, 38.4558608], [20.6740076, 38.4558629], [20.6741042, 38.4558755], [20.6741927, 38.4558881], [20.6742892, 38.4559259], [20.6743062, 38.4559782], [20.6742659, 38.4559943], [20.6741645, 38.4559486], [20.6740922, 38.4559438], [20.6739985, 38.4559376], [20.6738938, 38.4559306], [20.6738359, 38.4559238], [20.6737704, 38.4559526], [20.6737333, 38.4559605]]]}, "properties": {"beach": "Τρίτα Κουρβούλια", "acc_1km": 1}}, {"type": "Feature", "geometry": {"type": "Polygon", "coordinates": [[[20.6694076, 38.4581722], [20.6694264, 38.4581407], [20.6694894, 38.4581292], [20.6695659, 38.4581323], [20.6696685, 38.4581376], [20.6697476, 38.4581465], [20.6698227, 38.4581617], [20.6698515, 38.4581869], [20.6698394, 38.4581964], [20.6698073, 38.4582205], [20.6697737, 38.4582079], [20.6697322, 38.4582027], [20.6696785, 38.4581964], [20.6695444, 38.458188], [20.6694733, 38.4581817], [20.6694076, 38.4581722]]]}, "properties": {"beach": "Πρώτα Κουρβούλια", "acc_1km": 3}}, {"type": "Feature", "geometry": {"type": "Polygon", "coordinates": [[[20.7753366, 38.1524023], [20.7755496, 38.1521792], [20.7756118, 38.1519312], [20.7758074, 38.1519841], [20.7759613, 38.1515753], [20.7760179, 38.1514346], [20.7761108, 38.1512139], [20.7760298, 38.1511724], [20.7761176, 38.1509293], [20.7761769, 38.150832], [20.7765689, 38.1500356], [20.7767912, 38.1499232], [20.7770798, 38.1499051], [20.7769037, 38.1500241], [20.7767637, 38.1501331], [20.7767118, 38.1501907], [20.7765588, 38.1504015], [20.7764111, 38.1506853], [20.7763706, 38.1508161], [20.7763811, 38.150904], [20.7762631, 38.1511629], [20.776056, 38.1516172], [20.7758456, 38.1520996], [20.7757268, 38.1523391], [20.7754936, 38.1524399], [20.7753537, 38.1525061], [20.7753366, 38.1524023]]]}, "properties": {"beach": "Central Square Beach", "acc_1km": 3}}, {"type": "Feature", "geometry": {"type": "Polygon", "coordinates": [[[20.7656738, 38.1652285], [20.76578, 38.1648289], [20.766091, 38.1638924], [20.7664548, 38.1627136], [20.7668304, 38.161527], [20.7675194, 38.1599921], [20.7678756, 38.159126], [20.7683988, 38.1580826], [20.7687688, 38.1573804], [20.7690598, 38.1568014], [20.7693665, 38.1563403], [20.7698356, 38.1558937], [20.7701875, 38.1556525], [20.7704581, 38.1556029], [20.7706727, 38.1556479], [20.7703938, 38.1558209], [20.7700236, 38.1559727], [20.7697178, 38.1563524], [20.7694282, 38.1566687], [20.769235, 38.1569978], [20.768999, 38.1574238], [20.7682932, 38.1591132], [20.7675627, 38.1607569], [20.7670329, 38.1620982], [20.7666611, 38.16316], [20.7662242, 38.1642685], [20.7658525, 38.1652885], [20.7657235, 38.1653064], [20.7656738, 38.1652285]]]}, "properties": {"beach": "Ράγια", "acc_1km": 2}}, {"type": "Feature", "geometry": {"type": "Polygon", "coordinates": [[[20.7910413, 38.1339501], [20.7910616, 38.1338794], [20.7911879, 38.1336524], [20.7914586, 38.1332834], [20.7916841, 38.1329924], [20.792159, 38.1323712], [20.79238, 38.1320518], [20.7924075, 38.1321589], [20.7923493, 38.1322446], [20.7922397, 38.1324126], [20.7920976, 38.1326278], [20.7918427, 38.1329801], [20.7915178, 38.1334376], [20.7913282, 38.1337241], [20.7912144, 38.1338941], [20.7911045, 38.1339679], [20.7910413, 38.1339501]]]}, "properties": {"beach": "Λιμένια", "acc_1km": 0}}, {"type": "Feature", "geometry": {"type": "Polygon", "coordinates": [[[20.7927598, 38.1313839], [20.792938, 38.1310823], [20.7930824, 38.1307984], [20.7933312, 38.1303264], [20.7934337, 38.1301861], [20.7937159, 38.1298848], [20.7938615, 38.1297939], [20.7940194, 38.1297903], [20.7936495, 38.130138], [20.7933608, 38.1305355], [20.7930631, 38.1310854], [20.7928646, 38.1314119], [20.7927598, 38.1313839]]]}, "properties": {"beach": "Cronidis Beach", "acc_1km": 0}}, {"type": "Feature", "geometry": {"type": "Polygon", "coordinates": [[[20.4802999, 38.1641321], [20.4803286, 38.164033], [20.4804895, 38.1640617], [20.4804608, 38.1641608], [20.4804602, 38.1641607], [20.4804471, 38.1642061], [20.480316, 38.1641827], [20.4803292, 38.1641373], [20.4802999, 38.1641321]]]}, "properties": {"beach": "Γραδάκια", "acc_1km": 9}}, {"type": "Feature", "geometry": {"type": "Polygon", "coordinates": [[[20.6105879, 38.117674], [20.6106944, 38.1176164], [20.6107144, 38.117663], [20.610758, 38.1177091], [20.6108239, 38.1177421], [20.6110266, 38.1177825], [20.6113328, 38.1178247], [20.6116079, 38.1177886], [20.6115576, 38.117829], [20.6114611, 38.1178975], [20.6113572, 38.1178969], [20.6111883, 38.1178763], [20.6110846, 38.1178732], [20.6109792, 38.1178536], [20.610891, 38.1177936], [20.6108309, 38.1177765], [20.6107078, 38.1177823], [20.6105879, 38.117674]]]}, "properties": {"beach": "Trapezaki port bridge", "acc_1km": 8}}, {"type": "Feature", "geometry": {"type": "Polygon", "coordinates": [[[20.6120999, 38.1178151], [20.6127621, 38.1177965], [20.6136534, 38.1177169], [20.6145719, 38.1176628], [20.6154842, 38.1175251], [20.616237, 38.1173618], [20.6179573, 38.1171713], [20.6178941, 38.1172491], [20.6173647, 38.1172905], [20.6169636, 38.1173635], [20.616538, 38.1174298], [20.6162141, 38.1175212], [20.6159384, 38.1175757], [20.6155411, 38.1176538], [20.6151507, 38.1177309], [20.614895, 38.1177198], [20.6147028, 38.1177516], [20.6142173, 38.1178195], [20.6137286, 38.1178438], [20.6132987, 38.1178563], [20.6128561, 38.1178885], [20.612524, 38.1178977], [20.6121735, 38.1178719], [20.6120999, 38.1178151]]]}, "properties": {"beach": "Trapezaki naturist beach", "acc_1km": 14}}, {"type": "Feature", "geometry": {"type": "Polygon", "coordinates": [[[20.5454439, 38.0972773], [20.5456308, 38.0971616], [20.5458711, 38.0969888], [20.5461318, 38.0967742], [20.5464675, 38.0965341], [20.5467565, 38.0963722], [20.546829, 38.0963159], [20.5468544, 38.0962472], [20.5469747, 38.0961959], [20.5469745, 38.0962798], [20.5468309, 38.0963712], [20.5467523, 38.0964181], [20.5466043, 38.0964849], [20.5460028, 38.096969], [20.5458364, 38.0971197], [20.5455973, 38.0972553], [20.5454439, 38.0972773]]]}, "properties": {"beach": "Paliolinos beach", "acc_1km": 0}}, {"type": "Feature", "geometry": {"type": "Polygon", "coordinates": [[[20.5425373, 38.0993567], [20.5431183, 38.0990234], [20.5439108, 38.0984711], [20.5447255, 38.0978652], [20.544579, 38.0980476], [20.5442487, 38.0982694], [20.5440546, 38.0984082], [20.5439198, 38.0985979], [20.5437586, 38.0987785], [20.5433368, 38.0990242], [20.5429148, 38.0992348], [20.5427227, 38.0993316], [20.5425373, 38.0993567]]]}, "properties": {"beach": "Avithos South (nudist)", "acc_1km": 0}}, {"type": "Feature", "geometry": {"type": "Polygon", "coordinates": [[[20.6683419, 38.0932048], [20.6689059, 38.0932289], [20.6695482, 38.093022], [20.6701449, 38.0927492], [20.6706883, 38.0924034], [20.6717259, 38.0915984], [20.6721657, 38.0913451], [20.6725198, 38.0911551], [20.6729543, 38.0909735], [20.6733513, 38.0908595], [20.6736892, 38.0907455], [20.6741828, 38.0905133], [20.674687, 38.0901756], [20.6754059, 38.0895803], [20.676668, 38.0886992], [20.6770389, 38.0883777], [20.6774838, 38.0880588], [20.6784871, 38.0871419], [20.6785443, 38.087609], [20.6783037, 38.0878292], [20.6780054, 38.0880718], [20.6775171, 38.0884222], [20.6771412, 38.0888008], [20.6769087, 38.0889491], [20.6765257, 38.0889592], [20.676351, 38.0890837], [20.6762934, 38.0893166], [20.6759827, 38.0894866], [20.6753505, 38.0898639], [20.6748878, 38.0900941], [20.6747807, 38.0902634], [20.6744974, 38.0906137], [20.6742391, 38.0907749], [20.6740142, 38.090752], [20.6738557, 38.0908553], [20.6737968, 38.0908936], [20.6731294, 38.0911762], [20.6727767, 38.091218], [20.6722726, 38.0914641], [20.6718189, 38.0918414], [20.6715929, 38.0920215], [20.671461, 38.0921266], [20.6707683, 38.0925889], [20.670589, 38.0929587], [20.6696726, 38.0934052], [20.6692033, 38.0934456], [20.6690536, 38.0933933], [20.668827, 38.0933696], [20.668451, 38.0932862], [20.6683419, 38.0932048]]]}, "properties": {"beach": "Λεύκα", "acc_1km": 0}}, {"type": "Feature", "geometry": {"type": "Polygon", "coordinates": [[[20.7811144, 38.0623837], [20.7821018, 38.0618037], [20.7823976, 38.0616138], [20.7825367, 38.0615351], [20.7829713, 38.0612446], [20.783464, 38.0609269], [20.7838464, 38.0606267], [20.7840725, 38.0603779], [20.7844566, 38.059983], [20.7847655, 38.0595691], [20.7850182, 38.059269], [20.7858407, 38.0578851], [20.78604, 38.0575506], [20.7860361, 38.0573854], [20.7861139, 38.0572165], [20.7862574, 38.0569927], [20.7864655, 38.0568787], [20.7866346, 38.0570297], [20.7868107, 38.0572118], [20.7866108, 38.0573528], [20.7863614, 38.0577022], [20.7855704, 38.0589717], [20.7853011, 38.0594818], [20.7849751, 38.0599994], [20.7844941, 38.0605444], [20.7838406, 38.0611361], [20.7830129, 38.0616743], [20.7814246, 38.0626832], [20.7811144, 38.0623837]]]}, "properties": {"beach": "Mouda nudist beach", "acc_1km": 1}}, {"type": "Feature", "geometry": {"type": "Polygon", "coordinates": [[[20.6418885, 38.4674063], [20.641952, 38.4672078], [20.6424455, 38.4670536], [20.6429669, 38.4669002], [20.6432691, 38.466937], [20.6418885, 38.4674063]]]}, "properties": {"beach": "Αφάλες", "acc_1km": 0}}, {"type": "Feature", "geometry": {"type": "Polygon", "coordinates": [[[20.6104441, 38.2876411], [20.6104773, 38.2875975], [20.6105631, 38.2875675], [20.6105718, 38.2875417], [20.610546, 38.2874962], [20.6105647, 38.2874639], [20.6106323, 38.2873464], [20.6106765, 38.2873634], [20.6107313, 38.2873957], [20.6107057, 38.2874401], [20.6106612, 38.2875168], [20.6106514, 38.2875768], [20.610649, 38.2876441], [20.610652, 38.2877189], [20.6106824, 38.2877844], [20.6106919, 38.2878284], [20.6107217, 38.2878929], [20.6107443, 38.2879181], [20.6107605, 38.2879423], [20.6107854, 38.2879453], [20.6108126, 38.2879695], [20.6108411, 38.2879962], [20.6108521, 38.2880133], [20.6108803, 38.2880401], [20.6108891, 38.288069], [20.610859, 38.2880756], [20.6108261, 38.2880521], [20.6107865, 38.2880423], [20.6107483, 38.2880113], [20.6107168, 38.2879566], [20.610652, 38.2879278], [20.6106108, 38.2878712], [20.6105678, 38.2878171], [20.6105119, 38.2877369], [20.610446, 38.2876942], [20.6104441, 38.2876411]]]}, "properties": {"beach": "Ελληνικά", "acc_1km": 0}}, {"type": "Feature", "geometry": {"type": "Polygon", "coordinates": [[[20.6065015, 38.2944553], [20.6065548, 38.2944009], [20.6066142, 38.2943884], [20.6065804, 38.2944156], [20.6065655, 38.2944478], [20.6065632, 38.2944746], [20.6065087, 38.2944767], [20.6065015, 38.2944553]]]}, "properties": {"beach": "Ψαμούσα", "acc_1km": 0}}, {"type": "Feature", "geometry": {"type": "Polygon", "coordinates": [[[20.605646, 38.3067789], [20.6057081, 38.3067239], [20.6057637, 38.3067194], [20.6057852, 38.3067527], [20.6058263, 38.3068166], [20.6058946, 38.3069228], [20.6059376, 38.3069897], [20.6059441, 38.3070591], [20.6059568, 38.3070908], [20.605919, 38.3070792], [20.6058843, 38.307069], [20.6058487, 38.3070168], [20.605804, 38.306979], [20.6057873, 38.3069386], [20.6057533, 38.3068864], [20.6057078, 38.3068271], [20.6056773, 38.306793], [20.605646, 38.3067789]]]}, "properties": {"beach": "Λιθοβάτης", "acc_1km": 7}}, {"type": "Feature", "geometry": {"type": "Polygon", "coordinates": [[[20.7088823, 38.3743964], [20.708967, 38.3744022], [20.7090689, 38.3744028], [20.7091185, 38.3744422], [20.7092104, 38.3745131], [20.7092929, 38.3745189], [20.7095196, 38.3743039], [20.7095812, 38.3741], [20.709541, 38.3740726], [20.7094847, 38.3739044], [20.7094602, 38.3737808], [20.7096233, 38.3738549], [20.7096869, 38.3741096], [20.7097222, 38.374248], [20.7093973, 38.3745636], [20.7092029, 38.3745993], [20.7090159, 38.374562], [20.7089248, 38.3745047], [20.7088823, 38.3743964]]]}, "properties": {"beach": "Λούτσα", "acc_1km": 3}}, {"type": "Feature", "geometry": {"type": "Point", "coordinates": [20.6338343, 38.4389379]}, "properties": {"beach": "Little Polis Beach", "acc_1km": 0}}, {"type": "Feature", "geometry": {"type": "Point", "coordinates": [20.74195, 38.3719021]}, "properties": {"beach": "Filiatro", "acc_1km": 0}}, {"type": "Feature", "geometry": {"type": "Point", "coordinates": [20.3437822, 38.1948893]}, "properties": {"beach": "Παραλία Γιαλισκάρι", "acc_1km": 0}}]}
