{"type": "FeatureCollection", "features": [{"type": "Feature", "geometry": {"type": "Polygon", "coordinates": [[[20.7290263, 38.3865067], [20.7290317, 38.3864478], [20.7291122, 38.3863006], [20.7292892, 38.3861408], [20.7294269, 38.3860219], [20.7295491, 38.3859164], [20.7296057, 38.3858675], [20.7299758, 38.3856447], [20.730405, 38.3853966], [20.7307322, 38.3852788], [20.7310916, 38.3851737], [20.7315208, 38.3850854], [20.7318265, 38.3850434], [20.7321538, 38.3850097], [20.7327492, 38.3849761], [20.7333286, 38.3849677], [20.7338865, 38.3850181], [20.7343586, 38.3851022], [20.7347233, 38.3852536], [20.7347424, 38.385416], [20.7341225, 38.38522], [20.733511, 38.3851527], [20.7328029, 38.3851443], [20.7323118, 38.3851444], [20.7317622, 38.38522], [20.731215, 38.3853041], [20.7306625, 38.3854891], [20.7302655, 38.3857246], [20.7299168, 38.3859264], [20.7294984, 38.3862166], [20.7290263, 38.3865067]]]}, "properties": {"beach": "Παραλία Γιδάκι", "paved_dist_m": 586}}, {"type": "Feature", "geometry": {"type": "Polygon", "coordinates": [[[20.5623299, 38.4716228], [20.5624905, 38.4715496], [20.5625486, 38.4715381], [20.5626136, 38.4715629], [20.562653, 38.4716205], [20.5625201, 38.471658], [20.5624086, 38.4717039], [20.5623752, 38.4716651], [20.5623299, 38.4716228]]]}, "properties": {"beach": "Kimilia Beach", "paved_dist_m": 607}}, {"type": "Feature", "geometry": {"type": "Polygon", "coordinates": [[[20.819491, 38.4837807], [20.8195203, 38.4836954], [20.8195478, 38.4836152], [20.8195636, 38.4835692], [20.8196846, 38.4832566], [20.8198177, 38.4828524], [20.8199065, 38.4827103], [20.8200057, 38.4826591], [20.8199428, 38.4828429], [20.8199157, 38.4830275], [20.8197556, 38.4835275], [20.8197048, 38.4836765], [20.819691, 38.4838401], [20.8197215, 38.4841203], [20.8195918, 38.4840839], [20.8195192, 38.4840018], [20.819491, 38.4837807]]]}, "properties": {"beach": "Kontosouvli beach", "paved_dist_m": null}}, {"type": "Feature", "geometry": {"type": "Polygon", "coordinates": [[[20.4409054, 38.345527], [20.440952, 38.3451495], [20.441115, 38.344638], [20.4411927, 38.3443762], [20.4412626, 38.3442118], [20.4413712, 38.3441752], [20.4415032, 38.3442666], [20.4416042, 38.3443396], [20.4414256, 38.3447659], [20.4411073, 38.3456914], [20.4409675, 38.3456488], [20.4409054, 38.345527]]]}, "properties": {"beach": "Amidi Beach", "paved_dist_m": null}}, {"type": "Feature", "geometry": {"type": "Point", "coordinates": [20.6338343, 38.4389379]}, "properties": {"beach": "Little Polis Beach", "paved_dist_m": 699}}, {"type": "Feature", "geometry": {"type": "Point", "coordinates": [20.3437822, 38.1948893]}, "properties": {"beach": "Παραλία Γιαλισκάρι", "paved_dist_m": 538}}]}
