{"type": "FeatureCollection", "features": [{"type": "Feature", "geometry": {"type": "LineString", "coordinates": [[20.5751824, 38.4607751], [20.5753601, 38.4607726]]}, "properties": {"seq": 243, "road_class": "service"}}, {"type": "Feature", "geometry": {"type": "LineString", "coordinates": [[20.5739519, 38.4622437], [20.5739915, 38.4622348], [20.5740445, 38.4622253], [20.5740941, 38.4622085], [20.5746862, 38.4619218], [20.5747615, 38.461874], [20.5749384, 38.461726], [20.5750784, 38.4615513], [20.5752226, 38.4613136], [20.5752682, 38.4611867], [20.5753249, 38.4609272], [20.5753517, 38.4608043], [20.5753601, 38.4607726]]}, "properties": {"seq": 244, "road_class": "tertiary"}}, {"type": "Feature", "geometry": {"type": "LineString", "coordinates": [[20.5731483, 38.4625661], [20.5734251, 38.462515], [20.5736301, 38.462443], [20.5738117, 38.4623486], [20.5739519, 38.4622437]]}, "properties": {"seq": 245, "road_class": "secondary"}}, {"type": "Feature", "geometry": {"type": "LineString", "coordinates": [[20.570785, 38.4640262], [20.5707125, 38.4639202], [20.57062, 38.4638372], [20.5704667, 38.4637272], [20.5704168, 38.4636647], [20.5703832, 38.4635991], [20.5703837, 38.4635213], [20.5704126, 38.463469], [20.5704721, 38.463424], [20.5705556, 38.4633857], [20.5709419, 38.4632775], [20.5712114, 38.4631862], [20.5713791, 38.4631095], [20.5717921, 38.4628806], [20.572006, 38.4627693], [20.5721636, 38.4627052], [20.5723393, 38.4626527], [20.5724962, 38.4626238], [20.5728348, 38.4625904], [20.5731483, 38.4625661]]}, "properties": {"seq": 246, "road_class": "secondary"}}, {"type": "Feature", "geometry": {"type": "LineString", "coordinates": [[20.5705865, 38.46465], [20.5707793, 38.4643607], [20.5708068, 38.4642874], [20.5708225, 38.4642195], [20.5708212, 38.4641407], [20.570785, 38.4640262]]}, "properties": {"seq": 247, "road_class": "secondary"}}, {"type": "Feature", "geometry": {"type": "LineString", "coordinates": [[20.5696615, 38.4649015], [20.5697339, 38.4649194], [20.5698956, 38.4649534], [20.5700466, 38.4649539], [20.5701913, 38.4649209], [20.5702914, 38.4648674], [20.5703786, 38.464817], [20.5705214, 38.4647138], [20.5705865, 38.46465]]}, "properties": {"seq": 248, "road_class": "secondary"}}, {"type": "Feature", "geometry": {"type": "LineString", "coordinates": [[20.568206, 38.4644573], [20.5690024, 38.4647005], [20.5696615, 38.4649015]]}, "properties": {"seq": 249, "road_class": "secondary"}}, {"type": "Feature", "geometry": {"type": "LineString", "coordinates": [[20.566504, 38.4647056], [20.5664933, 38.4645138], [20.5665109, 38.4644073], [20.5665692, 38.4643298], [20.5666736, 38.4642772], [20.5668463, 38.4642527], [20.5670937, 38.4642528], [20.5674054, 38.4642682], [20.5676996, 38.464319], [20.568206, 38.4644573]]}, "properties": {"seq": 250, "road_class": "secondary"}}, {"type": "Feature", "geometry": {"type": "LineString", "coordinates": [[20.5663128, 38.4654749], [20.5663798, 38.4653716], [20.5664691, 38.4651407], [20.5665127, 38.4649134], [20.566504, 38.4647056]]}, "properties": {"seq": 251, "road_class": "secondary"}}, {"type": "Feature", "geometry": {"type": "LineString", "coordinates": [[20.5619001, 38.4636209], [20.5621952, 38.4636052], [20.5622788, 38.463612], [20.5623548, 38.4636354], [20.5624183, 38.4636716], [20.5624713, 38.4637126], [20.5625145, 38.4637615], [20.562546, 38.463818], [20.5625737, 38.4638874], [20.5625858, 38.4639695], [20.5625734, 38.4641376], [20.5625519, 38.4646059], [20.5625921, 38.4648579], [20.5626602, 38.4650783], [20.5627682, 38.465313], [20.5629398, 38.4656396], [20.5630334, 38.4657904], [20.5631353, 38.4659227], [20.5632345, 38.4660193], [20.5633418, 38.4660749], [20.5635001, 38.4661211], [20.5640298, 38.4661684], [20.564239, 38.4661568], [20.5643919, 38.4661232], [20.5645314, 38.4660728], [20.5647889, 38.4659405], [20.5651148, 38.4658229], [20.5653562, 38.4657557], [20.5656297, 38.4656969], [20.5661246, 38.4655814], [20.5662214, 38.4655399], [20.5663128, 38.4654749]]}, "properties": {"seq": 252, "road_class": "secondary"}}, {"type": "Feature", "geometry": {"type": "LineString", "coordinates": [[20.5617392, 38.4636335], [20.5619001, 38.4636209]]}, "properties": {"seq": 253, "road_class": "secondary"}}, {"type": "Feature", "geometry": {"type": "LineString", "coordinates": [[20.5555487, 38.4649556], [20.555672, 38.4649965], [20.5558437, 38.4650291], [20.5560583, 38.4650427], [20.5563587, 38.4650385], [20.556525, 38.465049], [20.5566618, 38.4650721], [20.5567999, 38.4651131], [20.5569836, 38.4651992], [20.5571513, 38.4652685], [20.5572948, 38.4653052], [20.5575268, 38.4653577], [20.5576354, 38.4653934], [20.5577065, 38.4654354], [20.557791, 38.4655173], [20.5579184, 38.4656476], [20.5580203, 38.4657463], [20.5581249, 38.465804], [20.558255, 38.4658313], [20.5584253, 38.4658303], [20.5586372, 38.4657988], [20.558947, 38.4657064], [20.5592354, 38.4656035], [20.5594432, 38.4654963], [20.5596806, 38.4653388], [20.5598362, 38.4651908], [20.5599917, 38.4650049], [20.5601433, 38.464817], [20.5605161, 38.4644284], [20.5607951, 38.4641743], [20.5609091, 38.4640525], [20.5609761, 38.4639349], [20.5610418, 38.4638078], [20.5611008, 38.4637333], [20.5611773, 38.4636755], [20.5612886, 38.463643], [20.5617392, 38.4636335]]}, "properties": {"seq": 254, "road_class": "secondary"}}, {"type": "Feature", "geometry": {"type": "LineString", "coordinates": [[20.5530341, 38.4627262], [20.5531199, 38.4630833], [20.5532151, 38.4633626], [20.5532755, 38.4634802], [20.5533493, 38.4635789], [20.5534954, 38.4637123], [20.5537154, 38.4638782], [20.5541754, 38.4641953], [20.5544785, 38.4643612], [20.5548044, 38.4645093], [20.5549331, 38.4645796], [20.5550846, 38.4646804], [20.5553224, 38.4648501], [20.5554355, 38.4649062], [20.5555487, 38.4649556]]}, "properties": {"seq": 255, "road_class": "secondary"}}, {"type": "Feature", "geometry": {"type": "LineString", "coordinates": [[20.5529872, 38.4625341], [20.5530341, 38.4627262]]}, "properties": {"seq": 256, "road_class": "secondary"}}, {"type": "Feature", "geometry": {"type": "LineString", "coordinates": [[20.5528115, 38.4619323], [20.5528852, 38.4621235], [20.5529509, 38.4623618], [20.5529872, 38.4625341]]}, "properties": {"seq": 257, "road_class": "secondary"}}, {"type": "Feature", "geometry": {"type": "LineString", "coordinates": [[20.5526452, 38.4616477], [20.5526626, 38.4616898], [20.5527578, 38.4618483], [20.5528115, 38.4619323]]}, "properties": {"seq": 258, "road_class": "secondary"}}, {"type": "Feature", "geometry": {"type": "LineString", "coordinates": [[20.5526036, 38.461547], [20.5526452, 38.4616477]]}, "properties": {"seq": 259, "road_class": "secondary"}}, {"type": "Feature", "geometry": {"type": "LineString", "coordinates": [[20.5523863, 38.4610471], [20.5524842, 38.4612141], [20.5525486, 38.4613621], [20.5526036, 38.461547]]}, "properties": {"seq": 260, "road_class": "secondary"}}, {"type": "Feature", "geometry": {"type": "LineString", "coordinates": [[20.5518334, 38.460097], [20.5518379, 38.4601135], [20.5519183, 38.4603204], [20.5519921, 38.460479], [20.5521154, 38.4606659], [20.5523166, 38.4609452], [20.5523863, 38.4610471]]}, "properties": {"seq": 261, "road_class": "secondary"}}, {"type": "Feature", "geometry": {"type": "LineString", "coordinates": [[20.5517896, 38.4599403], [20.5518334, 38.460097]]}, "properties": {"seq": 262, "road_class": "secondary"}}, {"type": "Feature", "geometry": {"type": "LineString", "coordinates": [[20.5518258, 38.4594509], [20.5517869, 38.4595675], [20.5517708, 38.4596809], [20.5517752, 38.459786], [20.5517896, 38.4599403]]}, "properties": {"seq": 263, "road_class": "secondary"}}, {"type": "Feature", "geometry": {"type": "LineString", "coordinates": [[20.5519188, 38.4582465], [20.5519384, 38.4584942], [20.5519384, 38.4587777], [20.5519116, 38.4590833], [20.5518633, 38.4593123], [20.5518258, 38.4594509]]}, "properties": {"seq": 264, "road_class": "secondary"}}, {"type": "Feature", "geometry": {"type": "LineString", "coordinates": [[20.5518848, 38.4580122], [20.5519188, 38.4582465]]}, "properties": {"seq": 265, "road_class": "secondary"}}, {"type": "Feature", "geometry": {"type": "LineString", "coordinates": [[20.5517419, 38.4576467], [20.5517614, 38.4576667], [20.551811, 38.4577496], [20.5518432, 38.4578546], [20.5518848, 38.4580122]]}, "properties": {"seq": 266, "road_class": "secondary"}}, {"type": "Feature", "geometry": {"type": "LineString", "coordinates": [[20.5512035, 38.4566438], [20.5512142, 38.4566816], [20.5512558, 38.4568202], [20.5512893, 38.457004], [20.5513188, 38.4571594], [20.5513684, 38.4572823], [20.5514503, 38.4573821], [20.5516139, 38.4575175], [20.5517419, 38.4576467]]}, "properties": {"seq": 267, "road_class": "secondary"}}, {"type": "Feature", "geometry": {"type": "LineString", "coordinates": [[20.5507274, 38.4561922], [20.5508575, 38.4562836], [20.5510694, 38.4564579], [20.5511633, 38.4565682], [20.5512035, 38.4566438]]}, "properties": {"seq": 268, "road_class": "secondary"}}, {"type": "Feature", "geometry": {"type": "LineString", "coordinates": [[20.5504444, 38.4559759], [20.5507274, 38.4561922]]}, "properties": {"seq": 269, "road_class": "secondary"}}, {"type": "Feature", "geometry": {"type": "LineString", "coordinates": [[20.5516259, 38.4521394], [20.5515106, 38.4523473], [20.5513591, 38.45255], [20.5510426, 38.4529008], [20.5508387, 38.4531518], [20.5507234, 38.4533335], [20.5506657, 38.4534711], [20.5506214, 38.4536832], [20.550596, 38.4540046], [20.5506134, 38.4542682], [20.5506496, 38.4545192], [20.5506483, 38.4546494], [20.5506107, 38.4547975], [20.5505423, 38.4549277], [20.5504364, 38.4550695], [20.5503492, 38.4551935], [20.5503009, 38.4552806], [20.5502594, 38.4553856], [20.5502459, 38.4555243], [20.550262, 38.4556881], [20.5503024, 38.4558051], [20.5504444, 38.4559759]]}, "properties": {"seq": 270, "road_class": "secondary"}}, {"type": "Feature", "geometry": {"type": "LineString", "coordinates": [[20.5516923, 38.4516384], [20.5516917, 38.4517781], [20.5516729, 38.4519671], [20.5516407, 38.4520753], [20.5516259, 38.4521394]]}, "properties": {"seq": 271, "road_class": "secondary"}}, {"type": "Feature", "geometry": {"type": "LineString", "coordinates": [[20.5516917, 38.4512719], [20.551693, 38.451483], [20.5516923, 38.4516384]]}, "properties": {"seq": 272, "road_class": "secondary"}}, {"type": "Feature", "geometry": {"type": "LineString", "coordinates": [[20.5529268, 38.44882], [20.5528457, 38.448893], [20.5527411, 38.4490011], [20.5526398, 38.4491576], [20.5525164, 38.449374], [20.5522871, 38.4498414], [20.5521423, 38.4500976], [20.5518244, 38.4506648], [20.5517493, 38.4508402], [20.5517091, 38.4510061], [20.5516917, 38.4512719]]}, "properties": {"seq": 273, "road_class": "secondary"}}, {"type": "Feature", "geometry": {"type": "LineString", "coordinates": [[20.5529905, 38.4487627], [20.5529268, 38.44882]]}, "properties": {"seq": 274, "road_class": "secondary"}}, {"type": "Feature", "geometry": {"type": "LineString", "coordinates": [[20.5541754, 38.4474236], [20.554115, 38.447537], [20.5540654, 38.4477219], [20.5539876, 38.4479718], [20.5539018, 38.4481504], [20.5538374, 38.4482544], [20.5537677, 38.4483258], [20.5536537, 38.4484046], [20.5534109, 38.4485359], [20.553195, 38.4486446], [20.5529905, 38.4487627]]}, "properties": {"seq": 275, "road_class": "secondary"}}, {"type": "Feature", "geometry": {"type": "LineString", "coordinates": [[20.5548768, 38.4466778], [20.5545549, 38.4469688], [20.5543108, 38.4472398], [20.5542518, 38.4473248], [20.5541754, 38.4474236]]}, "properties": {"seq": 276, "road_class": "secondary"}}, {"type": "Feature", "geometry": {"type": "LineString", "coordinates": [[20.5568342, 38.4447074], [20.5567637, 38.4447988], [20.5565478, 38.4450088], [20.5560784, 38.4453775], [20.5554843, 38.4458876], [20.555309, 38.4460382], [20.5551801, 38.4461704], [20.5550698, 38.4463489], [20.5549639, 38.446523], [20.5548768, 38.4466778]]}, "properties": {"seq": 277, "road_class": "secondary"}}, {"type": "Feature", "geometry": {"type": "LineString", "coordinates": [[20.558015, 38.444054], [20.5572143, 38.4443807], [20.5570681, 38.4444563], [20.5569689, 38.4445372], [20.5568723, 38.444658], [20.5568342, 38.4447074]]}, "properties": {"seq": 278, "road_class": "secondary"}}, {"type": "Feature", "geometry": {"type": "LineString", "coordinates": [[20.565096, 38.4387999], [20.5650182, 38.438885], [20.5648962, 38.4389858], [20.5644785, 38.4393993], [20.5642224, 38.4396723], [20.5639198, 38.4399564], [20.5637965, 38.4400436], [20.5636758, 38.4401182], [20.5635403, 38.440177], [20.5633579, 38.440219], [20.563138, 38.4402579], [20.562961, 38.4403062], [20.5628309, 38.440385], [20.5627531, 38.4404711], [20.5626968, 38.4406119], [20.5626337, 38.4408472], [20.5625962, 38.4409911], [20.5625412, 38.4411119], [20.5624567, 38.4412001], [20.5623279, 38.4413041], [20.5621737, 38.4413976], [20.5619766, 38.4414753], [20.561766, 38.4415058], [20.5614522, 38.4415152], [20.5612001, 38.4415279], [20.561074, 38.4415636], [20.560948, 38.4416171], [20.5607991, 38.441698], [20.5606194, 38.4418146], [20.5605, 38.4419228], [20.5604303, 38.4420121], [20.5603887, 38.4421108], [20.5603686, 38.4422243], [20.5603297, 38.4424785], [20.5602519, 38.442803], [20.5601849, 38.4429616], [20.5600615, 38.4431224], [20.5599113, 38.443261], [20.5597088, 38.4433755], [20.5595291, 38.4434763], [20.5590704, 38.4437095], [20.5587888, 38.4438177], [20.5585648, 38.4438786], [20.5583556, 38.4439354], [20.558015, 38.444054]]}, "properties": {"seq": 279, "road_class": "secondary"}}, {"type": "Feature", "geometry": {"type": "LineString", "coordinates": [[20.5656244, 38.4377169], [20.5655788, 38.437804], [20.5655479, 38.4378944], [20.5655238, 38.4379742], [20.5654635, 38.4381181], [20.5651966, 38.4386339], [20.565151, 38.4387179], [20.565096, 38.4387999]]}, "properties": {"seq": 280, "road_class": "secondary"}}, {"type": "Feature", "geometry": {"type": "LineString", "coordinates": [[20.5667457, 38.4368978], [20.566716, 38.4369415], [20.5666822, 38.4369788], [20.5666195, 38.4370269], [20.5664009, 38.4371385], [20.5660535, 38.4373198], [20.5659369, 38.4373828], [20.5658403, 38.4374689], [20.5657411, 38.4375719], [20.565674, 38.4376517], [20.5656244, 38.4377169]]}, "properties": {"seq": 281, "road_class": "secondary"}}, {"type": "Feature", "geometry": {"type": "LineString", "coordinates": [[20.5674196, 38.4323051], [20.5673952, 38.4323713], [20.5674043, 38.432457], [20.5674538, 38.4325545], [20.5675492, 38.4327106], [20.5676448, 38.4328498], [20.5676803, 38.4329171], [20.5676991, 38.4330054], [20.567693, 38.4331495], [20.5676517, 38.4332915], [20.5675012, 38.4337607], [20.5674319, 38.4339271], [20.5673768, 38.4340138], [20.5673218, 38.4340866], [20.5671734, 38.4342408], [20.5670178, 38.4343626], [20.5668937, 38.4344778], [20.5668231, 38.4345747], [20.566788, 38.4346821], [20.5667947, 38.4347878], [20.5668661, 38.434931], [20.5669139, 38.4350414], [20.5669261, 38.435097], [20.5669248, 38.4351464], [20.5669068, 38.4352005], [20.5668753, 38.4352525], [20.5668257, 38.4353087], [20.5667628, 38.4353586], [20.5664695, 38.4354823], [20.5663239, 38.4355573], [20.5662328, 38.4356233], [20.5661751, 38.4357053], [20.5661531, 38.4357808], [20.5661664, 38.4358833], [20.5662119, 38.4359794], [20.566465, 38.4363543], [20.5666967, 38.4367123], [20.566733, 38.4368157], [20.5667457, 38.4368978]]}, "properties": {"seq": 282, "road_class": "secondary"}}, {"type": "Feature", "geometry": {"type": "LineString", "coordinates": [[20.5695342, 38.4291306], [20.5695632, 38.4292633], [20.5695873, 38.4293704], [20.5695981, 38.4294923], [20.5695847, 38.4296415], [20.5695602, 38.4297953], [20.5695337, 38.4299503], [20.5694988, 38.43011], [20.5694254, 38.4303005], [20.5692605, 38.4306083], [20.5689866, 38.4310849], [20.5688294, 38.4314298], [20.5687419, 38.4315644], [20.5686101, 38.4316819], [20.5684105, 38.4318018], [20.5679512, 38.4320221], [20.5676749, 38.432146], [20.5674758, 38.4322417], [20.5674196, 38.4323051]]}, "properties": {"seq": 283, "road_class": "secondary"}}, {"type": "Feature", "geometry": {"type": "LineString", "coordinates": [[20.569404, 38.4279289], [20.5694285, 38.4285918], [20.5694558, 38.4288209], [20.5694816, 38.4289889], [20.5695342, 38.4291306]]}, "properties": {"seq": 284, "road_class": "secondary"}}, {"type": "Feature", "geometry": {"type": "LineString", "coordinates": [[20.5698837, 38.4251342], [20.5697669, 38.4252955], [20.5696595, 38.4254623], [20.5695987, 38.425581], [20.5695487, 38.4257314], [20.5694531, 38.426126], [20.5693929, 38.4263777], [20.569362, 38.4266039], [20.569354, 38.4266851], [20.5693523, 38.4268011], [20.5693779, 38.4270258], [20.5693864, 38.4272998], [20.5694006, 38.4278405], [20.569404, 38.4279289]]}, "properties": {"seq": 285, "road_class": "secondary"}}, {"type": "Feature", "geometry": {"type": "LineString", "coordinates": [[20.5706636, 38.4242949], [20.5705886, 38.4244373], [20.5705014, 38.4245435], [20.5703974, 38.4246342], [20.5700544, 38.424946], [20.5698837, 38.4251342]]}, "properties": {"seq": 286, "road_class": "secondary"}}, {"type": "Feature", "geometry": {"type": "LineString", "coordinates": [[20.5709629, 38.4231777], [20.5708596, 38.4235439], [20.5707198, 38.4240774], [20.5706636, 38.4242949]]}, "properties": {"seq": 287, "road_class": "secondary"}}, {"type": "Feature", "geometry": {"type": "LineString", "coordinates": [[20.5709391, 38.421153], [20.5709419, 38.4211953], [20.5709714, 38.4215473], [20.5710062, 38.4218415], [20.5710438, 38.4220433], [20.5710626, 38.4222156], [20.5710465, 38.4225854], [20.5710009, 38.4229342], [20.5709629, 38.4231777]]}, "properties": {"seq": 288, "road_class": "secondary"}}, {"type": "Feature", "geometry": {"type": "LineString", "coordinates": [[20.5709344, 38.4208227], [20.5709391, 38.421153]]}, "properties": {"seq": 289, "road_class": "secondary"}}, {"type": "Feature", "geometry": {"type": "LineString", "coordinates": [[20.5690501, 38.41644], [20.5690419, 38.4166587], [20.5690312, 38.4168623], [20.569046, 38.4169966], [20.5690858, 38.4171448], [20.5691356, 38.4172569], [20.5692586, 38.4174966], [20.5693636, 38.4177121], [20.5694738, 38.4180147], [20.5696146, 38.4184106], [20.5697394, 38.418686], [20.5698816, 38.4189315], [20.5700793, 38.419246], [20.5703759, 38.4196392], [20.57064, 38.4199821], [20.5707392, 38.4201484], [20.5708073, 38.4202915], [20.5708558, 38.4204129], [20.5708898, 38.4205177], [20.5709111, 38.4205979], [20.5709246, 38.4206651], [20.5709309, 38.4207417], [20.5709344, 38.4208227]]}, "properties": {"seq": 290, "road_class": "secondary"}}, {"type": "Feature", "geometry": {"type": "LineString", "coordinates": [[20.5680504, 38.4137316], [20.5680866, 38.4137961], [20.5681276, 38.4139281], [20.5681244, 38.4141974], [20.5681213, 38.4144679], [20.5681397, 38.4146581], [20.5681773, 38.4147973], [20.5683281, 38.4151966], [20.5683661, 38.4152657], [20.5684163, 38.4153348], [20.568555, 38.4154487], [20.5686703, 38.4155536], [20.5687265, 38.4156294], [20.5687721, 38.4157051], [20.5689283, 38.4160496], [20.5690153, 38.4162708], [20.5690501, 38.41644]]}, "properties": {"seq": 291, "road_class": "secondary"}}, {"type": "Feature", "geometry": {"type": "LineString", "coordinates": [[20.5674151, 38.4131987], [20.5674948, 38.4132575], [20.5678611, 38.4135583], [20.5679972, 38.41367], [20.5680504, 38.4137316]]}, "properties": {"seq": 292, "road_class": "secondary"}}, {"type": "Feature", "geometry": {"type": "LineString", "coordinates": [[20.5671389, 38.413006], [20.567287, 38.413101], [20.5674151, 38.4131987]]}, "properties": {"seq": 293, "road_class": "secondary"}}, {"type": "Feature", "geometry": {"type": "LineString", "coordinates": [[20.5670848, 38.4129731], [20.5671389, 38.413006]]}, "properties": {"seq": 294, "road_class": "secondary"}}, {"type": "Feature", "geometry": {"type": "LineString", "coordinates": [[20.5644, 38.4114326], [20.5646554, 38.4116995], [20.5646923, 38.4117315], [20.5647453, 38.4117709], [20.5647996, 38.4118098], [20.5648512, 38.4118361], [20.5649223, 38.4118603], [20.5649847, 38.4118718], [20.5650564, 38.4118792], [20.5651221, 38.4118829], [20.5659523, 38.4119002], [20.5660334, 38.4119102], [20.5661025, 38.4119254], [20.5661762, 38.4119485], [20.566256, 38.411989], [20.5663083, 38.4120305], [20.5663593, 38.4120851], [20.5663969, 38.4121408], [20.5664512, 38.412321], [20.5664922, 38.4124959], [20.5665446, 38.4125988], [20.5666076, 38.4126775], [20.5667144, 38.4127584], [20.5669135, 38.4128786], [20.5670848, 38.4129731]]}, "properties": {"seq": 295, "road_class": "secondary"}}, {"type": "Feature", "geometry": {"type": "LineString", "coordinates": [[20.5640472, 38.4109754], [20.5644, 38.4114326]]}, "properties": {"seq": 296, "road_class": "secondary"}}, {"type": "Feature", "geometry": {"type": "LineString", "coordinates": [[20.5637925, 38.4106332], [20.5639037, 38.410781], [20.5640472, 38.4109754]]}, "properties": {"seq": 297, "road_class": "secondary"}}, {"type": "Feature", "geometry": {"type": "LineString", "coordinates": [[20.5635658, 38.410347], [20.5637925, 38.4106332]]}, "properties": {"seq": 298, "road_class": "secondary"}}, {"type": "Feature", "geometry": {"type": "LineString", "coordinates": [[20.5635658, 38.410347], [20.5631564, 38.4098334]]}, "properties": {"seq": 299, "road_class": "secondary"}}, {"type": "Feature", "geometry": {"type": "LineString", "coordinates": [[20.5631564, 38.4098334], [20.563038, 38.4096545], [20.5629546, 38.4095052], [20.5628329, 38.4092326], [20.5628101, 38.4091858], [20.5627853, 38.4091448], [20.562108, 38.4083188], [20.5620812, 38.4082516], [20.5620624, 38.4081749], [20.5620597, 38.4080908], [20.5620651, 38.4079941], [20.5620879, 38.4078796], [20.5621093, 38.4077713], [20.5621093, 38.4076904], [20.5621026, 38.4076263]]}, "properties": {"seq": 300, "road_class": "secondary"}}, {"type": "Feature", "geometry": {"type": "LineString", "coordinates": [[20.5621026, 38.4076263], [20.5620852, 38.4075611]]}, "properties": {"seq": 301, "road_class": "secondary"}}, {"type": "Feature", "geometry": {"type": "LineString", "coordinates": [[20.5620852, 38.4075611], [20.5620275, 38.4074918], [20.5619605, 38.4074287], [20.5611129, 38.4067719], [20.5610204, 38.4067152], [20.5608782, 38.4066447], [20.560783, 38.4065974], [20.5606905, 38.4065439], [20.5606288, 38.4064934], [20.5605751, 38.4064409], [20.5605188, 38.4063736], [20.5602305, 38.4059143], [20.5601956, 38.4058313], [20.5601661, 38.4057472], [20.5600937, 38.4055707]]}, "properties": {"seq": 302, "road_class": "secondary"}}, {"type": "Feature", "geometry": {"type": "LineString", "coordinates": [[20.5600937, 38.4055707], [20.5600534, 38.4054845], [20.5598938, 38.4051871], [20.5598776, 38.4051484], [20.559867, 38.405123]]}, "properties": {"seq": 303, "road_class": "secondary"}}, {"type": "Feature", "geometry": {"type": "LineString", "coordinates": [[20.559867, 38.405123], [20.5598509, 38.4050473], [20.5598469, 38.4049664], [20.5598712, 38.4048409], [20.5599, 38.4047734], [20.5599349, 38.4047132], [20.5600249, 38.4046164], [20.5600864, 38.4045584]]}, "properties": {"seq": 304, "road_class": "secondary"}}, {"type": "Feature", "geometry": {"type": "LineString", "coordinates": [[20.5600864, 38.4045584], [20.5602861, 38.4043925], [20.5604625, 38.4042235], [20.5605367, 38.4041311]]}, "properties": {"seq": 305, "road_class": "secondary"}}, {"type": "Feature", "geometry": {"type": "LineString", "coordinates": [[20.5605367, 38.4041311], [20.5605607, 38.4041012], [20.5606928, 38.403806], [20.5608536, 38.4035036], [20.5611209, 38.4029731], [20.5612748, 38.4026971], [20.5613068, 38.4026219], [20.5613278, 38.4025144], [20.5613202, 38.4023995], [20.5612954, 38.402278], [20.561116, 38.401713], [20.5610124, 38.4013554], [20.5609001, 38.4010632], [20.5607652, 38.4007644], [20.5607062, 38.4006219], [20.5606238, 38.4004731], [20.5605208, 38.4003125], [20.5604396, 38.4001761], [20.5603789, 38.4000718]]}, "properties": {"seq": 306, "road_class": "secondary"}}, {"type": "Feature", "geometry": {"type": "LineString", "coordinates": [[20.5603789, 38.4000718], [20.5603531, 38.3999862], [20.5603461, 38.3998916], [20.5603519, 38.3997477], [20.560384, 38.3995887], [20.5604061, 38.3994594], [20.5603948, 38.3993405], [20.5603586, 38.3992076], [20.5602831, 38.3990782], [20.5600858, 38.3988158], [20.5598412, 38.3985068], [20.5597525, 38.398356], [20.5597226, 38.3982351], [20.5597182, 38.3981044]]}, "properties": {"seq": 307, "road_class": "secondary"}}, {"type": "Feature", "geometry": {"type": "LineString", "coordinates": [[20.5597182, 38.3981044], [20.5597245, 38.3980631], [20.5597455, 38.3980052], [20.559782, 38.3979421], [20.5600211, 38.3975298], [20.5600831, 38.3973878], [20.5600991, 38.3973173], [20.5601086, 38.3972478], [20.5600872, 38.3971214], [20.5600658, 38.3970412], [20.5600602, 38.3969563], [20.5600699, 38.3968927], [20.560115, 38.3967749], [20.5601498, 38.3966423], [20.5601761, 38.3965239], [20.5601958, 38.396389]]}, "properties": {"seq": 308, "road_class": "secondary"}}, {"type": "Feature", "geometry": {"type": "LineString", "coordinates": [[20.5601958, 38.396389], [20.560187, 38.3962738], [20.5601351, 38.3960432], [20.5601122, 38.3957662], [20.5601298, 38.3955523], [20.5601972, 38.3953897], [20.5603337, 38.3952199], [20.5604713, 38.3950536], [20.560518, 38.3949282], [20.5605237, 38.3948124], [20.5605007, 38.3947211], [20.560464, 38.3946622], [20.5603239, 38.3945646], [20.5602012, 38.3944696], [20.560119, 38.3944017]]}, "properties": {"seq": 309, "road_class": "secondary"}}, {"type": "Feature", "geometry": {"type": "LineString", "coordinates": [[20.560119, 38.3944017], [20.560074, 38.3943467], [20.5600315, 38.3942503], [20.559988, 38.3941138], [20.5599743, 38.394033]]}, "properties": {"seq": 310, "road_class": "secondary"}}, {"type": "Feature", "geometry": {"type": "LineString", "coordinates": [[20.5599743, 38.394033], [20.5599766, 38.3939742], [20.5599854, 38.3938634], [20.5600113, 38.3937518], [20.5600527, 38.3936516], [20.5601345, 38.3935605], [20.5602301, 38.3934421], [20.5603016, 38.3933524], [20.5603552, 38.3932405], [20.5604119, 38.3930989], [20.5605281, 38.3929336], [20.5606782, 38.3925866], [20.5607595, 38.3924623], [20.5608221, 38.392364], [20.5608499, 38.3922883], [20.5608469, 38.3922256], [20.560827, 38.3921747], [20.560795, 38.3921269], [20.5607337, 38.3920766], [20.5605351, 38.3919861], [20.5604622, 38.3919508], [20.5603601, 38.3918789], [20.5602898, 38.3917989], [20.5602359, 38.391679], [20.5601971, 38.3914904], [20.5601488, 38.3911967], [20.560134, 38.3910099], [20.5601014, 38.3908362], [20.5600518, 38.3906316], [20.5600176, 38.3904837], [20.5600164, 38.3903173], [20.5600582, 38.3901594], [20.5601119, 38.3900616], [20.5602172, 38.3898962], [20.5602954, 38.3897652], [20.5603664, 38.3896398], [20.5603864, 38.3895802], [20.5603942, 38.3895175], [20.5603725, 38.3893739], [20.5603049, 38.389144], [20.5602122, 38.3888767], [20.560101, 38.3885692], [20.5599178, 38.3882515], [20.5597377, 38.3878872], [20.5597386, 38.3878043], [20.5597649, 38.3877196], [20.5598147, 38.38763], [20.5599206, 38.3875102], [20.5602959, 38.3872113], [20.5603606, 38.38712], [20.5603927, 38.3870239], [20.5603806, 38.3869213], [20.560291, 38.3867107], [20.5602931, 38.3866124], [20.5603203, 38.386536], [20.5603802, 38.3864563], [20.5605381, 38.3863316], [20.5606075, 38.3862543], [20.5606183, 38.3861915], [20.5606125, 38.3861201], [20.5605833, 38.3860828], [20.5605357, 38.3860455], [20.560463, 38.3860038], [20.5604058, 38.3859622], [20.5603207, 38.3858908], [20.5602654, 38.3857398], [20.5602335, 38.38538], [20.560251, 38.3853392], [20.5602709, 38.3853058], [20.5603009, 38.3852708], [20.5603356, 38.385245], [20.5603988, 38.385215], [20.5604619, 38.385196], [20.5606374, 38.3851639], [20.5609311, 38.3851089], [20.5612194, 38.3850725], [20.5613688, 38.3850297], [20.5614888, 38.3849506], [20.5615508, 38.3848786], [20.5616012, 38.384797], [20.5616392, 38.3846878], [20.5616534, 38.3845211], [20.5616493, 38.3843835], [20.5616138, 38.3842211], [20.5615344, 38.3840284], [20.5615051, 38.3839058], [20.5615094, 38.383789], [20.5615484, 38.3836715], [20.5616913, 38.3834387], [20.5617556, 38.3831901], [20.561778, 38.3830308], [20.5617797, 38.3829387], [20.5617668, 38.3828645], [20.5617171, 38.382783]]}, "properties": {"seq": 311, "road_class": "secondary"}}, {"type": "Feature", "geometry": {"type": "LineString", "coordinates": [[20.5617171, 38.382783], [20.5616192, 38.3827327], [20.5615284, 38.3826887], [20.5614323, 38.3826551], [20.5613471, 38.3826131], [20.5612753, 38.3825648], [20.5612303, 38.3825], [20.5612015, 38.3824289], [20.561184, 38.3822955], [20.5612057, 38.3820287], [20.5611506, 38.3818063], [20.5610828, 38.3816545], [20.5610083, 38.3814776], [20.5609339, 38.381286], [20.5609198, 38.3812213], [20.5609164, 38.3811566], [20.5609411, 38.3810282], [20.5609632, 38.3809376], [20.560996, 38.380853], [20.56105, 38.3807377], [20.5611064, 38.3806472], [20.5611846, 38.3805336], [20.5612398, 38.3804651], [20.5612924, 38.3804071], [20.5614599, 38.3802327], [20.5616068, 38.380089], [20.5617613, 38.3799056], [20.5619224, 38.3797238], [20.5621097, 38.3795527], [20.5622425, 38.3794606], [20.5623711, 38.3793668], [20.5624452, 38.3792964], [20.562484, 38.3792096], [20.5624957, 38.3791276], [20.5624796, 38.3790599], [20.5624305, 38.3789909], [20.5623636, 38.37895], [20.5621726, 38.3788487], [20.5621176, 38.378818], [20.5620812, 38.3787722], [20.5620602, 38.3787141], [20.5620674, 38.3786551], [20.5620911, 38.3786132], [20.5621711, 38.3785289], [20.5623277, 38.3783681], [20.5624798, 38.3782177], [20.562667, 38.3780389], [20.5627563, 38.3778852], [20.5628262, 38.377714], [20.5628817, 38.377558], [20.5628989, 38.3773755], [20.5629126, 38.377195], [20.5629243, 38.3770185], [20.5629639, 38.3768719], [20.563, 38.3767379], [20.56301, 38.3766028], [20.5630024, 38.3764378], [20.5629925, 38.3762512], [20.5629969, 38.3761531], [20.5630214, 38.376073], [20.5630517, 38.3759835], [20.5630837, 38.3759071], [20.5630959, 38.3757995], [20.5630371, 38.3756415], [20.5630082, 38.3755076], [20.5630268, 38.3753777], [20.5630725, 38.3752533], [20.5631414, 38.3750997], [20.5631921, 38.3749803], [20.5632794, 38.3748235], [20.563318, 38.3745776], [20.5633752, 38.3743486], [20.5634284, 38.3741935], [20.5634911, 38.3740804], [20.5635668, 38.3739492], [20.5636498, 38.3738308], [20.5637107, 38.3736794], [20.5637698, 38.3735193], [20.5637894, 38.373363], [20.5637842, 38.3732561], [20.5637393, 38.3731724], [20.5636736, 38.3731236], [20.5635682, 38.3730876], [20.5634909, 38.3730984], [20.5634053, 38.3731499], [20.5632742, 38.3732718], [20.5630369, 38.3734389], [20.5626824, 38.3736873], [20.5624486, 38.3738899], [20.5623551, 38.3739627], [20.5622833, 38.3740268], [20.5622239, 38.3740546], [20.5620822, 38.374093], [20.5619375, 38.3741074], [20.5617892, 38.3741031], [20.5615958, 38.3741232], [20.5614129, 38.3741545], [20.5612045, 38.3741944], [20.5610666, 38.374209], [20.5609131, 38.3741946], [20.5607751, 38.3741606], [20.5606673, 38.3741119], [20.560528, 38.3740027]]}, "properties": {"seq": 312, "road_class": "secondary"}}, {"type": "Feature", "geometry": {"type": "LineString", "coordinates": [[20.560528, 38.3740027], [20.5603898, 38.3738857], [20.5601949, 38.3737236], [20.560128, 38.3736542], [20.5600871, 38.3735984], [20.560039, 38.3735216], [20.5600009, 38.3734552], [20.559976, 38.3733511], [20.5599557, 38.3732624], [20.5599538, 38.3731527], [20.5599783, 38.3730257]]}, "properties": {"seq": 313, "road_class": "secondary"}}, {"type": "Feature", "geometry": {"type": "LineString", "coordinates": [[20.5599783, 38.3730257], [20.5600395, 38.3728964], [20.5600521, 38.3727748], [20.560038, 38.3726529], [20.5600022, 38.3725636], [20.5598303, 38.3723094], [20.5596608, 38.3719867], [20.5594795, 38.3716396], [20.5593171, 38.3712882], [20.5591588, 38.3709609], [20.5590746, 38.3707828], [20.5589926, 38.3706329], [20.5588837, 38.3705128], [20.5586841, 38.370343], [20.5585935, 38.3702519], [20.558521, 38.3701717], [20.5584687, 38.3700937], [20.5584594, 38.3699727], [20.5584746, 38.3698489], [20.5585539, 38.3696995], [20.5586297, 38.3695651], [20.5586784, 38.3694809], [20.5587157, 38.3693977], [20.5587298, 38.3693045], [20.5587173, 38.3692622], [20.5586946, 38.3692215], [20.5586567, 38.3691897], [20.5586106, 38.3691642], [20.5585118, 38.3691426], [20.5580897, 38.3690338], [20.5579001, 38.3689842], [20.5577603, 38.3689366], [20.557676, 38.3688886], [20.5576021, 38.3688283], [20.5575275, 38.3687507], [20.5574668, 38.3686414], [20.5574091, 38.3685171], [20.5573724, 38.368435], [20.5573198, 38.3683306], [20.5572867, 38.3682474], [20.5572273, 38.3681731], [20.5570822, 38.3681082], [20.5569874, 38.3680992], [20.5568946, 38.3681078], [20.5567434, 38.3681225], [20.5565763, 38.3681544], [20.5564432, 38.3681672], [20.5562714, 38.3681612]]}, "properties": {"seq": 314, "road_class": "secondary"}}, {"type": "Feature", "geometry": {"type": "LineString", "coordinates": [[20.5562714, 38.3681612], [20.5561371, 38.3681546], [20.5559461, 38.3681494], [20.5558459, 38.3681351], [20.5557662, 38.3681143], [20.5556805, 38.3680777], [20.5555963, 38.3680115], [20.5555492, 38.3679624], [20.5555122, 38.3679037], [20.5554922, 38.3678222], [20.5554814, 38.3677684], [20.5554883, 38.3676989]]}, "properties": {"seq": 315, "road_class": "secondary"}}, {"type": "Feature", "geometry": {"type": "LineString", "coordinates": [[20.5554883, 38.3676989], [20.5555056, 38.3676471], [20.5555331, 38.3675959], [20.5555625, 38.3675542], [20.5556736, 38.3674484], [20.5559007, 38.3672587], [20.5559674, 38.3671809], [20.556012, 38.3671163], [20.556044, 38.3670207], [20.5560398, 38.3669402], [20.555988, 38.3668606], [20.5558947, 38.3668032], [20.5556918, 38.3667415], [20.5555529, 38.3666848], [20.5554431, 38.366604], [20.5553623, 38.3664967], [20.5553079, 38.3663809], [20.5552887, 38.3662696], [20.5552924, 38.3661372], [20.5553239, 38.3660172], [20.5553631, 38.3659111], [20.5554272, 38.3657965], [20.5554962, 38.3656953], [20.5555679, 38.3655986], [20.5556515, 38.3654977], [20.5557037, 38.365432], [20.5557295, 38.3653573], [20.5557099, 38.3652718], [20.5556636, 38.3651892], [20.5556037, 38.3651237], [20.5554786, 38.3650519], [20.5553787, 38.3650202], [20.5552685, 38.3650093], [20.5549902, 38.3650214], [20.55458, 38.3650743], [20.5543805, 38.3651159], [20.5542605, 38.3651489], [20.5541613, 38.3651633], [20.5540453, 38.3651666], [20.5539623, 38.365131], [20.5539046, 38.3650802], [20.5538632, 38.364977], [20.5538514, 38.3648721], [20.553801, 38.3647283], [20.5537125, 38.3644449], [20.5536677, 38.3643195], [20.5536332, 38.3642163], [20.5536167, 38.3641321], [20.5535688, 38.3639076], [20.5535365, 38.3638107], [20.5534902, 38.3637304], [20.5534219, 38.3636456], [20.5533613, 38.3636], [20.5532863, 38.3635658], [20.5531746, 38.3635404], [20.5530446, 38.3635346], [20.5529114, 38.3635589], [20.5526134, 38.3636728], [20.5521968, 38.3638427], [20.5520282, 38.3639104], [20.5518882, 38.3639635], [20.5517681, 38.3639706], [20.5516749, 38.3639411]]}, "properties": {"seq": 316, "road_class": "secondary"}}, {"type": "Feature", "geometry": {"type": "LineString", "coordinates": [[20.5516749, 38.3639411], [20.5516285, 38.3639092], [20.5515981, 38.3638403], [20.5515934, 38.3637801], [20.5516185, 38.3636639], [20.5517299, 38.3633633], [20.5517996, 38.3632049], [20.5518782, 38.3630429], [20.5519398, 38.3628952], [20.5519584, 38.3626997], [20.5519625, 38.3625405], [20.5520148, 38.3624406], [20.552096, 38.3623553], [20.5522087, 38.3622549], [20.5525066, 38.3620724], [20.5525962, 38.3619989], [20.552677, 38.3619075], [20.5528085, 38.3617031], [20.552909, 38.3614996], [20.5530574, 38.3612914], [20.5530949, 38.3612054], [20.5531119, 38.3611194], [20.5531414, 38.3609331], [20.5531618, 38.3607577], [20.5532112, 38.3606115], [20.5532563, 38.360488], [20.5532737, 38.3604034], [20.5532611, 38.3602714], [20.5532058, 38.3601449], [20.5529398, 38.3597759], [20.5529176, 38.3596939], [20.552932, 38.3596167], [20.5530303, 38.3595019], [20.5531616, 38.3594117], [20.5532716, 38.3593473], [20.55339, 38.3593082], [20.5535103, 38.3592984], [20.5537937, 38.3592523], [20.5539795, 38.3592095], [20.5541413, 38.3591287], [20.5542713, 38.3590065], [20.5543572, 38.3589059], [20.5544289, 38.3588053], [20.5544456, 38.3587238], [20.5544502, 38.3586376], [20.5544001, 38.3585056], [20.5543084, 38.3583864], [20.554038, 38.3581718], [20.5538431, 38.3579861], [20.553799, 38.3579019], [20.5537819, 38.3577758], [20.5537687, 38.3576643], [20.553662, 38.3575344], [20.5535056, 38.3574164], [20.5532268, 38.3572856], [20.5530012, 38.3571769], [20.5528921, 38.3570887], [20.5528115, 38.3569863], [20.552781, 38.3568814], [20.5527769, 38.3567701], [20.5528033, 38.3566788], [20.5528358, 38.3566162], [20.5530527, 38.3563369], [20.5532293, 38.3561636], [20.5533844, 38.355973], [20.5534479, 38.355807], [20.5534703, 38.3556532], [20.5534687, 38.355332], [20.5534799, 38.3551681], [20.553499, 38.3551043], [20.5535258, 38.3550514], [20.5535692, 38.3550102], [20.553633, 38.3549693], [20.5537972, 38.3549155], [20.5540939, 38.3548517], [20.554676, 38.3547429], [20.5550173, 38.3546454], [20.5551736, 38.3545866], [20.5554734, 38.3544678], [20.5555484, 38.3544265], [20.5556074, 38.354379], [20.5556313, 38.3543402], [20.5556441, 38.3542827], [20.5556425, 38.3542364], [20.5556223, 38.354187], [20.5555755, 38.3541313], [20.5555078, 38.3540839], [20.5552039, 38.3539312], [20.5550689, 38.35385], [20.5548737, 38.3536751], [20.5548021, 38.3535887], [20.5547344, 38.3534735], [20.5547147, 38.353395], [20.5547197, 38.3533113], [20.5547381, 38.3532256], [20.5548346, 38.3529627], [20.5548339, 38.3528457], [20.5548169, 38.3527813], [20.5547833, 38.3527182], [20.5547193, 38.3526664], [20.5546549, 38.3526271], [20.5545702, 38.3525974], [20.5544456, 38.3525914], [20.5541396, 38.3525768], [20.5536176, 38.3525555], [20.5535088, 38.3525356], [20.5534306, 38.3524929], [20.5533597, 38.3524462], [20.553327, 38.3523781], [20.5533227, 38.3523036], [20.5533426, 38.3522454], [20.5534264, 38.3521234], [20.553521, 38.3520073], [20.5537206, 38.3517639], [20.5538721, 38.351583], [20.5540308, 38.3513954], [20.5540997, 38.3513047], [20.5541685, 38.3512049], [20.5542301, 38.3510756], [20.554265, 38.3509309], [20.554241, 38.3508449], [20.5541845, 38.3507721], [20.5541076, 38.3507169], [20.5540026, 38.3506909], [20.5536063, 38.3506843], [20.5534232, 38.3506591], [20.5533234, 38.3506214], [20.5532476, 38.3505684], [20.5531702, 38.3504749], [20.5531411, 38.3503606], [20.5531115, 38.3502098], [20.553053, 38.3501155], [20.5529767, 38.3500433], [20.5529015, 38.3499962], [20.5528139, 38.3499563], [20.5526652, 38.3499192], [20.5525119, 38.3499066], [20.5524081, 38.3499079], [20.5522392, 38.3499018], [20.5521133, 38.3498936], [20.55197, 38.3498682], [20.5518206, 38.3498235], [20.5513351, 38.3496067], [20.5511736, 38.3495888], [20.5510399, 38.3495868], [20.5509126, 38.3496054], [20.5508201, 38.3496183], [20.5503622, 38.3496898]]}, "properties": {"seq": 317, "road_class": "secondary"}}, {"type": "Feature", "geometry": {"type": "LineString", "coordinates": [[20.5503622, 38.3496898], [20.5501505, 38.3497239], [20.5498147, 38.3497542], [20.5495669, 38.3497687], [20.5492421, 38.3497421], [20.5489023, 38.3496689], [20.5482876, 38.3494913], [20.5478023, 38.3493439], [20.5474919, 38.3492642], [20.5471507, 38.3491893], [20.5459723, 38.3489945], [20.5451031, 38.3489422], [20.5446368, 38.3489452], [20.544425, 38.3489452], [20.5442009, 38.3489839], [20.5437817, 38.3490558], [20.5434558, 38.3491228], [20.5431458, 38.3491887], [20.5428792, 38.3492636], [20.5425386, 38.349384], [20.542456, 38.3494059], [20.5423713, 38.3494106], [20.5418711, 38.3493187], [20.5416208, 38.3492775], [20.5413881, 38.3492583], [20.5412084, 38.3492313], [20.5411432, 38.3491842], [20.5411038, 38.3491262], [20.5410942, 38.349039], [20.5411147, 38.3489057], [20.5411553, 38.3487962], [20.5412651, 38.3486868], [20.5413891, 38.3486126], [20.5414776, 38.3485064], [20.5415197, 38.348387], [20.5415173, 38.3482218], [20.5415125, 38.3481188], [20.5414673, 38.34797], [20.5414711, 38.3478934], [20.5414866, 38.3478228], [20.5415366, 38.3477065], [20.5415933, 38.3476222], [20.5416977, 38.3475064], [20.5417755, 38.3474054], [20.541824, 38.3472962]]}, "properties": {"seq": 318, "road_class": "secondary"}}, {"type": "Feature", "geometry": {"type": "LineString", "coordinates": [[20.541824, 38.3472962], [20.5418987, 38.3470687], [20.5419864, 38.3467666], [20.5420549, 38.3465235]]}, "properties": {"seq": 319, "road_class": "secondary"}}, {"type": "Feature", "geometry": {"type": "LineString", "coordinates": [[20.5420549, 38.3465235], [20.5421366, 38.3463186], [20.5421865, 38.3462065], [20.5423159, 38.3459378], [20.5424144, 38.345758], [20.5425207, 38.3456328], [20.5426868, 38.3454906], [20.5427698, 38.345422], [20.5428184, 38.3453549], [20.5428251, 38.3452995], [20.5428287, 38.3450919], [20.5428327, 38.3447754], [20.542858, 38.3445726], [20.5428987, 38.3440761], [20.5429379, 38.3437267], [20.5429776, 38.3434686]]}, "properties": {"seq": 320, "road_class": "secondary"}}, {"type": "Feature", "geometry": {"type": "LineString", "coordinates": [[20.5429776, 38.3434686], [20.5430263, 38.3431517], [20.5431148, 38.3429327], [20.5432283, 38.3427109], [20.5434839, 38.3422539], [20.5437832, 38.341819], [20.5439734, 38.3416159], [20.5441262, 38.3414489], [20.5443566, 38.3412554], [20.5445543, 38.3411288]]}, "properties": {"seq": 321, "road_class": "secondary"}}, {"type": "Feature", "geometry": {"type": "LineString", "coordinates": [[20.5445543, 38.3411288], [20.5449313, 38.3409646], [20.5452025, 38.3409028], [20.545534, 38.3408703], [20.5461092, 38.3408902], [20.5462325, 38.3408606], [20.5463209, 38.3408057], [20.5463754, 38.340733], [20.5464085, 38.3406161], [20.5463341, 38.3403892], [20.5462359, 38.3401721], [20.5461435, 38.3400301], [20.546002, 38.3397685]]}, "properties": {"seq": 322, "road_class": "secondary"}}, {"type": "Feature", "geometry": {"type": "LineString", "coordinates": [[20.546002, 38.3397685], [20.5459675, 38.3396821], [20.5458293, 38.3392413], [20.5457975, 38.3388712], [20.5457874, 38.3387177], [20.5458033, 38.3386335], [20.5458137, 38.3385984], [20.5458703, 38.3384713], [20.546282, 38.3378535], [20.5464573, 38.3375249], [20.5465622, 38.3373487], [20.5466915, 38.3372171], [20.5469689, 38.3370174], [20.5470828, 38.3369132], [20.5472009, 38.3367835], [20.5473613, 38.336584], [20.5474629, 38.336489], [20.5475889, 38.3364196], [20.5476597, 38.3363898], [20.5480318, 38.336295], [20.5481222, 38.3362612], [20.5482195, 38.3361791], [20.5482747, 38.3360971], [20.5482861, 38.3359858], [20.5482415, 38.3358819], [20.5481295, 38.3357596], [20.5479849, 38.3356625], [20.5477367, 38.3354473], [20.5477168, 38.3354076], [20.5477058, 38.3353652], [20.5477073, 38.3353204]]}, "properties": {"seq": 323, "road_class": "secondary"}}, {"type": "Feature", "geometry": {"type": "LineString", "coordinates": [[20.5477073, 38.3353204], [20.5477254, 38.3352692], [20.5477823, 38.3351952], [20.5479491, 38.3350668], [20.5480832, 38.3349201], [20.5482173, 38.3346424], [20.5482769, 38.3345443], [20.5483809, 38.3344553], [20.5487972, 38.3343598], [20.5488784, 38.3343076]]}, "properties": {"seq": 324, "road_class": "secondary"}}, {"type": "Feature", "geometry": {"type": "LineString", "coordinates": [[20.5488784, 38.3343076], [20.5489362, 38.3342407], [20.5489777, 38.3341468], [20.5489724, 38.3340491], [20.5489112, 38.3339246], [20.5487966, 38.3338273], [20.5486015, 38.3337371]]}, "properties": {"seq": 325, "road_class": "secondary"}}, {"type": "Feature", "geometry": {"type": "LineString", "coordinates": [[20.5486015, 38.3337371], [20.5483601, 38.3336187], [20.5480277, 38.3334096]]}, "properties": {"seq": 326, "road_class": "secondary"}}, {"type": "Feature", "geometry": {"type": "LineString", "coordinates": [[20.5480277, 38.3334096], [20.547815, 38.3332639]]}, "properties": {"seq": 327, "road_class": "secondary"}}, {"type": "Feature", "geometry": {"type": "LineString", "coordinates": [[20.547815, 38.3332639], [20.5475053, 38.3330517], [20.5473672, 38.3329338]]}, "properties": {"seq": 328, "road_class": "secondary"}}, {"type": "Feature", "geometry": {"type": "LineString", "coordinates": [[20.5473672, 38.3329338], [20.5472476, 38.3327821], [20.5470359, 38.3323631], [20.546956, 38.3322102]]}, "properties": {"seq": 329, "road_class": "secondary"}}, {"type": "Feature", "geometry": {"type": "LineString", "coordinates": [[20.546956, 38.3322102], [20.5468471, 38.3319876], [20.5466827, 38.3317021]]}, "properties": {"seq": 330, "road_class": "secondary"}}, {"type": "Feature", "geometry": {"type": "LineString", "coordinates": [[20.5470211, 38.3315514], [20.5467516, 38.3316782], [20.5466827, 38.3317021]]}, "properties": {"seq": 331, "road_class": "secondary"}}, {"type": "Feature", "geometry": {"type": "LineString", "coordinates": [[20.5479555, 38.3308813], [20.5478985, 38.3308998], [20.5478352, 38.3309314], [20.5477061, 38.3310374], [20.5474151, 38.3313106], [20.5472896, 38.3314253], [20.5472019, 38.3314749], [20.5470211, 38.3315514]]}, "properties": {"seq": 332, "road_class": "secondary"}}, {"type": "Feature", "geometry": {"type": "LineString", "coordinates": [[20.5487656, 38.3306773], [20.5485866, 38.3307059], [20.5483041, 38.3307804], [20.5480605, 38.3308473], [20.5479555, 38.3308813]]}, "properties": {"seq": 333, "road_class": "secondary"}}, {"type": "Feature", "geometry": {"type": "LineString", "coordinates": [[20.5496154, 38.3311704], [20.549519, 38.3310971], [20.5493843, 38.3310221], [20.5492174, 38.3308884], [20.5490786, 38.3307699], [20.5489495, 38.3307021], [20.5488813, 38.330683], [20.5487656, 38.3306773]]}, "properties": {"seq": 334, "road_class": "secondary"}}, {"type": "Feature", "geometry": {"type": "LineString", "coordinates": [[20.5515603, 38.3297496], [20.5514034, 38.3298567], [20.5510202, 38.3300992], [20.5508591, 38.3301871], [20.5507188, 38.3302472], [20.5506068, 38.3302931], [20.5505181, 38.3303384], [20.5503782, 38.3304209], [20.5502364, 38.3305042], [20.550122, 38.3305822], [20.5500191, 38.3306785], [20.5499532, 38.3307632], [20.5498109, 38.3309532], [20.5497201, 38.3310783], [20.5496154, 38.3311704]]}, "properties": {"seq": 335, "road_class": "secondary"}}, {"type": "Feature", "geometry": {"type": "LineString", "coordinates": [[20.5540401, 38.3285287], [20.5539299, 38.3284962], [20.553799, 38.3284841], [20.5536612, 38.328507], [20.5535493, 38.3285408], [20.5534373, 38.3286151], [20.5533064, 38.328732], [20.5531928, 38.3288002], [20.5530309, 38.3288847], [20.552875, 38.3289441], [20.5527019, 38.3290056], [20.552553, 38.3290772], [20.5523558, 38.3291947], [20.5521078, 38.3293683], [20.5517151, 38.3296439], [20.5515603, 38.3297496]]}, "properties": {"seq": 336, "road_class": "secondary"}}, {"type": "Feature", "geometry": {"type": "LineString", "coordinates": [[20.5546127, 38.329623], [20.5545197, 38.3297042], [20.5544267, 38.3297758], [20.5543492, 38.3297906], [20.554282, 38.3297744], [20.5542493, 38.3297325], [20.5542355, 38.3296744], [20.554255, 38.329469], [20.5542755, 38.3291952], [20.5542654, 38.3290415], [20.5542347, 38.3288853], [20.554171, 38.3287124], [20.554109, 38.3285773], [20.5540401, 38.3285287]]}, "properties": {"seq": 337, "road_class": "secondary"}}, {"type": "Feature", "geometry": {"type": "LineString", "coordinates": [[20.5586646, 38.3266772], [20.5583138, 38.3268966], [20.5576783, 38.3272911], [20.5572201, 38.3276045], [20.5570341, 38.3277099], [20.5568154, 38.3277872], [20.5565669, 38.3278445], [20.5563843, 38.3278578], [20.5562796, 38.3279113], [20.5562016, 38.3280257], [20.5561273, 38.3281875], [20.5560706, 38.3283233], [20.5560104, 38.3283787], [20.555866, 38.3284634], [20.5556763, 38.3285746], [20.555504, 38.3286773], [20.5554282, 38.3287394], [20.5553594, 38.328834], [20.5552181, 38.3290691], [20.5551045, 38.3292109], [20.554996, 38.3293231], [20.5548134, 38.329446], [20.5546903, 38.3295595], [20.5546127, 38.329623]]}, "properties": {"seq": 338, "road_class": "secondary"}}, {"type": "Feature", "geometry": {"type": "LineString", "coordinates": [[20.5600317, 38.325521], [20.5599646, 38.3255719], [20.5598263, 38.3256894], [20.5596907, 38.3258992], [20.5595105, 38.3260654], [20.5592174, 38.3262546], [20.5587816, 38.3265965], [20.5586646, 38.3266772]]}, "properties": {"seq": 339, "road_class": "secondary"}}, {"type": "Feature", "geometry": {"type": "LineString", "coordinates": [[20.5603015, 38.325395], [20.5602289, 38.3254255], [20.5600317, 38.325521]]}, "properties": {"seq": 340, "road_class": "secondary"}}, {"type": "Feature", "geometry": {"type": "LineString", "coordinates": [[20.5615714, 38.3248639], [20.5614112, 38.3249483], [20.5610812, 38.3251043], [20.5608019, 38.325227], [20.5605888, 38.3253016], [20.5604864, 38.3253239], [20.5604002, 38.3253536], [20.5603015, 38.325395]]}, "properties": {"seq": 341, "road_class": "secondary"}}, {"type": "Feature", "geometry": {"type": "LineString", "coordinates": [[20.5643178, 38.3235196], [20.5642261, 38.3235697], [20.5639373, 38.3237138], [20.5634715, 38.3239584], [20.5631764, 38.3241014], [20.562781, 38.32429], [20.5624198, 38.324463], [20.5617284, 38.3247813], [20.5615714, 38.3248639]]}, "properties": {"seq": 342, "road_class": "secondary"}}, {"type": "Feature", "geometry": {"type": "LineString", "coordinates": [[20.5653948, 38.3228097], [20.5652541, 38.3229277], [20.565076, 38.3230597], [20.5648642, 38.3232015], [20.5644992, 38.3234206], [20.5643178, 38.3235196]]}, "properties": {"seq": 343, "road_class": "secondary"}}, {"type": "Feature", "geometry": {"type": "LineString", "coordinates": [[20.5677997, 38.3216133], [20.5677259, 38.321727], [20.5676159, 38.321828], [20.5674604, 38.321929], [20.5671626, 38.3220847], [20.5668113, 38.3222131], [20.5664366, 38.3223604], [20.5660789, 38.322512], [20.5656419, 38.3226834], [20.5654675, 38.3227677], [20.5653948, 38.3228097]]}, "properties": {"seq": 344, "road_class": "secondary"}}, {"type": "Feature", "geometry": {"type": "LineString", "coordinates": [[20.5721864, 38.3196058], [20.571996, 38.3196731], [20.5717787, 38.3197426], [20.5716124, 38.3198099], [20.5714448, 38.3199151], [20.571257, 38.3200298], [20.5710559, 38.3201329], [20.5708346, 38.3202392], [20.5703545, 38.3204086], [20.5701587, 38.3204907], [20.5699352, 38.3205888], [20.5697308, 38.3206874], [20.5695243, 38.3207979], [20.5693057, 38.3209294], [20.5691488, 38.3210357], [20.5690388, 38.3210799], [20.5689034, 38.321123], [20.5687344, 38.3211535], [20.5684648, 38.3211862], [20.5682798, 38.3212167], [20.5681403, 38.3212661], [20.5680531, 38.321325], [20.5679271, 38.3214576], [20.5678278, 38.3215691], [20.5677997, 38.3216133]]}, "properties": {"seq": 345, "road_class": "secondary"}}, {"type": "Feature", "geometry": {"type": "LineString", "coordinates": [[20.5763783, 38.3174816], [20.5762224, 38.3174966], [20.5760671, 38.3175128], [20.575783, 38.3175472], [20.5756395, 38.3175825], [20.5755808, 38.317605], [20.5755275, 38.31764], [20.5752978, 38.3178023], [20.5750717, 38.3179248], [20.5749062, 38.3180359], [20.5746145, 38.3182628], [20.5744368, 38.3184042], [20.5742142, 38.3185662], [20.5740264, 38.318703], [20.5738172, 38.3188335], [20.5735114, 38.3190018], [20.5732539, 38.3191323], [20.5728891, 38.3192901], [20.5725619, 38.3194459], [20.5723071, 38.3195679], [20.5721864, 38.3196058]]}, "properties": {"seq": 346, "road_class": "secondary"}}, {"type": "Feature", "geometry": {"type": "LineString", "coordinates": [[20.5767529, 38.3174456], [20.5766472, 38.3174561], [20.5764183, 38.3174777], [20.5763783, 38.3174816]]}, "properties": {"seq": 347, "road_class": "secondary"}}, {"type": "Feature", "geometry": {"type": "LineString", "coordinates": [[20.5775844, 38.3172573], [20.5772802, 38.3173513], [20.5770109, 38.3174069], [20.5767529, 38.3174456]]}, "properties": {"seq": 348, "road_class": "secondary"}}, {"type": "Feature", "geometry": {"type": "LineString", "coordinates": [[20.5800336, 38.3160152], [20.5799192, 38.3160493], [20.5798039, 38.3160988], [20.5796242, 38.3162272], [20.5792718, 38.3164495], [20.5790406, 38.3165652], [20.5788239, 38.3166663], [20.5785036, 38.3168119], [20.5780613, 38.3170195], [20.5776705, 38.3172144], [20.5775844, 38.3172573]]}, "properties": {"seq": 349, "road_class": "secondary"}}, {"type": "Feature", "geometry": {"type": "LineString", "coordinates": [[20.5817647, 38.3145733], [20.5817458, 38.314592], [20.5816519, 38.3147298], [20.5815929, 38.3148656], [20.581558, 38.3149634], [20.5815151, 38.3150792], [20.5814669, 38.3151655], [20.5814011, 38.3152391], [20.5812657, 38.3153391], [20.5810364, 38.3154706], [20.5806997, 38.3156379], [20.5803765, 38.3157621], [20.5802545, 38.3158147], [20.5801378, 38.3158726], [20.5800869, 38.3159104], [20.5800553, 38.3159557], [20.5800336, 38.3160152]]}, "properties": {"seq": 350, "road_class": "secondary"}}, {"type": "Feature", "geometry": {"type": "LineString", "coordinates": [[20.5825746, 38.3140112], [20.5822688, 38.3141774], [20.5820851, 38.3142879], [20.5819201, 38.3144194], [20.5817647, 38.3145733]]}, "properties": {"seq": 351, "road_class": "secondary"}}, {"type": "Feature", "geometry": {"type": "LineString", "coordinates": [[20.5832411, 38.3134882], [20.583166, 38.3136018], [20.5830856, 38.313707], [20.5829568, 38.3138123], [20.5827396, 38.3139343], [20.5825746, 38.3140112]]}, "properties": {"seq": 352, "road_class": "secondary"}}, {"type": "Feature", "geometry": {"type": "LineString", "coordinates": [[20.5869144, 38.3110605], [20.5864973, 38.311171], [20.5860481, 38.3113152], [20.5854379, 38.3115604], [20.5851562, 38.3116951], [20.5849014, 38.311875], [20.5846748, 38.3120549], [20.5841933, 38.3124632], [20.5837212, 38.3129568], [20.5834383, 38.3132261], [20.5833632, 38.3133093], [20.5832411, 38.3134882]]}, "properties": {"seq": 353, "road_class": "secondary"}}, {"type": "Feature", "geometry": {"type": "LineString", "coordinates": [[20.5884047, 38.3087659], [20.5883186, 38.3087486], [20.5881496, 38.3087317], [20.5879953, 38.3087601], [20.5878653, 38.3088338], [20.5877969, 38.3089085], [20.5877419, 38.3090295], [20.5876788, 38.3092895], [20.5876574, 38.3095778], [20.5876815, 38.3099209], [20.5877285, 38.3103744], [20.5877191, 38.3105259], [20.5876748, 38.3106375], [20.587593, 38.3107438], [20.5874763, 38.3108743], [20.587353, 38.3109521], [20.5871759, 38.3110058], [20.5869144, 38.3110605]]}, "properties": {"seq": 354, "road_class": "secondary"}}, {"type": "Feature", "geometry": {"type": "LineString", "coordinates": [[20.5935341, 38.3064681], [20.5935334, 38.3064886], [20.5935086, 38.3065107], [20.5934704, 38.306527], [20.5933182, 38.3065623], [20.593113, 38.3066133], [20.5929266, 38.306687], [20.5927911, 38.306767], [20.5926678, 38.3068638], [20.5924572, 38.3070332], [20.592185, 38.3072321], [20.5920415, 38.3073731], [20.5918685, 38.3075826], [20.5917169, 38.3077899], [20.5915734, 38.3080088], [20.5914018, 38.3082234], [20.5913588, 38.308294], [20.5913307, 38.3083824], [20.5913132, 38.3085423], [20.5912878, 38.3089159], [20.5912529, 38.3090632], [20.5912234, 38.3091442], [20.5911705, 38.3092036], [20.5911188, 38.3092421], [20.591037, 38.3092579], [20.5909739, 38.30924], [20.5908988, 38.3092], [20.590754, 38.3091337], [20.5906025, 38.3090853], [20.5904429, 38.3090527], [20.5902846, 38.3090348], [20.5900955, 38.3090674], [20.5898501, 38.3091653], [20.5895554, 38.3092872], [20.5894196, 38.3093221], [20.589315, 38.3093389], [20.5892332, 38.3093295], [20.589146, 38.3092937], [20.5890736, 38.3092432], [20.5889891, 38.3091548], [20.588918, 38.3090664], [20.5887879, 38.3089432], [20.5886525, 38.3088506], [20.5885224, 38.3087896], [20.5884047, 38.3087659]]}, "properties": {"seq": 355, "road_class": "secondary"}}, {"type": "Feature", "geometry": {"type": "LineString", "coordinates": [[20.5909947, 38.30738], [20.5910276, 38.3073842], [20.5910678, 38.3073779], [20.5911248, 38.307351], [20.5912743, 38.3072384], [20.5914554, 38.3070985], [20.5917343, 38.3069269], [20.5920106, 38.3067922], [20.5923338, 38.3066407], [20.5925404, 38.3065555], [20.5927858, 38.3065028], [20.5932927, 38.3064429], [20.5934148, 38.3064271], [20.5934697, 38.3064302], [20.5935066, 38.3064439], [20.5935341, 38.3064681]]}, "properties": {"seq": 356, "road_class": "secondary"}}, {"type": "Feature", "geometry": {"type": "LineString", "coordinates": [[20.5973361, 38.3042665], [20.597143, 38.3043265], [20.5967621, 38.3044528], [20.5958582, 38.3047632], [20.5954009, 38.3049106], [20.5948766, 38.3050916], [20.5945909, 38.3052031], [20.5940062, 38.3054357], [20.5932055, 38.3057178], [20.5926597, 38.3059146], [20.5925055, 38.3059756], [20.5923311, 38.306064], [20.5920401, 38.3062524], [20.5918577, 38.306405], [20.5916525, 38.306606], [20.5911537, 38.3071185], [20.5910249, 38.3072595], [20.5909773, 38.3073316], [20.5909746, 38.3073574], [20.5909947, 38.30738]]}, "properties": {"seq": 357, "road_class": "secondary"}}, {"type": "Feature", "geometry": {"type": "LineString", "coordinates": [[20.5973361, 38.3042665], [20.597375, 38.3043033], [20.5974233, 38.304317], [20.5975239, 38.3043233], [20.5976526, 38.3042949], [20.5977948, 38.3042297], [20.5978873, 38.3041676], [20.5979423, 38.3041234], [20.5980161, 38.3040844], [20.5981287, 38.3040402], [20.5987537, 38.3037729], [20.5989227, 38.3036898], [20.5993733, 38.3034688], [20.5995114, 38.303413], [20.5996147, 38.3033541], [20.5998534, 38.3032141], [20.5999862, 38.3031646], [20.6000546, 38.3031531], [20.6003188, 38.3031646], [20.6003463, 38.3031657], [20.6003711, 38.3031583], [20.6003865, 38.303142], [20.600414, 38.3030647]]}, "properties": {"seq": 358, "road_class": "local"}}]}
