                                                                                                                                                                     jsonb_build_object                                                                                                                                                                     
------------------------------------------------------------------------------------------------------------------------------------------------------------------------------------------------------------------------------------------------------------------------------------------------------------------------------------------------------------
 {"type": "FeatureCollection", "features": [{"type": "Feature", "geometry": {"type": "Point", "coordinates": [20.5752362, 38.4609277]}, "properties": {"name": "Φισκάρδο", "role": "origin"}}, {"type": "Feature", "geometry": {"type": "Point", "coordinates": [20.6005843, 38.3024957]}, "properties": {"name": "Agia Effimia Marina", "role": "dest"}}]}
(1 row)

