{"type":"FeatureCollection","features":[{"type":"Feature","properties":{},"geometry":{"type":"Polygon","coordinates":[[[20.418,38.1403],[20.4189,38.1397],[20.4189,38.1391],[20.4193,38.1388],[20.4195,38.1381],[20.4201,38.1376],[20.4204,38.1376],[20.4205,38.1381],[20.4215,38.1376],[20.4218,38.1363],[20.4229,38.1349],[20.4242,38.1348],[20.425,38.1354],[20.425,38.136],[20.4268,38.1355],[20.4269,38.1348],[20.4263,38.1341],[20.4273,38.1333],[20.4273,38.1324],[20.4253,38.1329],[20.4242,38.1324],[20.4238,38.1315],[20.4224,38.1315],[20.4229,38.1323],[20.4223,38.1327],[20.422,38.1323],[20.4212,38.1323],[20.4214,38.1327],[20.4211,38.1335],[20.4217,38.1347],[20.4208,38.1354],[20.4208,38.1364],[20.4202,38.1367],[20.4196,38.1363],[20.419,38.1378],[20.4175,38.139],[20.4174,38.1399],[20.418,38.1403]]]}},{"type":"Feature","properties":{},"geometry":{"type":"Polygon","coordinates":[[[20.562,38.4755],[20.5622,38.475],[20.5632,38.475],[20.5641,38.474],[20.5631,38.4727],[20.5625,38.4725],[20.5631,38.4718],[20.5655,38.4722],[20.5662,38.4713],[20.568,38.471],[20.5693,38.4698],[20.5719,38.4698],[20.5726,38.4704],[20.5726,38.471],[20.5732,38.4712],[20.5737,38.4718],[20.5743,38.4716],[20.5744,38.4713],[20.5728,38.47],[20.5734,38.4685],[20.5734,38.4672],[20.5729,38.4666],[20.5732,38.4661],[20.574,38.4663],[20.5745,38.4672],[20.5754,38.4676],[20.5777,38.4677],[20.5778,38.4675],[20.5783,38.4676],[20.5787,38.4669],[20.5793,38.4669],[20.5793,38.466],[20.579,38.4658],[20.5793,38.4654],[20.5808,38.4646],[20.5817,38.4649],[20.5824,38.4642],[20.5823,38.4628],[20.583,38.4618],[20.583,38.4612],[20.5824,38.4602],[20.5809,38.4602],[20.5801,38.4608],[20.5795,38.4616],[20.5783,38.4621],[20.5756,38.4621],[20.5759,38.4611],[20.5757,38.4605],[20.5768,38.4603],[20.5775,38.4608],[20.5781,38.4603],[20.5783,38.4596],[20.5775,38.4593],[20.5774,38.4588],[20.579,38.4585],[20.5793,38.4581],[20.5784,38.4563],[20.5801,38.4561],[20.5811,38.4547],[20.5811,38.4539],[20.5805,38.453],[20.5798,38.4527],[20.5769,38.4527],[20.5768,38.4524],[20.5786,38.4515],[20.5815,38.4518],[20.5824,38.4514],[20.5832,38.4508],[20.5842,38.4487],[20.586,38.4474],[20.5866,38.446],[20.5865,38.4448],[20.5847,38.4439],[20.5827,38.4436],[20.5826,38.4432],[20.5854,38.4427],[20.5863,38.4411],[20.5862,38.4404],[20.5833,38.4404],[20.5824,38.4401],[20.5809,38.4404],[20.5808,38.4401],[20.5845,38.4389],[20.5847,38.4377],[20.5866,38.4378],[20.5882,38.4368],[20.5882,38.4359],[20.589,38.4356],[20.59,38.4341],[20.5902,38.4328],[20.59,38.4323],[20.5894,38.432],[20.5879,38.4317],[20.5891,38.4305],[20.5879,38.4288],[20.5865,38.4286],[20.5863,38.4279],[20.5869,38.4276],[20.5872,38.427],[20.59,38.4267],[20.5903,38.4262],[20.59,38.4252],[20.5903,38.4249],[20.5914,38.4253],[20.5926,38.4253],[20.5929,38.4249],[20.5937,38.4249],[20.5942,38.4229],[20.5939,38.4219],[20.5945,38.4216],[20.5948,38.4209],[20.5958,38.4209],[20.5967,38.4198],[20.5967,38.4194],[20.5954,38.4186],[20.5952,38.4182],[20.596,38.4177],[20.5955,38.4174],[20.5958,38.417],[20.5972,38.4167],[20.5979,38.416],[20.5981,38.4145],[20.5969,38.413],[20.5963,38.4128],[20.5957,38.4121],[20.5951,38.4121],[20.5948,38.4115],[20.5955,38.4109],[20.5996,38.4106],[20.6001,38.4101],[20.6001,38.409],[20.5973,38.4061],[20.5954,38.4054],[20.5952,38.4043],[20.5958,38.404],[20.5972,38.404],[20.5973,38.4029],[20.599,38.4035],[20.6,38.4033],[20.6006,38.4015],[20.6036,38.4024],[20.6049,38.4021],[20.6055,38.4032],[20.607,38.4035],[20.6074,38.4033],[20.6077,38.4026],[20.6086,38.4029],[20.6095,38.4023],[20.6106,38.4023],[20.6113,38.4011],[20.6115,38.3997],[20.6103,38.3993],[20.61,38.3988],[20.6109,38.3982],[20.6116,38.3968],[20.6095,38.3954],[20.6121,38.3948],[20.6127,38.3944],[20.6128,38.3938],[20.6124,38.3923],[20.6118,38.3918],[20.6116,38.3912],[20.6107,38.3907],[20.6094,38.3905],[20.6092,38.3901],[20.611,38.3895],[20.6113,38.3889],[20.6122,38.3884],[20.6135,38.3883],[20.6137,38.3878],[20.6134,38.3875],[20.6125,38.3874],[20.6124,38.3871],[20.6132,38.386],[20.6132,38.3853],[20.6128,38.3847],[20.6146,38.3838],[20.6144,38.3817],[20.6138,38.3799],[20.6146,38.3798],[20.6152,38.3807],[20.6159,38.3807],[20.6164,38.3784],[20.6173,38.3777],[20.617,38.3767],[20.6171,38.3758],[20.6159,38.3752],[20.6159,38.3743],[20.6146,38.3735],[20.6125,38.3737],[20.6122,38.3728],[20.6127,38.3722],[20.6125,38.3717],[20.6131,38.3712],[20.6156,38.3719],[20.617,38.3717],[20.6173,38.3713],[20.6173,38.3692],[20.6176,38.3688],[20.6174,38.367],[20.6177,38.3661],[20.6168,38.3653],[20.6156,38.3649],[20.6155,38.3643],[20.6158,38.364],[20.6185,38.3639],[20.6196,38.363],[20.6201,38.3618],[20.6196,38.3609],[20.6204,38.3604],[20.6207,38.3592],[20.6216,38.3578],[20.6219,38.3561],[20.6216,38.3552],[20.621,38.3546],[20.621,38.354],[20.6223,38.3537],[20.6235,38.3517],[20.6235,38.3502],[20.624,38.3496],[20.6228,38.3479],[20.6217,38.3473],[20.6217,38.3469],[20.6222,38.3463],[20.6244,38.3463],[20.6243,38.3456],[20.6247,38.3432],[20.6241,38.3429],[20.6244,38.3418],[20.6241,38.3415],[20.6238,38.339],[20.6244,38.3389],[20.6249,38.3381],[20.6249,38.3362],[20.6252,38.336],[20.6255,38.3333],[20.626,38.3328],[20.6263,38.3314],[20.6259,38.3305],[20.6265,38.3301],[20.6268,38.329],[20.6275,38.3281],[20.6284,38.3246],[20.6281,38.3244],[20.6281,38.3232],[20.6265,38.3222],[20.6269,38.3214],[20.6268,38.3205],[20.6275,38.32],[20.6272,38.3173],[20.6256,38.3162],[20.6252,38.315],[20.6244,38.3146],[20.6241,38.314],[20.6232,38.3137],[20.6211,38.3143],[20.621,38.3139],[20.6216,38.3134],[20.6217,38.3128],[20.6214,38.3122],[20.6205,38.3118],[20.6177,38.3116],[20.6161,38.311],[20.6152,38.3103],[20.6119,38.3094],[20.6116,38.3095],[20.6104,38.3086],[20.6103,38.308],[20.6094,38.308],[20.6088,38.3076],[20.6068,38.3077],[20.606,38.307],[20.6055,38.3061],[20.6037,38.3049],[20.6036,38.3039],[20.6027,38.3037],[20.6024,38.3031],[20.6006,38.3028],[20.5984,38.303],[20.5976,38.3018],[20.5976,38.3008],[20.5981,38.3005],[20.5991,38.3005],[20.6004,38.2997],[20.6013,38.2999],[20.6021,38.2982],[20.6039,38.2981],[20.6051,38.2973],[20.6057,38.2954],[20.6061,38.2952],[20.6068,38.2942],[20.6094,38.2935],[20.6103,38.2927],[20.6112,38.2905],[20.6121,38.2894],[20.6118,38.2883],[20.6109,38.2878],[20.6109,38.2862],[20.6118,38.2853],[20.6124,38.2839],[20.6137,38.2826],[20.614,38.2814],[20.6138,38.2796],[20.6155,38.2763],[20.6155,38.2752],[20.6161,38.2746],[20.6174,38.2743],[20.6188,38.2729],[20.6193,38.2705],[20.6202,38.2696],[20.6211,38.2693],[20.6225,38.2683],[20.6237,38.2659],[20.6238,38.264],[20.6235,38.2635],[20.6244,38.2628],[20.6249,38.2615],[20.6247,38.2609],[20.6257,38.26],[20.6256,38.2588],[20.6271,38.258],[20.6287,38.2561],[20.6302,38.2555],[20.6301,38.2552],[20.6308,38.2548],[20.6317,38.253],[20.6341,38.2519],[20.6356,38.2521],[20.6363,38.2515],[20.6418,38.2513],[20.6418,38.2519],[20.6426,38.2525],[20.6433,38.2522],[20.6438,38.2527],[20.6444,38.2518],[20.6452,38.2518],[20.6454,38.2524],[20.6484,38.2527],[20.6493,38.2539],[20.6469,38.2542],[20.6473,38.2545],[20.6497,38.2543],[20.6539,38.2564],[20.6548,38.2588],[20.6557,38.2591],[20.656,38.2604],[20.6576,38.2613],[20.6582,38.2612],[20.6588,38.2615],[20.6603,38.2635],[20.6619,38.2641],[20.6625,38.2647],[20.6624,38.2652],[20.663,38.2653],[20.6643,38.2667],[20.6643,38.2674],[20.6636,38.2676],[20.6631,38.2686],[20.6639,38.2688],[20.6647,38.2696],[20.6644,38.2707],[20.665,38.2713],[20.6649,38.2732],[20.6652,38.2737],[20.6652,38.2753],[20.6662,38.2765],[20.6674,38.2768],[20.668,38.2777],[20.6688,38.2778],[20.6691,38.2784],[20.6714,38.2787],[20.6722,38.2795],[20.6726,38.2805],[20.6737,38.2811],[20.6761,38.2813],[20.6767,38.2807],[20.678,38.2802],[20.6795,38.2783],[20.6807,38.2778],[20.6808,38.276],[20.6777,38.2719],[20.6769,38.2713],[20.6759,38.2711],[20.6741,38.2702],[20.674,38.2695],[20.6743,38.2692],[20.6758,38.2691],[20.6764,38.2688],[20.6765,38.2683],[20.6749,38.2674],[20.6737,38.2661],[20.6725,38.2656],[20.6725,38.2646],[20.6731,38.2641],[20.6731,38.2627],[20.6726,38.2621],[20.6726,38.2615],[20.675,38.2603],[20.6774,38.2606],[20.6786,38.2613],[20.6801,38.2613],[20.6825,38.2647],[20.6835,38.2656],[20.6844,38.2661],[20.6862,38.2659],[20.6869,38.2664],[20.6893,38.2664],[20.6905,38.2658],[20.6911,38.2646],[20.6911,38.2628],[20.6935,38.2628],[20.695,38.2632],[20.6963,38.2632],[20.6964,38.2625],[20.696,38.2603],[20.6987,38.2601],[20.6991,38.2598],[20.6991,38.2594],[20.6996,38.2592],[20.6997,38.2586],[20.6985,38.257],[20.697,38.2565],[20.697,38.256],[20.6964,38.2552],[20.6964,38.2543],[20.696,38.2542],[20.6957,38.2536],[20.696,38.2522],[20.6967,38.2519],[20.6987,38.2522],[20.6991,38.2516],[20.699,38.25],[20.7008,38.2496],[20.7014,38.249],[20.7017,38.2478],[20.7015,38.2464],[20.7039,38.2466],[20.7043,38.2452],[20.7042,38.2442],[20.7036,38.2433],[20.7039,38.2427],[20.7058,38.2421],[20.7076,38.242],[20.7082,38.2414],[20.7088,38.2414],[20.7091,38.2408],[20.7122,38.24],[20.7128,38.2394],[20.7122,38.2384],[20.7104,38.2376],[20.7087,38.2356],[20.7091,38.235],[20.7089,38.2336],[20.7094,38.2327],[20.7088,38.2309],[20.7097,38.2302],[20.7097,38.2296],[20.7106,38.2293],[20.7103,38.2278],[20.7104,38.2268],[20.7122,38.2256],[20.7119,38.225],[20.7127,38.2238],[20.7148,38.2226],[20.7179,38.2228],[20.7179,38.2216],[20.7191,38.2207],[20.7197,38.2193],[20.7206,38.2187],[20.7212,38.2177],[20.7216,38.2162],[20.7219,38.2161],[20.7215,38.2153],[20.7228,38.2147],[20.7237,38.2137],[20.7255,38.2131],[20.7271,38.21],[20.7296,38.2094],[20.7301,38.2088],[20.7296,38.2077],[20.7322,38.2061],[20.7332,38.2028],[20.7344,38.2021],[20.7363,38.2018],[20.7368,38.2012],[20.7372,38.2003],[20.7369,38.1998],[20.7371,38.1985],[20.7386,38.1981],[20.7395,38.1966],[20.7405,38.196],[20.7404,38.1955],[20.7409,38.1954],[20.7414,38.1948],[20.7426,38.1948],[20.743,38.1951],[20.743,38.194],[20.7439,38.1936],[20.7448,38.1925],[20.7448,38.1918],[20.7468,38.1902],[20.7473,38.19],[20.7506,38.1864],[20.7511,38.1864],[20.7517,38.1854],[20.7526,38.1847],[20.7527,38.1841],[20.7546,38.183],[20.7557,38.1817],[20.7557,38.1812],[20.7563,38.1808],[20.756,38.1805],[20.7561,38.1802],[20.7554,38.1799],[20.7554,38.179],[20.7557,38.1787],[20.7569,38.1787],[20.7581,38.1777],[20.7578,38.1769],[20.7597,38.1751],[20.7606,38.1733],[20.7645,38.1717],[20.7661,38.1705],[20.7665,38.1683],[20.7665,38.1664],[20.7658,38.165],[20.7694,38.1565],[20.7712,38.1552],[20.7719,38.154],[20.7725,38.154],[20.7734,38.153],[20.7756,38.1525],[20.7762,38.1512],[20.7767,38.151],[20.7765,38.1504],[20.7776,38.1497],[20.7776,38.1489],[20.778,38.1485],[20.7789,38.1489],[20.7786,38.1483],[20.7789,38.1479],[20.7808,38.1479],[20.7808,38.1476],[20.7793,38.1475],[20.7793,38.1469],[20.7799,38.1464],[20.7802,38.1467],[20.7816,38.1466],[20.7831,38.1479],[20.7831,38.1485],[20.7828,38.1486],[20.7829,38.1491],[20.782,38.1498],[20.7831,38.1494],[20.7841,38.1483],[20.786,38.1492],[20.7866,38.15],[20.7872,38.1497],[20.7872,38.1488],[20.7877,38.1486],[20.7878,38.1477],[20.7872,38.147],[20.7874,38.1463],[20.7869,38.1458],[20.7871,38.1455],[20.7859,38.1442],[20.786,38.1433],[20.7869,38.1416],[20.7868,38.1413],[20.7875,38.1396],[20.7884,38.1391],[20.7884,38.1388],[20.788,38.1388],[20.788,38.1384],[20.7886,38.1379],[20.789,38.1384],[20.7896,38.1376],[20.7904,38.1376],[20.7899,38.1372],[20.7907,38.1349],[20.7914,38.1348],[20.7916,38.1352],[20.7919,38.1352],[20.7916,38.1345],[20.7911,38.1344],[20.7911,38.1339],[20.7917,38.1332],[20.7923,38.133],[20.7923,38.1323],[20.7927,38.1321],[20.7927,38.1315],[20.7933,38.1312],[20.7933,38.1303],[20.7945,38.1294],[20.7953,38.1294],[20.796,38.129],[20.7983,38.1296],[20.7987,38.13],[20.7999,38.1302],[20.8012,38.1275],[20.8011,38.1269],[20.8036,38.1254],[20.8042,38.1245],[20.8044,38.1236],[20.8051,38.1235],[20.8064,38.1223],[20.8064,38.1217],[20.8078,38.1211],[20.8075,38.1204],[20.8087,38.1186],[20.8116,38.1189],[20.8131,38.1186],[20.8136,38.118],[20.8146,38.1155],[20.8152,38.1149],[20.8151,38.1144],[20.8157,38.1138],[20.816,38.1125],[20.8158,38.1107],[20.8152,38.1096],[20.8151,38.1082],[20.8146,38.1071],[20.8134,38.1068],[20.8133,38.1047],[20.8125,38.1044],[20.8124,38.1029],[20.8116,38.1025],[20.8115,38.1021],[20.8103,38.1021],[20.8094,38.1015],[20.8094,38.0991],[20.8084,38.0991],[20.8081,38.0988],[20.8081,38.0979],[20.809,38.0974],[20.809,38.0967],[20.8084,38.0967],[20.8079,38.0958],[20.8075,38.096],[20.8072,38.0954],[20.8064,38.0954],[20.8057,38.0949],[20.8057,38.0937],[20.8061,38.0936],[20.8061,38.0927],[20.8055,38.0922],[20.8052,38.0924],[20.8048,38.0913],[20.8042,38.0913],[20.8038,38.0906],[20.8036,38.0899],[20.8039,38.0896],[20.8035,38.0893],[20.8035,38.0881],[20.8027,38.0866],[20.803,38.0854],[20.8018,38.0845],[20.8014,38.0836],[20.8011,38.08],[20.8014,38.0759],[20.8011,38.0735],[20.7996,38.0704],[20.7977,38.0677],[20.7977,38.066],[20.7974,38.0657],[20.7977,38.065],[20.7968,38.0648],[20.7965,38.0651],[20.7957,38.0644],[20.7935,38.0632],[20.7929,38.0623],[20.7917,38.0616],[20.7911,38.0602],[20.7899,38.0598],[20.7886,38.0586],[20.7865,38.0561],[20.7859,38.0562],[20.7853,38.0559],[20.7853,38.0565],[20.786,38.0565],[20.7863,38.057],[20.7859,38.0573],[20.7852,38.0592],[20.7838,38.0607],[20.782,38.0619],[20.7811,38.0622],[20.7791,38.0638],[20.7771,38.0648],[20.7758,38.065],[20.7725,38.0668],[20.7697,38.0675],[20.767,38.0689],[20.7627,38.069],[20.76,38.0674],[20.7584,38.0671],[20.756,38.0674],[20.7535,38.0668],[20.7512,38.0657],[20.75,38.0644],[20.7499,38.0638],[20.749,38.0634],[20.749,38.0626],[20.7481,38.0625],[20.7473,38.0616],[20.7465,38.0617],[20.7435,38.0607],[20.7423,38.0617],[20.7407,38.0623],[20.7384,38.0626],[20.7369,38.0625],[20.7366,38.0628],[20.7356,38.0626],[20.7351,38.0629],[20.7334,38.0626],[20.7325,38.064],[20.7299,38.0647],[20.7279,38.0645],[20.727,38.0647],[20.7265,38.0651],[20.7252,38.0653],[20.7231,38.0648],[20.7197,38.0653],[20.7186,38.0659],[20.7176,38.0654],[20.7173,38.066],[20.7156,38.0666],[20.7136,38.0669],[20.7128,38.0666],[20.7094,38.068],[20.7073,38.0678],[20.707,38.0683],[20.706,38.0683],[20.7054,38.0687],[20.7031,38.0684],[20.7023,38.069],[20.7018,38.0689],[20.7015,38.0696],[20.7005,38.0696],[20.7003,38.0704],[20.699,38.0702],[20.6985,38.0711],[20.6981,38.0708],[20.6976,38.0715],[20.697,38.0717],[20.697,38.0724],[20.6966,38.0727],[20.6966,38.0736],[20.696,38.0741],[20.6961,38.0744],[20.6954,38.0759],[20.6942,38.076],[20.6942,38.0765],[20.6938,38.0766],[20.6936,38.0771],[20.693,38.0771],[20.6927,38.0776],[20.6917,38.0782],[20.6911,38.0797],[20.6897,38.0811],[20.6884,38.0812],[20.6874,38.0827],[20.6863,38.0827],[20.6859,38.0835],[20.6851,38.0833],[20.6848,38.0837],[20.6838,38.0837],[20.6832,38.0846],[20.6825,38.0846],[20.6828,38.0851],[20.6825,38.0855],[20.6801,38.0857],[20.6795,38.086],[20.6789,38.0869],[20.6778,38.0875],[20.6767,38.0888],[20.6755,38.0894],[20.6741,38.0906],[20.6731,38.0907],[20.6716,38.0915],[20.6697,38.093],[20.6682,38.093],[20.6665,38.0945],[20.6658,38.0945],[20.6649,38.0937],[20.6643,38.0937],[20.6636,38.0945],[20.6627,38.0945],[20.6625,38.0948],[20.6616,38.0943],[20.6609,38.0946],[20.6604,38.0945],[20.6604,38.096],[20.6597,38.0964],[20.6585,38.0964],[20.6573,38.0951],[20.6564,38.0951],[20.6563,38.0965],[20.6525,38.0997],[20.6513,38.1004],[20.6503,38.1004],[20.6484,38.1022],[20.6466,38.1031],[20.6458,38.1038],[20.6445,38.1035],[20.6439,38.1043],[20.6429,38.1043],[20.6427,38.1059],[20.6424,38.1061],[20.6426,38.1088],[20.6423,38.1091],[20.6359,38.1123],[20.6321,38.1135],[20.6316,38.114],[20.6301,38.1141],[20.6299,38.1137],[20.6296,38.1137],[20.6287,38.1144],[20.6272,38.115],[20.6195,38.1171],[20.6171,38.1171],[20.614,38.1177],[20.611,38.1177],[20.611,38.1172],[20.6103,38.1172],[20.61,38.1177],[20.6089,38.118],[20.6076,38.118],[20.6049,38.1168],[20.6045,38.1152],[20.6046,38.1144],[20.6043,38.1144],[20.6043,38.115],[20.6031,38.1159],[20.6015,38.1159],[20.6007,38.1156],[20.6001,38.1159],[20.5999,38.1152],[20.5994,38.115],[20.5985,38.1138],[20.5981,38.1119],[20.5975,38.1119],[20.5967,38.1108],[20.5961,38.111],[20.5966,38.1114],[20.5964,38.1117],[20.5951,38.1107],[20.5948,38.111],[20.5942,38.1107],[20.5942,38.1111],[20.5936,38.1113],[20.59,38.1083],[20.5905,38.1079],[20.5899,38.1076],[20.5897,38.1068],[20.589,38.1068],[20.5887,38.1071],[20.5879,38.107],[20.5876,38.1073],[20.5869,38.1071],[20.5863,38.1064],[20.5863,38.1059],[20.5868,38.1056],[20.5865,38.1053],[20.5865,38.1044],[20.5857,38.1044],[20.5859,38.105],[20.5856,38.1053],[20.5839,38.1049],[20.5804,38.1052],[20.5766,38.1043],[20.5762,38.1038],[20.5763,38.1031],[20.5751,38.1029],[20.5748,38.1025],[20.5759,38.1009],[20.5753,38.1007],[20.5751,38.1013],[20.5744,38.1016],[20.5743,38.1021],[20.5732,38.1015],[20.5713,38.1015],[20.5705,38.1007],[20.5708,38.1],[20.5701,38.1003],[20.5693,38.1001],[20.5679,38.0991],[20.5671,38.098],[20.5671,38.0961],[20.5679,38.0951],[20.5687,38.0946],[20.5687,38.0943],[20.5679,38.0943],[20.5671,38.093],[20.5664,38.0928],[20.5658,38.0921],[20.5665,38.0915],[20.5668,38.0907],[20.5673,38.0906],[20.5673,38.09],[20.567,38.0901],[20.5668,38.0897],[20.5674,38.089],[20.5665,38.0891],[20.5662,38.0888],[20.5664,38.0885],[20.5625,38.0904],[20.5616,38.0903],[20.5622,38.0894],[20.5619,38.0893],[20.5613,38.0901],[20.5616,38.0904],[20.5615,38.0907],[20.5606,38.0909],[20.56,38.0904],[20.5597,38.0913],[20.5583,38.0918],[20.5562,38.0918],[20.5561,38.0913],[20.5565,38.091],[20.5564,38.0907],[20.5558,38.0913],[20.5552,38.0907],[20.5542,38.0907],[20.5539,38.0912],[20.5534,38.0909],[20.5536,38.0915],[20.553,38.0925],[20.5513,38.0936],[20.5509,38.0934],[20.551,38.0937],[20.5504,38.0939],[20.5503,38.0943],[20.5495,38.0948],[20.5488,38.0945],[20.5489,38.0949],[20.5484,38.0955],[20.5472,38.0961],[20.5463,38.0961],[20.5463,38.0965],[20.5457,38.0971],[20.5449,38.0974],[20.5434,38.0988],[20.5425,38.0991],[20.5405,38.1009],[20.539,38.1015],[20.5381,38.1022],[20.5367,38.1024],[20.5347,38.1032],[20.5341,38.1031],[20.5339,38.1034],[20.5314,38.1038],[20.5293,38.1038],[20.5283,38.1031],[20.5281,38.1022],[20.5268,38.1019],[20.525,38.1025],[20.5239,38.1037],[20.5233,38.1037],[20.5214,38.1031],[20.521,38.1021],[20.5199,38.1015],[20.5201,38.1012],[20.5186,38.1007],[20.518,38.1012],[20.5181,38.1015],[20.5178,38.1018],[20.5172,38.1016],[20.5167,38.1019],[20.5168,38.1022],[20.5159,38.1029],[20.5141,38.1034],[20.5135,38.1024],[20.5137,38.1019],[20.5144,38.1013],[20.5155,38.1015],[20.5159,38.1019],[20.5162,38.1019],[20.5162,38.1016],[20.5153,38.1012],[20.5144,38.1012],[20.5143,38.1009],[20.5146,38.1004],[20.5138,38.1004],[20.5137,38.1001],[20.5128,38.1003],[20.512,38.1015],[20.5123,38.1021],[20.5122,38.1027],[20.5116,38.1029],[20.511,38.1028],[20.5117,38.104],[20.5104,38.1044],[20.5114,38.1064],[20.5105,38.1073],[20.5103,38.1086],[20.5092,38.1098],[20.5082,38.1098],[20.5062,38.1104],[20.5043,38.1104],[20.504,38.1101],[20.5036,38.1108],[20.5039,38.1116],[20.5,38.1146],[20.4966,38.1162],[20.496,38.1169],[20.4951,38.1171],[20.4937,38.118],[20.4919,38.1183],[20.4912,38.1178],[20.4896,38.1196],[20.4882,38.1198],[20.4879,38.1205],[20.487,38.1208],[20.487,38.1214],[20.489,38.122],[20.4891,38.1235],[20.4888,38.1241],[20.4894,38.1241],[20.4899,38.1236],[20.4905,38.1238],[20.4908,38.1242],[20.4903,38.1256],[20.4912,38.125],[20.4918,38.1257],[20.4916,38.1284],[20.4905,38.1303],[20.4894,38.1311],[20.4887,38.1321],[20.49,38.1315],[20.4913,38.1299],[20.4924,38.13],[20.4939,38.1309],[20.4948,38.132],[20.4955,38.1336],[20.4955,38.1349],[20.4942,38.1364],[20.4939,38.137],[20.494,38.1376],[20.4937,38.1379],[20.4933,38.1378],[20.4934,38.1385],[20.4928,38.1385],[20.4925,38.139],[20.4924,38.1394],[20.4927,38.1397],[20.4918,38.1413],[20.4915,38.1415],[20.4912,38.1412],[20.4906,38.1418],[20.4909,38.1427],[20.4903,38.1431],[20.49,38.144],[20.4893,38.1446],[20.4887,38.1445],[20.4885,38.1449],[20.4888,38.1452],[20.4884,38.1455],[20.4876,38.1451],[20.4872,38.1452],[20.4872,38.147],[20.4864,38.1477],[20.4858,38.1479],[20.4852,38.1489],[20.4845,38.1488],[20.4841,38.148],[20.4836,38.1495],[20.4842,38.1489],[20.4848,38.1494],[20.4849,38.1501],[20.4845,38.1506],[20.4847,38.1513],[20.4823,38.1534],[20.4781,38.1555],[20.4769,38.1559],[20.476,38.1559],[20.4759,38.1555],[20.4754,38.1555],[20.4748,38.157],[20.4735,38.1585],[20.4735,38.1589],[20.4739,38.1592],[20.4736,38.1595],[20.4739,38.1601],[20.4751,38.1592],[20.4763,38.1591],[20.4775,38.1595],[20.4791,38.1608],[20.4788,38.1614],[20.4796,38.1617],[20.4791,38.1628],[20.4794,38.1632],[20.4793,38.1638],[20.4797,38.1644],[20.4794,38.1649],[20.479,38.1649],[20.479,38.1653],[20.4796,38.1655],[20.4797,38.1659],[20.4791,38.1662],[20.4793,38.1667],[20.4787,38.1667],[20.4784,38.1672],[20.4787,38.168],[20.4796,38.1683],[20.4793,38.1689],[20.4797,38.1695],[20.4793,38.1698],[20.4799,38.171],[20.4805,38.1711],[20.4809,38.1708],[20.4814,38.1719],[20.4806,38.1726],[20.4802,38.1736],[20.4793,38.1735],[20.4793,38.1744],[20.4787,38.1745],[20.4788,38.175],[20.4783,38.1753],[20.4784,38.1756],[20.4778,38.1759],[20.4778,38.1763],[20.4766,38.1772],[20.4763,38.1778],[20.4756,38.178],[20.475,38.1797],[20.4754,38.1803],[20.4747,38.1812],[20.4748,38.1817],[20.4739,38.1818],[20.473,38.1832],[20.4735,38.1838],[20.4732,38.1848],[20.4727,38.1853],[20.4713,38.1853],[20.4708,38.1866],[20.4699,38.1872],[20.4693,38.189],[20.4702,38.1894],[20.4701,38.1903],[20.4698,38.1905],[20.4689,38.19],[20.4683,38.1903],[20.4678,38.1902],[20.4686,38.1912],[20.468,38.1914],[20.4674,38.1911],[20.4674,38.1914],[20.4693,38.192],[20.4705,38.1917],[20.4727,38.192],[20.4738,38.1927],[20.4739,38.1931],[20.4735,38.1939],[20.4741,38.1945],[20.4744,38.1942],[20.4763,38.194],[20.478,38.193],[20.4791,38.1914],[20.4803,38.1909],[20.4811,38.1902],[20.482,38.1888],[20.4824,38.1873],[20.4829,38.1873],[20.4833,38.1867],[20.4842,38.187],[20.4844,38.186],[20.4852,38.1853],[20.4866,38.1853],[20.487,38.1845],[20.4882,38.1841],[20.4882,38.1826],[20.4891,38.1823],[20.4893,38.1815],[20.49,38.1815],[20.4908,38.1797],[20.4908,38.1795],[20.4897,38.1793],[20.4897,38.1777],[20.4905,38.1762],[20.4912,38.1762],[20.4922,38.1747],[20.4921,38.1741],[20.4925,38.1735],[20.4939,38.1728],[20.4942,38.1729],[20.4949,38.1719],[20.4955,38.1714],[20.4961,38.1714],[20.4982,38.1698],[20.5001,38.1665],[20.5012,38.1653],[20.5039,38.1644],[20.5053,38.1644],[20.5056,38.1649],[20.5052,38.1655],[20.5049,38.1653],[20.5049,38.1658],[20.5053,38.1659],[20.5056,38.165],[20.5064,38.1649],[20.508,38.1659],[20.5088,38.1668],[20.5088,38.1674],[20.5097,38.1681],[20.5097,38.1693],[20.508,38.1719],[20.5071,38.1723],[20.5068,38.1732],[20.5061,38.1738],[20.5061,38.1744],[20.5046,38.1757],[20.5022,38.1766],[20.4989,38.1766],[20.4983,38.1771],[20.498,38.1781],[20.4977,38.1778],[20.497,38.1778],[20.4967,38.1781],[20.4957,38.1781],[20.4948,38.1787],[20.4945,38.1799],[20.4958,38.1799],[20.496,38.182],[20.4967,38.182],[20.4972,38.1826],[20.4967,38.1839],[20.4972,38.1848],[20.4977,38.1851],[20.4977,38.1866],[20.496,38.1891],[20.4946,38.1925],[20.4924,38.1939],[20.4908,38.1957],[20.4909,38.1976],[20.49,38.1984],[20.4894,38.1997],[20.4881,38.2006],[20.4879,38.2022],[20.4867,38.203],[20.4854,38.2024],[20.4838,38.2024],[20.4824,38.2033],[20.4818,38.2033],[20.48,38.2048],[20.4781,38.211],[20.4781,38.2117],[20.4787,38.2125],[20.4787,38.214],[20.4783,38.2156],[20.4778,38.2159],[20.4778,38.2168],[20.4763,38.2198],[20.4745,38.2189],[20.4741,38.2189],[20.4736,38.2195],[20.4736,38.2222],[20.4732,38.2248],[20.473,38.2254],[20.472,38.2263],[20.4713,38.2281],[20.4711,38.2311],[20.4698,38.2314],[20.4698,38.2318],[20.4692,38.2324],[20.4678,38.233],[20.4655,38.235],[20.4646,38.2376],[20.4629,38.2403],[20.4628,38.2417],[20.4605,38.2442],[20.4604,38.2452],[20.4598,38.2458],[20.4601,38.2469],[20.4596,38.2472],[20.4599,38.2475],[20.4595,38.249],[20.4596,38.2501],[20.4592,38.2513],[20.4591,38.2533],[20.4583,38.254],[20.4577,38.2555],[20.4574,38.2573],[20.4576,38.2589],[20.4559,38.2597],[20.4556,38.2606],[20.455,38.2612],[20.4544,38.2612],[20.4529,38.2628],[20.4519,38.2629],[20.4512,38.2637],[20.4513,38.264],[20.451,38.2641],[20.4509,38.2652],[20.4518,38.2673],[20.4513,38.268],[20.4509,38.2716],[20.4506,38.2717],[20.4506,38.2728],[20.451,38.2732],[20.451,38.2743],[20.4507,38.2744],[20.451,38.2762],[20.4506,38.2781],[20.4491,38.2787],[20.4488,38.2784],[20.4458,38.2781],[20.4455,38.2786],[20.4457,38.279],[20.4451,38.2792],[20.4443,38.2805],[20.4427,38.2808],[20.4391,38.2807],[20.4375,38.2816],[20.4354,38.2811],[20.4339,38.2804],[20.4326,38.2802],[20.4299,38.279],[20.4282,38.2777],[20.4269,38.2771],[20.4235,38.2735],[20.422,38.2705],[20.4215,38.2688],[20.4218,38.2665],[20.4229,38.265],[20.4236,38.2632],[20.4254,38.2618],[20.4269,38.261],[20.4285,38.2585],[20.4305,38.2564],[20.4308,38.2555],[20.432,38.2551],[20.432,38.2539],[20.4312,38.2534],[20.4309,38.2528],[20.4311,38.2525],[20.4305,38.2513],[20.4294,38.2473],[20.4296,38.2451],[20.4303,38.2417],[20.4323,38.2382],[20.4335,38.2369],[20.4339,38.2357],[20.4346,38.2351],[20.436,38.2323],[20.437,38.2308],[20.4381,38.2301],[20.4387,38.2286],[20.4387,38.2277],[20.439,38.2275],[20.439,38.2266],[20.4396,38.2263],[20.4387,38.225],[20.4391,38.2228],[20.4397,38.2222],[20.4387,38.2205],[20.4385,38.2193],[20.4385,38.218],[20.4391,38.2173],[20.4385,38.215],[20.4388,38.2135],[20.4384,38.2129],[20.4384,38.2122],[20.439,38.2117],[20.4391,38.2109],[20.4385,38.21],[20.4388,38.2034],[20.439,38.2028],[20.4396,38.2027],[20.4406,38.2039],[20.4404,38.2031],[20.4394,38.2024],[20.4397,38.2016],[20.4416,38.2016],[20.4419,38.2019],[20.4424,38.2016],[20.4412,38.201],[20.4406,38.2013],[20.4396,38.2012],[20.4396,38.2003],[20.4401,38.2001],[20.4401,38.1995],[20.4396,38.1994],[20.4397,38.1982],[20.4413,38.1981],[20.4428,38.1984],[20.4433,38.1991],[20.4431,38.2012],[20.4434,38.201],[20.4436,38.2],[20.4436,38.1987],[20.4433,38.1982],[20.4416,38.1979],[20.441,38.1973],[20.44,38.1958],[20.4396,38.1945],[20.4397,38.1925],[20.44,38.1921],[20.4397,38.1863],[20.4406,38.1845],[20.4404,38.1836],[20.4397,38.1824],[20.4396,38.1805],[20.4404,38.1796],[20.4404,38.1784],[20.4399,38.178],[20.4397,38.1768],[20.439,38.1753],[20.439,38.1744],[20.4393,38.1731],[20.44,38.1726],[20.4401,38.172],[20.4401,38.1714],[20.4399,38.1713],[20.4399,38.1702],[20.4403,38.1699],[20.4399,38.1692],[20.4401,38.1687],[20.4394,38.1681],[20.4399,38.1661],[20.4399,38.1643],[20.4394,38.1637],[20.4404,38.1614],[20.4404,38.1608],[20.4401,38.1613],[20.4394,38.1613],[20.4393,38.1616],[20.436,38.1617],[20.4354,38.1614],[20.4352,38.1617],[20.4339,38.1617],[20.4333,38.1614],[20.4299,38.1614],[20.4254,38.1608],[20.4122,38.1601],[20.409,38.1592],[20.4077,38.1583],[20.4073,38.1576],[20.4076,38.1564],[20.4064,38.1556],[20.4065,38.1552],[20.4071,38.1552],[20.4071,38.1549],[20.4062,38.1547],[20.4059,38.1543],[20.4055,38.1543],[20.4055,38.1549],[20.4049,38.1555],[20.4019,38.1561],[20.3977,38.1556],[20.3928,38.1556],[20.3892,38.1544],[20.3872,38.153],[20.3875,38.1518],[20.387,38.1515],[20.387,38.1507],[20.3875,38.1501],[20.3879,38.1501],[20.3879,38.1506],[20.3888,38.1501],[20.3889,38.1483],[20.3882,38.1483],[20.3878,38.1489],[20.3872,38.1489],[20.387,38.1492],[20.3866,38.1491],[20.3866,38.1483],[20.3858,38.1483],[20.3855,38.1488],[20.3839,38.1483],[20.3836,38.1488],[20.3824,38.1488],[20.3814,38.1494],[20.3806,38.1501],[20.3808,38.1507],[20.3797,38.1522],[20.379,38.1525],[20.3788,38.1521],[20.3785,38.1521],[20.3781,38.153],[20.3778,38.1527],[20.3775,38.1528],[20.3775,38.1533],[20.3784,38.1534],[20.3788,38.1541],[20.3784,38.1553],[20.3784,38.1576],[20.377,38.1586],[20.3763,38.1605],[20.3759,38.1608],[20.3761,38.1614],[20.3773,38.1617],[20.3773,38.1631],[20.3763,38.1644],[20.3754,38.1646],[20.3754,38.1641],[20.3744,38.164],[20.373,38.1644],[20.3729,38.1652],[20.3718,38.1661],[20.3711,38.1661],[20.3703,38.1656],[20.3706,38.1677],[20.3695,38.1684],[20.368,38.1686],[20.3677,38.1698],[20.3657,38.1696],[20.3644,38.1699],[20.3633,38.1686],[20.3626,38.1683],[20.362,38.1675],[20.3614,38.1675],[20.3613,38.1669],[20.361,38.1669],[20.3608,38.1674],[20.3598,38.168],[20.3595,38.1687],[20.3589,38.1689],[20.3589,38.1695],[20.3595,38.1698],[20.3598,38.1707],[20.3611,38.1714],[20.3611,38.1722],[20.3602,38.1722],[20.3593,38.1729],[20.3568,38.1729],[20.3568,38.1738],[20.3564,38.1733],[20.3558,38.1733],[20.3561,38.1738],[20.3559,38.1742],[20.3549,38.1742],[20.3546,38.1739],[20.3541,38.1742],[20.3538,38.1739],[20.3528,38.1739],[20.3526,38.1742],[20.3519,38.1741],[20.3514,38.1745],[20.3516,38.1748],[20.3511,38.175],[20.3513,38.176],[20.3504,38.176],[20.3503,38.1765],[20.3498,38.1763],[20.3498,38.1757],[20.3491,38.1756],[20.3485,38.1759],[20.3479,38.1751],[20.3474,38.1751],[20.3473,38.1745],[20.3459,38.1742],[20.3458,38.1736],[20.3446,38.1732],[20.3446,38.1738],[20.344,38.1739],[20.3434,38.1747],[20.3425,38.1747],[20.3425,38.175],[20.3419,38.1753],[20.3418,38.176],[20.3409,38.176],[20.3413,38.1763],[20.3412,38.1774],[20.3416,38.1775],[20.3415,38.1778],[20.3403,38.178],[20.3398,38.1786],[20.3382,38.1789],[20.3383,38.1795],[20.3395,38.1799],[20.3394,38.1805],[20.3397,38.1809],[20.3391,38.182],[20.3398,38.1829],[20.3403,38.1842],[20.3392,38.1841],[20.3383,38.1847],[20.3375,38.186],[20.3367,38.1859],[20.3366,38.1863],[20.3373,38.1863],[20.3373,38.187],[20.3369,38.1875],[20.3372,38.1878],[20.3369,38.19],[20.3372,38.19],[20.3375,38.1906],[20.3386,38.1909],[20.3401,38.192],[20.3407,38.1934],[20.3412,38.1937],[20.3413,38.1948],[20.3431,38.1942],[20.3437,38.1949],[20.3439,38.196],[20.3427,38.197],[20.3424,38.1969],[20.3422,38.1973],[20.3416,38.1973],[20.3416,38.1979],[20.3412,38.1982],[20.3412,38.1988],[20.3407,38.1992],[20.3401,38.1989],[20.3394,38.1992],[20.3388,38.1989],[20.3379,38.1994],[20.3372,38.1992],[20.3366,38.2004],[20.337,38.2007],[20.3389,38.2006],[20.3391,38.2009],[20.3394,38.2004],[20.3401,38.2009],[20.3409,38.2006],[20.3422,38.2015],[20.3427,38.2027],[20.3439,38.2033],[20.3458,38.2033],[20.3462,38.2036],[20.3467,38.2033],[20.3471,38.2042],[20.3497,38.2046],[20.3495,38.2055],[20.3489,38.2055],[20.3489,38.2058],[20.3494,38.2059],[20.3489,38.2074],[20.3497,38.208],[20.3494,38.2086],[20.3495,38.2094],[20.3498,38.2094],[20.3507,38.2106],[20.3507,38.2113],[20.3514,38.2117],[20.3513,38.2129],[20.3508,38.2137],[20.3513,38.2153],[20.3517,38.215],[20.3532,38.2153],[20.3552,38.2174],[20.3561,38.2199],[20.3558,38.2208],[20.3561,38.2207],[20.3564,38.221],[20.3564,38.2216],[20.3568,38.2222],[20.3565,38.2226],[20.3569,38.2228],[20.3571,38.2237],[20.3577,38.2245],[20.3578,38.2272],[20.3583,38.2278],[20.3575,38.229],[20.3581,38.2293],[20.3583,38.2308],[20.3577,38.2312],[20.3572,38.2311],[20.3578,38.232],[20.3568,38.2338],[20.3568,38.2345],[20.3571,38.2347],[20.3569,38.2357],[20.3578,38.2376],[20.3577,38.2391],[20.3571,38.2397],[20.3567,38.2397],[20.3571,38.2402],[20.3567,38.2421],[20.3562,38.2424],[20.3564,38.2427],[20.3547,38.2457],[20.3547,38.2466],[20.354,38.2476],[20.3537,38.2475],[20.3538,38.2484],[20.3534,38.249],[20.3541,38.2516],[20.3555,38.2533],[20.3555,38.2557],[20.3575,38.257],[20.3572,38.258],[20.358,38.2586],[20.3578,38.26],[20.3575,38.2603],[20.3571,38.2601],[20.3574,38.2604],[20.3572,38.2607],[20.3565,38.2606],[20.3568,38.2612],[20.3564,38.2613],[20.3561,38.261],[20.3558,38.2613],[20.3559,38.2619],[20.3572,38.2625],[20.3572,38.2615],[20.3595,38.2615],[20.3601,38.261],[20.361,38.2612],[20.3611,38.2609],[20.3617,38.2609],[20.362,38.2613],[20.3629,38.2616],[20.3635,38.261],[20.3639,38.2613],[20.3651,38.2607],[20.3665,38.2613],[20.3657,38.2618],[20.3657,38.2622],[20.3668,38.2629],[20.3668,38.2618],[20.3678,38.2618],[20.3678,38.2615],[20.3674,38.2615],[20.3671,38.261],[20.3674,38.2604],[20.368,38.2606],[20.3683,38.2603],[20.369,38.2607],[20.3696,38.2597],[20.3708,38.2595],[20.3712,38.2598],[20.3721,38.2591],[20.3727,38.2591],[20.3729,38.2595],[20.3733,38.2594],[20.3736,38.2598],[20.3741,38.2597],[20.3742,38.26],[20.3747,38.2597],[20.3764,38.2607],[20.3781,38.2624],[20.3775,38.2631],[20.3781,38.2634],[20.3782,38.2643],[20.3776,38.2647],[20.3773,38.2644],[20.3766,38.2646],[20.3769,38.265],[20.3766,38.2655],[20.3763,38.2653],[20.3759,38.2658],[20.3753,38.2658],[20.3751,38.2664],[20.3745,38.2665],[20.3745,38.2668],[20.3754,38.267],[20.3763,38.2662],[20.3767,38.2665],[20.3767,38.267],[20.3776,38.2673],[20.3778,38.268],[20.3775,38.2691],[20.3779,38.2698],[20.3775,38.2701],[20.3781,38.2705],[20.3778,38.2714],[20.3781,38.2714],[20.3782,38.2719],[20.3791,38.272],[20.3791,38.271],[20.3797,38.2708],[20.3806,38.2713],[20.3823,38.2711],[20.3824,38.2716],[20.3851,38.2717],[20.3873,38.274],[20.3875,38.275],[20.3872,38.2753],[20.3872,38.276],[20.3875,38.2762],[20.3873,38.2765],[20.3885,38.2774],[20.3881,38.278],[20.3887,38.2792],[20.3881,38.2793],[20.3882,38.2796],[20.3863,38.2835],[20.3863,38.2842],[20.3866,38.2845],[20.3864,38.2869],[20.3867,38.2871],[20.3866,38.2897],[20.3857,38.2917],[20.3861,38.2923],[20.3861,38.2936],[20.3869,38.2941],[20.3867,38.2954],[20.387,38.2955],[20.387,38.2961],[20.3861,38.2966],[20.386,38.2973],[20.3867,38.299],[20.3879,38.3],[20.3887,38.2999],[20.3889,38.3005],[20.3894,38.3006],[20.3903,38.3021],[20.3906,38.3033],[20.3922,38.3043],[20.3925,38.3048],[20.3924,38.3057],[20.3931,38.306],[20.3933,38.3069],[20.3928,38.308],[20.393,38.3083],[20.3918,38.3098],[20.3913,38.3121],[20.3916,38.3124],[20.3921,38.3119],[20.3934,38.3122],[20.3942,38.3137],[20.3951,38.314],[20.3946,38.3144],[20.3949,38.3149],[20.3946,38.3153],[20.3949,38.3158],[20.3949,38.3171],[20.3958,38.3177],[20.3956,38.3182],[20.3967,38.3189],[20.3971,38.3195],[20.397,38.3198],[20.3974,38.3201],[20.3974,38.3205],[20.3967,38.3208],[20.3964,38.3219],[20.3968,38.322],[20.3968,38.3226],[20.3973,38.3229],[20.3971,38.3234],[20.3974,38.3232],[20.3988,38.3241],[20.398,38.3247],[20.3988,38.3246],[20.3992,38.3253],[20.3991,38.3256],[20.3979,38.3256],[20.3977,38.3252],[20.3974,38.3252],[20.3974,38.3255],[20.3983,38.3262],[20.3982,38.3268],[20.3985,38.3274],[20.3997,38.3275],[20.4001,38.328],[20.3997,38.3287],[20.3988,38.3287],[20.3989,38.3292],[20.4003,38.3299],[20.4003,38.3307],[20.4006,38.3308],[20.4003,38.3313],[20.4006,38.3319],[20.4001,38.332],[20.4004,38.3326],[20.4001,38.3329],[20.4,38.3348],[20.3992,38.3359],[20.3986,38.3357],[20.3982,38.336],[20.3982,38.3365],[20.3986,38.3368],[20.3986,38.3377],[20.3977,38.338],[20.3977,38.3383],[20.3983,38.3381],[20.3986,38.3384],[20.3997,38.34],[20.3994,38.3408],[20.3997,38.3412],[20.3997,38.345],[20.3992,38.3461],[20.3976,38.3473],[20.3976,38.3484],[20.397,38.3487],[20.397,38.3491],[20.3974,38.3491],[20.3977,38.3499],[20.3971,38.352],[20.3976,38.3521],[20.3979,38.3528],[20.3977,38.3534],[20.3982,38.3536],[20.3983,38.3549],[20.3991,38.3558],[20.3997,38.3557],[20.4004,38.3563],[20.4009,38.3578],[20.4016,38.3578],[20.4022,38.3575],[20.4023,38.357],[20.4031,38.3572],[20.4026,38.3567],[20.4026,38.3558],[20.4041,38.3551],[20.4041,38.3539],[20.4052,38.353],[20.405,38.3521],[20.4053,38.3515],[20.4073,38.3497],[20.4073,38.3484],[20.4076,38.3481],[20.4074,38.3463],[20.4083,38.3457],[20.4079,38.3448],[20.4086,38.3445],[20.4093,38.3427],[20.4077,38.3395],[20.4086,38.3392],[20.4095,38.338],[20.4095,38.3377],[20.4086,38.3377],[20.4084,38.3371],[20.409,38.3366],[20.4092,38.336],[20.4096,38.3359],[20.4119,38.336],[20.4116,38.338],[20.412,38.3389],[20.412,38.3402],[20.4117,38.3405],[20.412,38.3412],[20.4128,38.3412],[20.414,38.3399],[20.416,38.3399],[20.4162,38.3412],[20.4159,38.3426],[20.4169,38.3444],[20.4174,38.3466],[20.4181,38.3476],[20.418,38.3482],[20.4172,38.3479],[20.4172,38.3484],[20.418,38.3491],[20.4205,38.3503],[20.4217,38.3518],[20.4232,38.3521],[20.4239,38.353],[20.4245,38.353],[20.4256,38.3539],[20.4271,38.3546],[20.4296,38.3552],[20.4311,38.3561],[20.4323,38.3561],[20.4373,38.3575],[20.4387,38.3575],[20.439,38.3578],[20.4397,38.3573],[20.4404,38.3575],[20.4404,38.357],[20.4416,38.3567],[20.4425,38.357],[20.4418,38.3555],[20.4413,38.3554],[20.4415,38.3545],[20.4407,38.3536],[20.4401,38.3523],[20.4401,38.3515],[20.4404,38.3496],[20.4416,38.3473],[20.4415,38.3461],[20.4412,38.346],[20.4413,38.345],[20.4421,38.3444],[20.4421,38.3438],[20.4425,38.3438],[20.443,38.3432],[20.4433,38.342],[20.4439,38.3412],[20.4436,38.34],[20.4437,38.3393],[20.4433,38.3386],[20.4437,38.3381],[20.4437,38.3375],[20.4434,38.336],[20.443,38.3357],[20.4425,38.3344],[20.4436,38.3323],[20.4454,38.3302],[20.446,38.3286],[20.4482,38.3262],[20.4491,38.3258],[20.4492,38.3252],[20.4537,38.3229],[20.4553,38.3229],[20.4549,38.3225],[20.455,38.3222],[20.4555,38.3223],[20.4559,38.3219],[20.4574,38.3214],[20.4586,38.3222],[20.4588,38.3228],[20.4605,38.3231],[20.461,38.3237],[20.4622,38.3238],[20.4629,38.3243],[20.4638,38.3243],[20.4643,38.3237],[20.4649,38.3238],[20.4653,38.3234],[20.4668,38.3237],[20.4669,38.3243],[20.4677,38.3247],[20.4675,38.3255],[20.468,38.3258],[20.4681,38.3264],[20.4686,38.3265],[20.4696,38.3261],[20.4696,38.3253],[20.4704,38.3247],[20.4705,38.3238],[20.4711,38.3232],[20.4708,38.3208],[20.4705,38.3205],[20.4707,38.3201],[20.4702,38.3198],[20.4704,38.3188],[20.4698,38.3182],[20.4699,38.3176],[20.4711,38.3168],[20.4713,38.3162],[20.4721,38.3165],[20.4721,38.3158],[20.4733,38.3155],[20.4732,38.3147],[20.4738,38.3136],[20.4735,38.3125],[20.4738,38.3122],[20.4747,38.3122],[20.4748,38.3115],[20.4759,38.311],[20.4759,38.3106],[20.4765,38.3104],[20.4765,38.31],[20.4771,38.3094],[20.478,38.3092],[20.4832,38.3097],[20.4902,38.3112],[20.4908,38.3116],[20.4905,38.3125],[20.4908,38.3131],[20.4931,38.3144],[20.4934,38.3147],[20.4933,38.315],[20.4937,38.3149],[20.4946,38.3161],[20.4946,38.3191],[20.4958,38.3204],[20.4982,38.3204],[20.4985,38.3207],[20.4992,38.3204],[20.5016,38.3205],[20.5022,38.321],[20.503,38.3207],[20.5062,38.3222],[20.5065,38.3229],[20.5059,38.3238],[20.5062,38.3241],[20.5059,38.3246],[20.5064,38.3246],[20.5064,38.325],[20.507,38.3252],[20.5077,38.3264],[20.5086,38.3265],[20.5088,38.3271],[20.5098,38.328],[20.5107,38.328],[20.5111,38.329],[20.5128,38.329],[20.5129,38.3295],[20.5134,38.3292],[20.5144,38.3292],[20.5152,38.3299],[20.5167,38.3305],[20.5184,38.3319],[20.5183,38.3323],[20.5189,38.3322],[20.5199,38.3332],[20.5213,38.3338],[20.5211,38.3347],[20.5208,38.3348],[20.521,38.3351],[20.5216,38.3348],[20.5235,38.3362],[20.5232,38.3371],[20.5236,38.3375],[20.5236,38.3381],[20.5241,38.3383],[20.5241,38.3392],[20.5236,38.3397],[20.5229,38.34],[20.5225,38.3408],[20.5233,38.3411],[20.5241,38.3409],[20.5244,38.3405],[20.5248,38.3406],[20.5248,38.3415],[20.5242,38.3421],[20.5242,38.3429],[20.5251,38.343],[20.5266,38.3423],[20.5278,38.3423],[20.5281,38.3418],[20.529,38.3414],[20.5297,38.3415],[20.5303,38.3409],[20.5318,38.3411],[20.5321,38.3414],[20.533,38.3409],[20.5347,38.342],[20.5378,38.346],[20.5379,38.3473],[20.5375,38.3475],[20.5376,38.3479],[20.5372,38.3481],[20.5373,38.3485],[20.537,38.3488],[20.5345,38.3503],[20.5324,38.3523],[20.5323,38.3528],[20.5332,38.3527],[20.5338,38.3533],[20.5356,38.3531],[20.536,38.3528],[20.5372,38.3531],[20.5375,38.3527],[20.5387,38.3528],[20.5393,38.3524],[20.5411,38.3527],[20.5418,38.3523],[20.5436,38.3531],[20.5443,38.3545],[20.5452,38.3552],[20.5454,38.3557],[20.5449,38.356],[20.5455,38.3561],[20.5461,38.3572],[20.546,38.3576],[20.5464,38.3576],[20.5469,38.3584],[20.547,38.3607],[20.5473,38.3606],[20.5476,38.3609],[20.5479,38.3624],[20.5476,38.3627],[20.5469,38.3627],[20.5461,38.3645],[20.5452,38.3648],[20.5449,38.3655],[20.5445,38.3653],[20.5449,38.3659],[20.5448,38.3662],[20.5457,38.367],[20.5457,38.3679],[20.5446,38.3691],[20.5446,38.3697],[20.544,38.37],[20.544,38.3704],[20.5449,38.3712],[20.5448,38.3722],[20.5442,38.3725],[20.5437,38.3734],[20.5423,38.3747],[20.5412,38.3749],[20.5405,38.3756],[20.5406,38.3761],[20.5394,38.3768],[20.5384,38.3768],[20.5379,38.3764],[20.536,38.3768],[20.5344,38.3768],[20.5326,38.3786],[20.532,38.3784],[20.5314,38.3787],[20.5305,38.3783],[20.5296,38.3783],[20.5272,38.3804],[20.5256,38.381],[20.5268,38.3828],[20.5268,38.3835],[20.5271,38.3838],[20.5263,38.3847],[20.5263,38.3857],[20.526,38.386],[20.5251,38.386],[20.5257,38.3871],[20.5254,38.3878],[20.5259,38.3883],[20.5268,38.3883],[20.5268,38.3868],[20.5274,38.3868],[20.5277,38.386],[20.5286,38.3862],[20.5289,38.3868],[20.5296,38.3869],[20.5299,38.3874],[20.5312,38.3874],[20.5318,38.3869],[20.5326,38.3869],[20.5333,38.3863],[20.5335,38.3857],[20.5342,38.3857],[20.535,38.3868],[20.536,38.3863],[20.5364,38.3866],[20.537,38.3857],[20.5366,38.3834],[20.537,38.3823],[20.5375,38.382],[20.537,38.381],[20.5366,38.3807],[20.5367,38.3798],[20.537,38.3796],[20.5367,38.3786],[20.5378,38.3774],[20.539,38.3776],[20.5396,38.3781],[20.5394,38.3786],[20.5385,38.379],[20.5393,38.3796],[20.5397,38.3805],[20.5406,38.3801],[20.5421,38.3804],[20.5421,38.3798],[20.5436,38.3798],[20.5439,38.3804],[20.5455,38.3802],[20.546,38.3813],[20.5475,38.381],[20.5478,38.3813],[20.5475,38.3817],[20.5479,38.3823],[20.5478,38.3828],[20.5482,38.3828],[20.5478,38.3834],[20.5481,38.3837],[20.5482,38.3853],[20.5488,38.386],[20.5487,38.3868],[20.5479,38.3868],[20.5475,38.3875],[20.5469,38.3877],[20.5466,38.3887],[20.5472,38.389],[20.5467,38.3895],[20.5467,38.3904],[20.5451,38.3918],[20.5454,38.3933],[20.5461,38.3941],[20.5449,38.3947],[20.5448,38.3965],[20.5439,38.3969],[20.5439,38.3976],[20.5443,38.3979],[20.5434,38.3988],[20.5428,38.399],[20.543,38.3993],[20.5425,38.4002],[20.5421,38.4003],[20.5414,38.4014],[20.5411,38.4027],[20.5406,38.403],[20.5408,38.4035],[20.5403,38.4037],[20.5403,38.4043],[20.5411,38.4049],[20.5406,38.4057],[20.5403,38.4057],[20.5405,38.4061],[20.5411,38.4067],[20.543,38.4064],[20.5434,38.4069],[20.5424,38.4082],[20.5428,38.409],[20.5423,38.4094],[20.5418,38.4093],[20.5417,38.4099],[20.5412,38.4103],[20.5403,38.4104],[20.5399,38.4113],[20.5388,38.4116],[20.5388,38.4125],[20.54,38.4131],[20.54,38.4143],[20.5406,38.4146],[20.5451,38.4152],[20.546,38.4143],[20.5464,38.4145],[20.5454,38.4163],[20.5446,38.4165],[20.5434,38.4177],[20.5424,38.418],[20.5424,38.4188],[20.5433,38.42],[20.5433,38.4209],[20.544,38.4224],[20.5445,38.4232],[20.5455,38.4238],[20.5455,38.4243],[20.5448,38.425],[20.5442,38.425],[20.5439,38.4246],[20.5428,38.4243],[20.5427,38.4237],[20.5423,38.4235],[20.5423,38.424],[20.5411,38.425],[20.5411,38.4256],[20.5417,38.4259],[20.54,38.4267],[20.5397,38.427],[20.5397,38.4277],[20.539,38.4276],[20.5382,38.4283],[20.5376,38.4304],[20.5366,38.4298],[20.5357,38.4298],[20.535,38.4307],[20.535,38.4317],[20.5357,38.4323],[20.5357,38.4334],[20.5361,38.4338],[20.5356,38.435],[20.5364,38.4357],[20.536,38.4362],[20.5363,38.439],[20.5357,38.4393],[20.5353,38.4389],[20.5347,38.4389],[20.535,38.4413],[20.5354,38.4416],[20.5357,38.4424],[20.536,38.4424],[20.5359,38.4416],[20.5363,38.4408],[20.5372,38.441],[20.5373,38.4413],[20.5382,38.4411],[20.5391,38.4423],[20.5409,38.4421],[20.5411,38.4426],[20.5421,38.4433],[20.5417,38.4439],[20.542,38.4442],[20.5417,38.4463],[20.5421,38.4472],[20.5417,38.4487],[20.5417,38.45],[20.542,38.4506],[20.5418,38.4512],[20.543,38.4529],[20.5428,38.4533],[20.5423,38.4536],[20.542,38.4545],[20.542,38.4569],[20.5423,38.4575],[20.5418,38.4576],[20.5412,38.4593],[20.5406,38.4591],[20.54,38.4597],[20.5403,38.463],[20.5399,38.4636],[20.5391,38.4639],[20.539,38.4648],[20.5382,38.4652],[20.5381,38.466],[20.5376,38.4663],[20.5379,38.4673],[20.5376,38.4676],[20.5367,38.4676],[20.5363,38.4682],[20.5369,38.4685],[20.5364,38.4689],[20.5367,38.4701],[20.5378,38.4704],[20.5388,38.4703],[20.5388,38.4719],[20.5391,38.4725],[20.5409,38.4737],[20.5487,38.4739],[20.5497,38.4731],[20.5497,38.4727],[20.5487,38.4719],[20.5488,38.4716],[20.5521,38.4722],[20.5527,38.4722],[20.5528,38.4718],[20.5534,38.4721],[20.554,38.4718],[20.5555,38.4718],[20.5556,38.4727],[20.5571,38.4734],[20.5576,38.4733],[20.5586,38.4744],[20.5591,38.4743],[20.5597,38.4747],[20.5607,38.4746],[20.5616,38.4756],[20.562,38.4755]]]}},{"type":"Feature","properties":{},"geometry":{"type":"Polygon","coordinates":[[[20.7497,38.3374],[20.7506,38.3362],[20.7514,38.3359],[20.7514,38.335],[20.7506,38.3344],[20.7503,38.3336],[20.7491,38.3328],[20.7473,38.3331],[20.7471,38.3341],[20.7475,38.3347],[20.7479,38.3368],[20.7487,38.3375],[20.7497,38.3374]]]}},{"type":"Feature","properties":{},"geometry":{"type":"Polygon","coordinates":[[[20.6478,38.5036],[20.6484,38.503],[20.6491,38.5032],[20.6505,38.502],[20.6505,38.5011],[20.6522,38.5015],[20.6527,38.502],[20.6542,38.5018],[20.6549,38.5024],[20.6564,38.5021],[20.6567,38.5024],[20.6572,38.5021],[20.6577,38.5024],[20.6582,38.502],[20.6579,38.5011],[20.6594,38.4996],[20.6604,38.4993],[20.6616,38.4999],[20.6619,38.4993],[20.663,38.499],[20.6636,38.4983],[20.6659,38.4971],[20.6668,38.4969],[20.6677,38.4959],[20.6676,38.4935],[20.6679,38.4932],[20.67,38.4932],[20.6707,38.4929],[20.6719,38.4935],[20.6734,38.4922],[20.6743,38.4925],[20.6758,38.4923],[20.6768,38.4914],[20.6768,38.4901],[20.6781,38.4895],[20.6781,38.4877],[20.6786,38.4869],[20.6759,38.4871],[20.6755,38.4859],[20.6743,38.485],[20.6735,38.4837],[20.6732,38.4831],[20.6734,38.4825],[20.6729,38.4823],[20.6719,38.4831],[20.671,38.4817],[20.671,38.4797],[20.6719,38.4794],[20.6722,38.4789],[20.6728,38.4791],[20.6735,38.477],[20.6719,38.4759],[20.671,38.4762],[20.6707,38.4753],[20.6717,38.4752],[20.6722,38.4747],[20.6729,38.4747],[20.6731,38.475],[20.6737,38.475],[20.6738,38.4747],[20.6735,38.4744],[20.6737,38.4737],[20.6729,38.4737],[20.6714,38.4727],[20.6707,38.4725],[20.6703,38.4715],[20.6719,38.4713],[20.672,38.4707],[20.6729,38.47],[20.6725,38.4692],[20.6734,38.4675],[20.6731,38.467],[20.6725,38.4669],[20.6711,38.4652],[20.6703,38.4654],[20.6692,38.4669],[20.6682,38.4661],[20.6668,38.4664],[20.6662,38.4652],[20.6664,38.4643],[20.6658,38.4627],[20.665,38.4618],[20.6646,38.4605],[20.6634,38.4599],[20.6634,38.4591],[20.6644,38.4587],[20.665,38.4591],[20.6679,38.4593],[20.6691,38.4584],[20.6698,38.4582],[20.6701,38.4588],[20.6707,38.4591],[20.6722,38.4593],[20.6723,38.4587],[20.6714,38.4579],[20.6711,38.457],[20.6729,38.457],[20.6738,38.456],[20.6743,38.4561],[20.6749,38.4581],[20.6783,38.4585],[20.678,38.4572],[20.679,38.456],[20.6789,38.4545],[20.6792,38.4541],[20.6804,38.4542],[20.6811,38.4538],[20.6832,38.4541],[20.6833,38.4545],[20.6826,38.4549],[20.6826,38.4554],[20.6838,38.4554],[20.685,38.4541],[20.686,38.4541],[20.6872,38.4549],[20.688,38.4545],[20.6884,38.4547],[20.6881,38.4575],[20.6892,38.459],[20.6884,38.4605],[20.6884,38.4611],[20.6895,38.4616],[20.6912,38.4613],[20.6917,38.4608],[20.6923,38.4608],[20.6932,38.46],[20.693,38.4591],[20.6939,38.4579],[20.6939,38.4576],[20.6935,38.4575],[20.6938,38.4566],[20.6948,38.4563],[20.6961,38.4549],[20.6975,38.4544],[20.6975,38.4532],[20.697,38.4523],[20.6982,38.4521],[20.6981,38.4518],[20.6972,38.4518],[20.6961,38.4509],[20.6951,38.4487],[20.6939,38.4493],[20.6921,38.449],[20.6911,38.4496],[20.69,38.4497],[20.6899,38.449],[20.6902,38.4483],[20.6911,38.4477],[20.6911,38.4466],[20.6915,38.4465],[20.6924,38.4469],[20.6927,38.4462],[20.6942,38.4459],[20.6945,38.445],[20.696,38.4442],[20.6964,38.4448],[20.6973,38.4445],[20.6981,38.446],[20.7,38.4456],[20.7008,38.4466],[20.702,38.4469],[20.7025,38.4456],[20.7033,38.4456],[20.7031,38.4448],[20.7025,38.4445],[20.702,38.4417],[20.7042,38.4387],[20.7049,38.4384],[20.706,38.4374],[20.7075,38.4375],[20.7075,38.4366],[20.7098,38.4347],[20.7092,38.4335],[20.7072,38.4346],[20.7061,38.4347],[20.7061,38.4338],[20.7055,38.4335],[20.7052,38.4317],[20.7042,38.4316],[20.7033,38.431],[20.7043,38.4299],[20.7052,38.4296],[20.7057,38.4286],[20.7054,38.4283],[20.7046,38.4283],[20.704,38.4277],[20.7009,38.427],[20.7008,38.4265],[20.7017,38.4261],[20.7017,38.4258],[20.7005,38.4258],[20.697,38.424],[20.6969,38.4228],[20.6976,38.4222],[20.6973,38.4213],[20.6988,38.4209],[20.6993,38.4204],[20.6991,38.4192],[20.6987,38.4185],[20.7009,38.4185],[20.7011,38.4174],[20.7008,38.4168],[20.7,38.4158],[20.699,38.4158],[20.6978,38.4164],[20.6975,38.416],[20.6978,38.4145],[20.697,38.414],[20.6957,38.414],[20.6951,38.4136],[20.695,38.413],[20.6956,38.4124],[20.6959,38.4115],[20.6948,38.4104],[20.6942,38.409],[20.6926,38.4081],[20.6929,38.4073],[20.6929,38.4054],[20.6908,38.4043],[20.688,38.4036],[20.6884,38.403],[20.6892,38.4029],[20.6895,38.4018],[20.6884,38.4014],[20.688,38.4003],[20.6875,38.4],[20.6872,38.3987],[20.6851,38.3975],[20.6856,38.3969],[20.6857,38.3956],[20.6847,38.3944],[20.685,38.3915],[20.6844,38.3904],[20.6829,38.3887],[20.6814,38.3877],[20.6807,38.3875],[20.6801,38.3865],[20.6786,38.3851],[20.6771,38.3832],[20.6761,38.3831],[20.6753,38.3823],[20.6752,38.3798],[20.6746,38.3777],[20.6741,38.3774],[20.6741,38.3764],[20.6744,38.375],[20.6752,38.3747],[20.6762,38.3735],[20.6764,38.3722],[20.6753,38.3712],[20.6758,38.3697],[20.6752,38.3698],[20.6746,38.3691],[20.6749,38.3671],[20.674,38.3665],[20.6741,38.3655],[20.6765,38.3642],[20.6789,38.3634],[20.6823,38.3636],[20.6842,38.3649],[20.6847,38.3661],[20.6856,38.3668],[20.686,38.3677],[20.6868,38.3679],[20.6877,38.3691],[20.6895,38.3694],[20.6917,38.3716],[20.6933,38.371],[20.6942,38.3715],[20.6948,38.3726],[20.6961,38.3723],[20.6966,38.3729],[20.6972,38.3729],[20.699,38.3722],[20.6999,38.3706],[20.7018,38.3701],[20.7033,38.3713],[20.7033,38.3716],[20.7014,38.3731],[20.7011,38.3737],[20.7033,38.3737],[20.7055,38.3734],[20.7063,38.3728],[20.7073,38.3712],[20.7084,38.3707],[20.7082,38.3688],[20.7092,38.3676],[20.7106,38.3668],[20.7134,38.367],[20.7151,38.3661],[20.7161,38.3649],[20.717,38.3652],[20.718,38.3649],[20.7183,38.3652],[20.7183,38.3648],[20.7188,38.3645],[20.7204,38.3652],[20.7209,38.3658],[20.72,38.3673],[20.7183,38.368],[20.7177,38.3689],[20.7174,38.3688],[20.7182,38.3698],[20.718,38.3709],[20.7162,38.3717],[20.7156,38.3732],[20.7152,38.3735],[20.7148,38.3735],[20.7148,38.3729],[20.7145,38.3728],[20.7137,38.3732],[20.7128,38.3732],[20.7119,38.3725],[20.7107,38.3722],[20.7098,38.3726],[20.7092,38.3734],[20.7094,38.3744],[20.7087,38.3743],[20.7061,38.3767],[20.7039,38.377],[20.703,38.3786],[20.7021,38.3792],[20.7015,38.3801],[20.7015,38.3813],[20.702,38.3825],[20.7017,38.3845],[20.7027,38.3851],[20.7034,38.3851],[20.7055,38.3868],[20.7064,38.3869],[20.707,38.3862],[20.7121,38.3837],[20.713,38.3828],[20.7136,38.3816],[20.7159,38.3814],[20.7167,38.3811],[20.7171,38.3805],[20.7179,38.3807],[20.7182,38.3816],[20.7188,38.382],[20.7189,38.3828],[20.7186,38.3832],[20.7189,38.3835],[20.7194,38.3835],[20.7206,38.3845],[20.7217,38.3838],[20.7225,38.3838],[20.7232,38.3845],[20.7235,38.3854],[20.7225,38.386],[20.7219,38.3874],[20.7204,38.3872],[20.7197,38.3884],[20.7186,38.3883],[20.7186,38.3892],[20.7171,38.3896],[20.7162,38.3893],[20.7156,38.3904],[20.7146,38.3904],[20.7142,38.3908],[20.7142,38.3915],[20.7149,38.392],[20.7165,38.3911],[20.7177,38.3909],[20.7183,38.3912],[20.7186,38.3907],[20.72,38.3901],[20.721,38.3902],[20.7213,38.3899],[20.7228,38.3899],[20.7238,38.3895],[20.7243,38.3895],[20.7243,38.3901],[20.7247,38.3901],[20.7246,38.3895],[20.7249,38.389],[20.7258,38.3893],[20.7268,38.3878],[20.7273,38.3877],[20.7277,38.388],[20.7284,38.3868],[20.7316,38.3853],[20.7345,38.3853],[20.7345,38.3862],[20.7351,38.3866],[20.7351,38.3871],[20.7356,38.3872],[20.7366,38.3862],[20.7362,38.386],[20.7362,38.3856],[20.7356,38.3851],[20.7365,38.385],[20.7371,38.3841],[20.7377,38.3843],[20.738,38.384],[20.738,38.3834],[20.7375,38.3828],[20.7377,38.382],[20.7384,38.3816],[20.7399,38.3816],[20.7401,38.381],[20.7396,38.3807],[20.7398,38.3802],[20.7417,38.3804],[20.7445,38.3796],[20.7445,38.3787],[20.7456,38.3786],[20.7463,38.3777],[20.7462,38.3773],[20.7447,38.3765],[20.7448,38.3762],[20.7426,38.3758],[20.7423,38.3755],[20.7421,38.3744],[20.7424,38.3737],[20.743,38.3735],[20.743,38.3732],[20.7415,38.3722],[20.7418,38.3716],[20.7426,38.3715],[20.7439,38.372],[20.7448,38.3719],[20.746,38.3729],[20.7472,38.3731],[20.7476,38.3719],[20.7484,38.372],[20.749,38.3713],[20.75,38.371],[20.7506,38.3704],[20.7506,38.3698],[20.7512,38.3694],[20.7515,38.3686],[20.7509,38.368],[20.7511,38.3677],[20.7523,38.3677],[20.7535,38.3661],[20.7557,38.3652],[20.7561,38.3646],[20.7546,38.3646],[20.7535,38.3653],[20.7529,38.3652],[20.752,38.3658],[20.7518,38.3662],[20.7514,38.3661],[20.7512,38.3665],[20.7499,38.3667],[20.7493,38.3664],[20.7481,38.3668],[20.7478,38.3673],[20.7457,38.3674],[20.7454,38.3679],[20.7445,38.3677],[20.7441,38.3673],[20.7442,38.367],[20.7426,38.3673],[20.742,38.3661],[20.7404,38.3648],[20.7383,38.3649],[20.7375,38.3655],[20.736,38.3649],[20.7363,38.3645],[20.7371,38.3645],[20.7375,38.3639],[20.7381,38.3639],[20.7392,38.3631],[20.7408,38.3627],[20.7418,38.361],[20.7433,38.3607],[20.7451,38.3588],[20.7448,38.3575],[20.7453,38.3572],[20.7456,38.3563],[20.7468,38.3552],[20.7479,38.3548],[20.7484,38.3542],[20.7482,38.3528],[20.7476,38.3523],[20.7456,38.3515],[20.7459,38.3508],[20.7457,38.3499],[20.7435,38.3494],[20.7424,38.3509],[20.742,38.35],[20.7408,38.3496],[20.7423,38.3479],[20.7432,38.3476],[20.7439,38.3466],[20.7412,38.3464],[20.7404,38.3467],[20.7399,38.3461],[20.7392,38.3463],[20.7377,38.345],[20.7378,38.3447],[20.7399,38.3442],[20.7412,38.3442],[20.7417,38.3436],[20.7414,38.3424],[20.7398,38.3411],[20.7392,38.3411],[20.7381,38.3397],[20.7387,38.3389],[20.7414,38.3392],[20.742,38.3384],[20.7435,38.3387],[20.7441,38.3384],[20.7451,38.3371],[20.7456,38.3359],[20.7451,38.3348],[20.7462,38.3342],[20.7463,38.3335],[20.7459,38.3323],[20.7438,38.3313],[20.7442,38.3302],[20.7433,38.3296],[20.7433,38.329],[20.7444,38.3281],[20.7451,38.328],[20.7454,38.3272],[20.749,38.3272],[20.7493,38.3267],[20.7503,38.3265],[20.7505,38.3261],[20.753,38.3255],[20.7533,38.3249],[20.7543,38.3243],[20.7554,38.3243],[20.7564,38.3247],[20.7567,38.3243],[20.7587,38.324],[20.7603,38.3228],[20.7642,38.322],[20.7651,38.3213],[20.7658,38.3213],[20.7667,38.3207],[20.767,38.3198],[20.7665,38.3197],[20.7664,38.3192],[20.7649,38.3186],[20.7627,38.3188],[20.7615,38.3182],[20.7597,38.3182],[20.7597,38.3176],[20.7591,38.3173],[20.7572,38.3174],[20.7567,38.3179],[20.7551,38.3179],[20.7551,38.3174],[20.756,38.3171],[20.7557,38.3162],[20.756,38.3155],[20.7555,38.3143],[20.7546,38.3133],[20.7533,38.313],[20.7524,38.3139],[20.7506,38.3139],[20.7499,38.3147],[20.7481,38.3118],[20.7472,38.3113],[20.746,38.3113],[20.7451,38.3119],[20.7444,38.3119],[20.7444,38.3098],[20.7433,38.3086],[20.7415,38.3083],[20.7408,38.3089],[20.7401,38.3089],[20.7377,38.3073],[20.7362,38.308],[20.7354,38.307],[20.7344,38.3064],[20.7326,38.3069],[20.732,38.3063],[20.7308,38.3058],[20.7281,38.3034],[20.7274,38.3034],[20.7273,38.3046],[20.7264,38.3052],[20.7258,38.3061],[20.7244,38.3067],[20.7237,38.3077],[20.7232,38.307],[20.7228,38.3069],[20.7228,38.3064],[20.7238,38.3052],[20.7238,38.3048],[20.7229,38.304],[20.7237,38.3008],[20.7231,38.3002],[20.7182,38.3009],[20.7161,38.3033],[20.7139,38.3027],[20.7127,38.3028],[20.7118,38.3042],[20.7107,38.3046],[20.7104,38.3058],[20.7091,38.3057],[20.7084,38.3061],[20.7072,38.3086],[20.7058,38.307],[20.7049,38.307],[20.7034,38.3082],[20.703,38.3092],[20.7009,38.3101],[20.6997,38.3119],[20.6979,38.3119],[20.6973,38.3133],[20.6966,38.3137],[20.6948,38.3158],[20.6936,38.3183],[20.6926,38.3191],[20.6921,38.3203],[20.6911,38.3216],[20.6911,38.3234],[20.689,38.3271],[20.6889,38.328],[20.6869,38.3304],[20.6862,38.3325],[20.6863,38.3342],[20.6869,38.3347],[20.6868,38.3381],[20.6872,38.3405],[20.6869,38.3445],[20.6851,38.3479],[20.6847,38.3481],[20.6847,38.3485],[20.6853,38.3485],[20.6854,38.3488],[20.6841,38.35],[20.6829,38.3505],[20.6802,38.35],[20.6767,38.3512],[20.6761,38.352],[20.6744,38.3528],[20.6735,38.354],[20.6717,38.3546],[20.6694,38.3569],[20.6676,38.3603],[20.6658,38.3624],[20.6662,38.3628],[20.6659,38.3633],[20.6664,38.3639],[20.6662,38.3646],[20.6676,38.3652],[20.6673,38.3658],[20.6673,38.3671],[20.6677,38.3677],[20.6682,38.3701],[20.668,38.3719],[20.6677,38.372],[20.668,38.3735],[20.6674,38.3738],[20.6674,38.3753],[20.6662,38.3765],[20.6664,38.3768],[20.6659,38.3777],[20.6643,38.3795],[20.6646,38.3819],[20.6636,38.3848],[20.6624,38.3859],[20.6625,38.3863],[20.6631,38.3866],[20.6631,38.3874],[20.6625,38.3883],[20.6609,38.389],[20.6604,38.3889],[20.6598,38.3898],[20.6594,38.3896],[20.6588,38.3899],[20.6585,38.3905],[20.6573,38.3912],[20.6573,38.3917],[20.6567,38.3917],[20.6561,38.3926],[20.6545,38.3932],[20.6539,38.3951],[20.6534,38.3953],[20.6531,38.3963],[20.6527,38.3966],[20.6528,38.3971],[20.6524,38.3975],[20.6525,38.3981],[20.6516,38.3987],[20.6518,38.3997],[20.6512,38.4002],[20.6512,38.4011],[20.6505,38.4024],[20.6505,38.403],[20.6497,38.4035],[20.6497,38.4039],[20.6491,38.4042],[20.6491,38.4048],[20.6484,38.4054],[20.6484,38.4067],[20.6476,38.4067],[20.6479,38.407],[20.6476,38.4073],[20.6479,38.4093],[20.647,38.4107],[20.6464,38.4109],[20.6464,38.4115],[20.6469,38.4121],[20.6466,38.4127],[20.6467,38.4139],[20.6461,38.4143],[20.6461,38.4149],[20.6457,38.4154],[20.6444,38.4158],[20.6435,38.418],[20.6426,38.4186],[20.6411,38.4212],[20.642,38.4225],[20.6418,38.4237],[20.6424,38.4262],[20.6402,38.4314],[20.6396,38.4317],[20.6391,38.4337],[20.6396,38.4344],[20.6403,38.4344],[20.6406,38.4347],[20.6414,38.4362],[20.6411,38.4375],[20.6418,38.4386],[20.6415,38.4399],[20.6394,38.4408],[20.6388,38.4407],[20.6381,38.4401],[20.638,38.4393],[20.6375,38.4392],[20.6374,38.4387],[20.636,38.4378],[20.6336,38.4387],[20.6326,38.4386],[20.6316,38.4392],[20.6292,38.442],[20.6287,38.4423],[20.6284,38.4421],[20.6278,38.4433],[20.6275,38.4459],[20.6289,38.4478],[20.6266,38.4485],[20.6253,38.4509],[20.6241,38.4517],[20.6226,38.4533],[20.6213,38.4557],[20.6198,38.4566],[20.6191,38.4581],[20.6186,38.4579],[20.6188,38.4582],[20.6182,38.4584],[20.6182,38.4588],[20.617,38.4599],[20.617,38.4606],[20.6165,38.4608],[20.6168,38.4619],[20.6162,38.4622],[20.6162,38.463],[20.6155,38.4637],[20.6144,38.4657],[20.6146,38.4666],[20.6149,38.4667],[20.6149,38.4677],[20.6152,38.4679],[20.6147,38.4688],[20.6146,38.4701],[20.6147,38.473],[20.6162,38.4747],[20.6161,38.4758],[20.6165,38.4756],[20.6177,38.4767],[20.6176,38.4771],[20.6182,38.4776],[20.6182,38.4785],[20.6185,38.4788],[20.6193,38.4785],[20.6219,38.4785],[20.6237,38.4795],[20.6247,38.4789],[20.6256,38.4789],[20.6268,38.4777],[20.628,38.4779],[20.6283,38.4771],[20.6292,38.4768],[20.6293,38.4761],[20.6307,38.4749],[20.6327,38.4739],[20.6338,38.4739],[20.6344,38.4733],[20.6348,38.4733],[20.6354,38.4719],[20.636,38.4719],[20.6371,38.4712],[20.638,38.4713],[20.6377,38.4707],[20.6378,38.4703],[20.6384,38.47],[20.6385,38.4706],[20.6388,38.4706],[20.6394,38.4698],[20.6391,38.4692],[20.6394,38.4689],[20.64,38.4691],[20.6402,38.4682],[20.643,38.467],[20.6448,38.4673],[20.6451,38.4677],[20.6455,38.4677],[20.6458,38.4673],[20.6464,38.4676],[20.6467,38.4685],[20.649,38.4712],[20.6496,38.4724],[20.6513,38.474],[20.6512,38.4746],[20.6518,38.4756],[20.6516,38.4759],[20.6528,38.4776],[20.6519,38.478],[20.6515,38.4777],[20.6508,38.4786],[20.6513,38.4798],[20.6522,38.4804],[20.6522,38.4808],[20.6527,38.4808],[20.6524,38.4816],[20.6519,38.4817],[20.6521,38.4823],[20.6527,38.4819],[20.6537,38.4837],[20.6533,38.4844],[20.6527,38.4843],[20.6524,38.4846],[20.6525,38.4852],[20.6522,38.4856],[20.6527,38.4859],[20.6522,38.4861],[20.6522,38.4867],[20.6525,38.4871],[20.6519,38.4871],[20.6519,38.4874],[20.6525,38.4875],[20.6524,38.488],[20.6527,38.4886],[20.6519,38.4889],[20.6513,38.4901],[20.6513,38.4914],[20.6516,38.4917],[20.6511,38.4923],[20.6497,38.4925],[20.6494,38.4931],[20.6487,38.4929],[20.6476,38.4944],[20.6473,38.4983],[20.6479,38.4984],[20.6485,38.4978],[20.6491,38.4978],[20.6499,38.4983],[20.65,38.4989],[20.6499,38.4999],[20.6494,38.5002],[20.6493,38.4997],[20.6488,38.4996],[20.6485,38.4999],[20.6487,38.5005],[20.6482,38.5006],[20.6482,38.5011],[20.6475,38.5018],[20.6478,38.5023],[20.6478,38.5036]]]}},{"type":"Feature","properties":{},"geometry":{"type":"Polygon","coordinates":[[[20.82,38.5029],[20.8212,38.5021],[20.8231,38.5024],[20.8236,38.502],[20.8228,38.5003],[20.8228,38.4996],[20.8237,38.4981],[20.824,38.496],[20.8233,38.4942],[20.8228,38.4939],[20.8227,38.4929],[20.823,38.4928],[20.8228,38.4923],[20.8231,38.4922],[20.8231,38.4916],[20.8236,38.4911],[20.8241,38.4911],[20.8241,38.4898],[20.8236,38.4893],[20.8237,38.4887],[20.823,38.4875],[20.8215,38.4864],[20.8218,38.4858],[20.8216,38.4849],[20.8198,38.484],[20.8198,38.4832],[20.8203,38.4825],[20.8212,38.4822],[20.8228,38.4823],[20.8233,38.4817],[20.8227,38.4808],[20.8221,38.4805],[20.8219,38.4798],[20.8222,38.4797],[20.8222,38.4791],[20.8204,38.4779],[20.8192,38.4776],[20.8189,38.477],[20.8176,38.4768],[20.8166,38.4774],[20.8161,38.477],[20.8163,38.4767],[20.8151,38.4762],[20.8145,38.4762],[20.814,38.4768],[20.814,38.4782],[20.8137,38.4785],[20.8108,38.4788],[20.8102,38.4782],[20.8096,38.4783],[20.8094,38.478],[20.8088,38.478],[20.8079,38.4771],[20.8072,38.4773],[20.807,38.4765],[20.8078,38.4765],[20.8075,38.4761],[20.8084,38.4758],[20.8087,38.4753],[20.8054,38.474],[20.8041,38.4741],[20.8041,38.4749],[20.8036,38.4753],[20.803,38.4753],[20.8032,38.4768],[20.802,38.4774],[20.7997,38.4774],[20.799,38.4768],[20.7983,38.4771],[20.7977,38.4768],[20.7963,38.477],[20.7962,38.4788],[20.7965,38.4795],[20.7959,38.4813],[20.7962,38.4834],[20.7969,38.4835],[20.7975,38.4844],[20.7984,38.4849],[20.799,38.4856],[20.8014,38.4867],[20.8026,38.4867],[20.8026,38.4883],[20.8038,38.4901],[20.8054,38.4902],[20.8067,38.4899],[20.8069,38.4917],[20.8066,38.4923],[20.8075,38.4926],[20.8075,38.4939],[20.8081,38.4942],[20.8087,38.4951],[20.8105,38.4956],[20.8105,38.4962],[20.8113,38.498],[20.8127,38.4986],[20.8127,38.4993],[20.8145,38.5005],[20.816,38.5029],[20.82,38.5029]]]}},{"type":"Feature","properties":{},"geometry":{"type":"Polygon","coordinates":[[[20.7097,38.5679],[20.7119,38.5673],[20.7122,38.5669],[20.7146,38.5667],[20.7152,38.566],[20.7162,38.5658],[20.7177,38.564],[20.7191,38.5632],[20.7191,38.5626],[20.7185,38.5617],[20.7186,38.5614],[20.7204,38.5617],[20.7216,38.5615],[20.7212,38.5603],[20.7215,38.56],[20.7215,38.5591],[20.7219,38.559],[20.7219,38.5587],[20.7207,38.5582],[20.7198,38.5572],[20.7198,38.5566],[20.7204,38.5562],[20.7204,38.5556],[20.7194,38.5544],[20.7188,38.5529],[20.7186,38.5512],[20.7179,38.5507],[20.7177,38.5499],[20.7171,38.5496],[20.7158,38.5498],[20.7146,38.5507],[20.7143,38.5505],[20.7148,38.5492],[20.7162,38.5483],[20.7168,38.5474],[20.717,38.546],[20.7156,38.545],[20.7159,38.5444],[20.7171,38.5429],[20.7179,38.5425],[20.7191,38.5429],[20.72,38.5425],[20.7195,38.5419],[20.7168,38.5423],[20.7165,38.5419],[20.7167,38.5408],[20.7162,38.5401],[20.7167,38.5396],[20.7167,38.5389],[20.7162,38.5383],[20.7152,38.5379],[20.7122,38.5383],[20.7118,38.5389],[20.7118,38.5396],[20.7098,38.5414],[20.7087,38.5416],[20.7081,38.5405],[20.7033,38.5423],[20.7018,38.5431],[20.7012,38.5438],[20.7003,38.5441],[20.7,38.5444],[20.7002,38.5448],[20.6988,38.5459],[20.6999,38.5489],[20.7002,38.5526],[20.7006,38.5532],[20.7006,38.5541],[20.7011,38.5547],[20.7018,38.5575],[20.7017,38.5603],[20.7031,38.5614],[20.7031,38.562],[20.7036,38.5623],[20.7033,38.5626],[20.7034,38.5637],[20.7043,38.5643],[20.7043,38.5655],[20.7049,38.5657],[20.7061,38.567],[20.7078,38.5669],[20.7097,38.5679]]]}},{"type":"Feature","properties":{},"geometry":{"type":"Polygon","coordinates":[[[20.8527,38.5655],[20.8547,38.5646],[20.8541,38.5639],[20.855,38.5629],[20.8548,38.5623],[20.8536,38.5623],[20.8533,38.5627],[20.8526,38.5629],[20.8527,38.562],[20.8517,38.562],[20.852,38.5612],[20.8515,38.5614],[20.8512,38.5609],[20.8503,38.5611],[20.8509,38.5618],[20.8508,38.5627],[20.8518,38.5627],[20.8521,38.563],[20.8514,38.564],[20.8502,38.564],[20.8503,38.5649],[20.8514,38.5645],[20.8515,38.5648],[20.8523,38.5648],[20.8527,38.5655]]]}}]}